{
"type": "FeatureCollection",
"name": "b3_r0_c1",
"crs": { "type": "name", "properties": { "name": "urn:ogc:def:crs:OGC:1.3:CRS84" } },
"xy_coordinate_resolution": 1e-05,
"features": [
{ "type": "Feature", "properties": { "km": 1, "city": "Alameda", "people": 5161 }, "geometry": { "type": "MultiPolygon", "coordinates": [ [ [ [ -122.25887, 37.7617 ], [ -122.25464, 37.76033 ], [ -122.25482, 37.75939 ], [ -122.25598, 37.75963 ], [ -122.25658, 37.75859 ], [ -122.25572, 37.75811 ], [ -122.25668, 37.75656 ], [ -122.26109, 37.75815 ], [ -122.26098, 37.75881 ], [ -122.26157, 37.75908 ], [ -122.26145, 37.7595 ], [ -122.26259, 37.75993 ], [ -122.26315, 37.75905 ], [ -122.26398, 37.75921 ], [ -122.26451, 37.75875 ], [ -122.27169, 37.76153 ], [ -122.27502, 37.7649 ], [ -122.27592, 37.76641 ], [ -122.27599, 37.76753 ], [ -122.27648, 37.76794 ], [ -122.27777, 37.76831 ], [ -122.28013, 37.76614 ], [ -122.28079, 37.76605 ], [ -122.28101, 37.76652 ], [ -122.2802, 37.76703 ], [ -122.28013, 37.76834 ], [ -122.27877, 37.76855 ], [ -122.27862, 37.77091 ], [ -122.2769, 37.77135 ], [ -122.27636, 37.77106 ], [ -122.2761, 37.77159 ], [ -122.27271, 37.77146 ], [ -122.27268, 37.76942 ], [ -122.2712, 37.76881 ], [ -122.27072, 37.76963 ], [ -122.26347, 37.76946 ], [ -122.26334, 37.76659 ], [ -122.26072, 37.76545 ], [ -122.25991, 37.76623 ], [ -122.25261, 37.76298 ], [ -122.25397, 37.76046 ], [ -122.25714, 37.76159 ], [ -122.25887, 37.76192 ], [ -122.25887, 37.7617 ] ], [ [ -122.259, 37.7605 ], [ -122.2593, 37.76059 ], [ -122.2598, 37.75977 ], [ -122.25949, 37.75966 ], [ -122.259, 37.7605 ] ], [ [ -122.26058, 37.76451 ], [ -122.26029, 37.76444 ], [ -122.26011, 37.76466 ], [ -122.2605, 37.76483 ], [ -122.26058, 37.76451 ] ], [ [ -122.26419, 37.75979 ], [ -122.26239, 37.76283 ], [ -122.26322, 37.76322 ], [ -122.26951, 37.76556 ], [ -122.27134, 37.76588 ], [ -122.27114, 37.76232 ], [ -122.26419, 37.75979 ] ], [ [ -122.26186, 37.76395 ], [ -122.262, 37.76434 ], [ -122.26218, 37.76388 ], [ -122.26186, 37.76395 ] ], [ [ -122.26355, 37.76497 ], [ -122.26372, 37.76429 ], [ -122.26363, 37.76427 ], [ -122.263, 37.76483 ], [ -122.26355, 37.76497 ] ], [ [ -122.27076, 37.76765 ], [ -122.2702, 37.76809 ], [ -122.27063, 37.76833 ], [ -122.27074, 37.76812 ], [ -122.27076, 37.76765 ] ], [ [ -122.26911, 37.76771 ], [ -122.26921, 37.76773 ], [ -122.2692, 37.76766 ], [ -122.26911, 37.76771 ] ], [ [ -122.26803, 37.76729 ], [ -122.26802, 37.76715 ], [ -122.26781, 37.7672 ], [ -122.26803, 37.76729 ] ], [ [ -122.26668, 37.76658 ], [ -122.26693, 37.76671 ], [ -122.26693, 37.76653 ], [ -122.26668, 37.76658 ] ], [ [ -122.26585, 37.76618 ], [ -122.26581, 37.76599 ], [ -122.26561, 37.76604 ], [ -122.26585, 37.76618 ] ], [ [ -122.26471, 37.76565 ], [ -122.26468, 37.76556 ], [ -122.26459, 37.7656 ], [ -122.26471, 37.76565 ] ], [ [ -122.25995, 37.76344 ], [ -122.25997, 37.76357 ], [ -122.26011, 37.76355 ], [ -122.25995, 37.76344 ] ], [ [ -122.25801, 37.7641 ], [ -122.25805, 37.76411 ], [ -122.25805, 37.76407 ], [ -122.25801, 37.7641 ] ], [ [ -122.25684, 37.76388 ], [ -122.25653, 37.76392 ], [ -122.25708, 37.76413 ], [ -122.25684, 37.76388 ] ], [ [ -122.25577, 37.76328 ], [ -122.25568, 37.76339 ], [ -122.25579, 37.76348 ], [ -122.25577, 37.76328 ] ] ], [ [ [ -122.27676, 37.77939 ], [ -122.27683, 37.78413 ], [ -122.27873, 37.78668 ], [ -122.27836, 37.78848 ], [ -122.28096, 37.78983 ], [ -122.28245, 37.78986 ], [ -122.28261, 37.7848 ], [ -122.28387, 37.78457 ], [ -122.28792, 37.78463 ], [ -122.28817, 37.7842 ], [ -122.29058, 37.78423 ], [ -122.29051, 37.78072 ], [ -122.29011, 37.78042 ], [ -122.28773, 37.78067 ], [ -122.28759, 37.77996 ], [ -122.28787, 37.77975 ], [ -122.2915, 37.77983 ], [ -122.29168, 37.78466 ], [ -122.29329, 37.78475 ], [ -122.29342, 37.78543 ], [ -122.29648, 37.78561 ], [ -122.29666, 37.7864 ], [ -122.29818, 37.78653 ], [ -122.29817, 37.78829 ], [ -122.30205, 37.78851 ], [ -122.30267, 37.78917 ], [ -122.3034, 37.78857 ], [ -122.30827, 37.78883 ], [ -122.30859, 37.78521 ], [ -122.3082, 37.785 ], [ -122.30832, 37.78365 ], [ -122.29832, 37.78312 ], [ -122.2976, 37.78278 ], [ -122.29807, 37.77648 ], [ -122.30022, 37.77453 ], [ -122.30032, 37.77253 ], [ -122.29322, 37.77216 ], [ -122.29279, 37.7754 ], [ -122.29099, 37.77533 ], [ -122.29045, 37.77403 ], [ -122.29046, 37.77104 ], [ -122.29173, 37.76962 ], [ -122.2996, 37.77182 ], [ -122.30508, 37.77188 ], [ -122.30526, 37.77258 ], [ -122.30502, 37.77279 ], [ -122.3011, 37.77262 ], [ -122.30103, 37.77344 ], [ -122.30131, 37.77368 ], [ -122.30561, 37.77392 ], [ -122.3058, 37.77441 ], [ -122.30139, 37.77439 ], [ -122.3003, 37.77524 ], [ -122.3021, 37.77532 ], [ -122.30238, 37.77574 ], [ -122.30008, 37.77583 ], [ -122.29877, 37.77655 ], [ -122.2986, 37.7798 ], [ -122.3041, 37.78003 ], [ -122.30497, 37.77979 ], [ -122.30605, 37.78017 ], [ -122.30654, 37.77985 ], [ -122.30681, 37.78025 ], [ -122.30822, 37.78034 ], [ -122.30861, 37.77611 ], [ -122.30892, 37.7759 ], [ -122.31563, 37.77629 ], [ -122.31823, 37.77934 ], [ -122.3232, 37.77962 ], [ -122.32552, 37.78081 ], [ -122.32805, 37.781 ], [ -122.33181, 37.78688 ], [ -122.33117, 37.79242 ], [ -122.3315, 37.7946 ], [ -122.33221, 37.79555 ], [ -122.33196, 37.79703 ], [ -122.33115, 37.79709 ], [ -122.33075, 37.79741 ], [ -122.31564, 37.79363 ], [ -122.30928, 37.79234 ], [ -122.30891, 37.7925 ], [ -122.30334, 37.79086 ], [ -122.29693, 37.79051 ], [ -122.28966, 37.79242 ], [ -122.28789, 37.79264 ], [ -122.28068, 37.79277 ], [ -122.27725, 37.79198 ], [ -122.27617, 37.79166 ], [ -122.2763, 37.79107 ], [ -122.27545, 37.79078 ], [ -122.27547, 37.79017 ], [ -122.27434, 37.78955 ], [ -122.27445, 37.78827 ], [ -122.27417, 37.78804 ], [ -122.27396, 37.78792 ], [ -122.27335, 37.78864 ], [ -122.27099, 37.7878 ], [ -122.2713, 37.78688 ], [ -122.27052, 37.7869 ], [ -122.27027, 37.78637 ], [ -122.26871, 37.78555 ], [ -122.26785, 37.78338 ], [ -122.26629, 37.78331 ], [ -122.26542, 37.7842 ], [ -122.26203, 37.78261 ], [ -122.26085, 37.7827 ], [ -122.26039, 37.78016 ], [ -122.26045, 37.77823 ], [ -122.26014, 37.77821 ], [ -122.25948, 37.78249 ], [ -122.25746, 37.78206 ], [ -122.25596, 37.78119 ], [ -122.25779, 37.77819 ], [ -122.25603, 37.77749 ], [ -122.25506, 37.77883 ], [ -122.2525, 37.77889 ], [ -122.2521, 37.77915 ], [ -122.25177, 37.77893 ], [ -122.25183, 37.77845 ], [ -122.25159, 37.7791 ], [ -122.25713, 37.7858 ], [ -122.25408, 37.78698 ], [ -122.25269, 37.78721 ], [ -122.25125, 37.7871 ], [ -122.24851, 37.78603 ], [ -122.24638, 37.78483 ], [ -122.24496, 37.78313 ], [ -122.24454, 37.77917 ], [ -122.24329, 37.7764 ], [ -122.24031, 37.7739 ], [ -122.2363, 37.77186 ], [ -122.23597, 37.77125 ], [ -122.2281, 37.7676 ], [ -122.22656, 37.7663 ], [ -122.22535, 37.76456 ], [ -122.22499, 37.76482 ], [ -122.22467, 37.76469 ], [ -122.22506, 37.76408 ], [ -122.22447, 37.76154 ], [ -122.22468, 37.75698 ], [ -122.22505, 37.75579 ], [ -122.22627, 37.7546 ], [ -122.22477, 37.75339 ], [ -122.22584, 37.74954 ], [ -122.23635, 37.74833 ], [ -122.23648, 37.74959 ], [ -122.23693, 37.7495 ], [ -122.23992, 37.75058 ], [ -122.2435, 37.75128 ], [ -122.25023, 37.75362 ], [ -122.25059, 37.7534 ], [ -122.25103, 37.75367 ], [ -122.25043, 37.75454 ], [ -122.24765, 37.75354 ], [ -122.24799, 37.7543 ], [ -122.25001, 37.75502 ], [ -122.24914, 37.75698 ], [ -122.24838, 37.75769 ], [ -122.24715, 37.75696 ], [ -122.24744, 37.75633 ], [ -122.24682, 37.75599 ], [ -122.24621, 37.75648 ], [ -122.24493, 37.75582 ], [ -122.24381, 37.75688 ], [ -122.24013, 37.75487 ], [ -122.23931, 37.75527 ], [ -122.23845, 37.75462 ], [ -122.23892, 37.75406 ], [ -122.23782, 37.75328 ], [ -122.23673, 37.75423 ], [ -122.23586, 37.75381 ], [ -122.23521, 37.75425 ], [ -122.23276, 37.75263 ], [ -122.23196, 37.75335 ], [ -122.23428, 37.75498 ], [ -122.23372, 37.75575 ], [ -122.23439, 37.75613 ], [ -122.23437, 37.7564 ], [ -122.23071, 37.75967 ], [ -122.22732, 37.75749 ], [ -122.22602, 37.75911 ], [ -122.22574, 37.76215 ], [ -122.22647, 37.76335 ], [ -122.22615, 37.76379 ], [ -122.22751, 37.76575 ], [ -122.22908, 37.76698 ], [ -122.23102, 37.76798 ], [ -122.23331, 37.76755 ], [ -122.23371, 37.76833 ], [ -122.23768, 37.77045 ], [ -122.23717, 37.77131 ], [ -122.24069, 37.77285 ], [ -122.24227, 37.77426 ], [ -122.24492, 37.77512 ], [ -122.2457, 37.77403 ], [ -122.2462, 37.77403 ], [ -122.24636, 37.77431 ], [ -122.24561, 37.77537 ], [ -122.24621, 37.77564 ], [ -122.24699, 37.77476 ], [ -122.24852, 37.77527 ], [ -122.24942, 37.77592 ], [ -122.24942, 37.77622 ], [ -122.2507, 37.77669 ], [ -122.25154, 37.7775 ], [ -122.25141, 37.77792 ], [ -122.25327, 37.7755 ], [ -122.25446, 37.77587 ], [ -122.25421, 37.77648 ], [ -122.257, 37.77717 ], [ -122.25842, 37.77717 ], [ -122.25859, 37.7761 ], [ -122.26328, 37.77658 ], [ -122.26328, 37.77896 ], [ -122.26439, 37.78019 ], [ -122.26431, 37.7809 ], [ -122.26554, 37.78096 ], [ -122.26567, 37.78147 ], [ -122.26781, 37.78147 ], [ -122.27128, 37.78306 ], [ -122.27136, 37.78425 ], [ -122.27236, 37.78548 ], [ -122.27452, 37.78639 ], [ -122.27553, 37.78753 ], [ -122.27524, 37.78511 ], [ -122.27577, 37.78488 ], [ -122.27562, 37.7834 ], [ -122.27527, 37.7828 ], [ -122.27299, 37.78272 ], [ -122.27317, 37.78187 ], [ -122.27399, 37.78179 ], [ -122.27386, 37.78074 ], [ -122.27319, 37.78057 ], [ -122.27323, 37.77985 ], [ -122.27676, 37.77939 ] ], [ [ -122.27639, 37.78919 ], [ -122.27597, 37.78917 ], [ -122.2759, 37.78952 ], [ -122.27639, 37.78957 ], [ -122.27639, 37.78919 ] ], [ [ -122.28886, 37.78619 ], [ -122.28996, 37.78614 ], [ -122.28997, 37.78598 ], [ -122.28886, 37.78619 ] ], [ [ -122.28842, 37.78619 ], [ -122.28847, 37.78619 ], [ -122.28842, 37.78616 ], [ -122.28842, 37.78619 ] ], [ [ -122.28497, 37.78837 ], [ -122.28404, 37.78805 ], [ -122.28395, 37.78747 ], [ -122.28367, 37.78754 ], [ -122.28364, 37.78816 ], [ -122.28439, 37.7883 ], [ -122.28513, 37.78896 ], [ -122.28497, 37.78837 ] ], [ [ -122.24418, 37.75327 ], [ -122.24449, 37.75349 ], [ -122.24481, 37.75303 ], [ -122.24436, 37.75288 ], [ -122.24418, 37.75327 ] ], [ [ -122.24758, 37.77989 ], [ -122.24759, 37.78072 ], [ -122.24707, 37.78139 ], [ -122.24859, 37.78226 ], [ -122.24813, 37.783 ], [ -122.24899, 37.78248 ], [ -122.25064, 37.78341 ], [ -122.25181, 37.78215 ], [ -122.24758, 37.77989 ] ] ], [ [ [ -122.22924, 37.72764 ], [ -122.22838, 37.7274 ], [ -122.22879, 37.72689 ], [ -122.23596, 37.71971 ], [ -122.23632, 37.71965 ], [ -122.24525, 37.72565 ], [ -122.25021, 37.72979 ], [ -122.25739, 37.73653 ], [ -122.25807, 37.73786 ], [ -122.25994, 37.73949 ], [ -122.2613, 37.73999 ], [ -122.26128, 37.74335 ], [ -122.25268, 37.74809 ], [ -122.25095, 37.74841 ], [ -122.24727, 37.74815 ], [ -122.23968, 37.74828 ], [ -122.2377, 37.74798 ], [ -122.23686, 37.74821 ], [ -122.23635, 37.74752 ], [ -122.23511, 37.74688 ], [ -122.2269, 37.74533 ], [ -122.22652, 37.73375 ], [ -122.22913, 37.72889 ], [ -122.22924, 37.72764 ] ], [ [ -122.25386, 37.73747 ], [ -122.25489, 37.73703 ], [ -122.25412, 37.73677 ], [ -122.2528, 37.73553 ], [ -122.25253, 37.73567 ], [ -122.25277, 37.73686 ], [ -122.25182, 37.73701 ], [ -122.25064, 37.7367 ], [ -122.25021, 37.73562 ], [ -122.24976, 37.73545 ], [ -122.24977, 37.73494 ], [ -122.2493, 37.73487 ], [ -122.24893, 37.73762 ], [ -122.24784, 37.7386 ], [ -122.24836, 37.73894 ], [ -122.24968, 37.73849 ], [ -122.25076, 37.7391 ], [ -122.25178, 37.73907 ], [ -122.25187, 37.73787 ], [ -122.25383, 37.73776 ], [ -122.25386, 37.73747 ] ], [ [ -122.24816, 37.72916 ], [ -122.24366, 37.72547 ], [ -122.24243, 37.72521 ], [ -122.24013, 37.72537 ], [ -122.24057, 37.728 ], [ -122.24195, 37.72922 ], [ -122.24579, 37.73064 ], [ -122.24627, 37.73006 ], [ -122.24816, 37.72916 ] ], [ [ -122.23939, 37.72412 ], [ -122.23731, 37.72248 ], [ -122.23636, 37.72255 ], [ -122.23447, 37.72449 ], [ -122.23483, 37.72733 ], [ -122.238, 37.727 ], [ -122.23841, 37.72531 ], [ -122.23953, 37.72511 ], [ -122.23939, 37.72412 ] ], [ [ -122.23972, 37.7373 ], [ -122.23997, 37.73662 ], [ -122.24077, 37.73596 ], [ -122.23976, 37.73588 ], [ -122.23921, 37.73657 ], [ -122.2389, 37.73718 ], [ -122.23972, 37.7373 ] ], [ [ -122.24081, 37.73403 ], [ -122.24175, 37.73295 ], [ -122.24249, 37.73318 ], [ -122.24246, 37.7336 ], [ -122.24325, 37.73404 ], [ -122.24247, 37.73539 ], [ -122.2434, 37.73568 ], [ -122.2452, 37.73274 ], [ -122.24488, 37.73248 ], [ -122.24519, 37.73192 ], [ -122.24079, 37.73028 ], [ -122.24012, 37.7304 ], [ -122.23984, 37.73071 ], [ -122.24008, 37.73107 ], [ -122.23951, 37.73173 ], [ -122.24017, 37.73223 ], [ -122.2392, 37.73344 ], [ -122.24081, 37.73403 ] ], [ [ -122.25483, 37.73813 ], [ -122.25365, 37.73871 ], [ -122.25702, 37.74075 ], [ -122.25806, 37.74049 ], [ -122.2582, 37.73991 ], [ -122.25743, 37.73928 ], [ -122.25759, 37.73888 ], [ -122.25704, 37.73814 ], [ -122.25483, 37.73813 ] ], [ [ -122.25041, 37.74303 ], [ -122.24781, 37.74322 ], [ -122.24764, 37.74268 ], [ -122.24496, 37.74189 ], [ -122.24519, 37.74258 ], [ -122.24417, 37.74314 ], [ -122.2435, 37.74396 ], [ -122.24441, 37.74471 ], [ -122.24406, 37.74637 ], [ -122.24425, 37.74711 ], [ -122.24858, 37.74713 ], [ -122.25136, 37.74745 ], [ -122.25372, 37.74576 ], [ -122.25623, 37.74513 ], [ -122.25726, 37.74399 ], [ -122.2587, 37.74355 ], [ -122.25759, 37.74289 ], [ -122.25694, 37.74301 ], [ -122.25487, 37.74148 ], [ -122.25428, 37.74143 ], [ -122.25286, 37.74198 ], [ -122.25185, 37.74112 ], [ -122.25096, 37.74223 ], [ -122.25041, 37.74229 ], [ -122.25041, 37.74303 ] ], [ [ -122.24525, 37.73388 ], [ -122.24373, 37.73632 ], [ -122.24452, 37.73654 ], [ -122.24505, 37.73588 ], [ -122.24648, 37.73639 ], [ -122.24668, 37.73608 ], [ -122.24535, 37.7354 ], [ -122.24594, 37.73414 ], [ -122.24525, 37.73388 ] ], [ [ -122.24924, 37.74237 ], [ -122.24964, 37.74105 ], [ -122.24837, 37.74112 ], [ -122.24822, 37.74236 ], [ -122.24924, 37.74237 ] ], [ [ -122.23539, 37.72926 ], [ -122.23658, 37.7299 ], [ -122.23757, 37.72879 ], [ -122.23539, 37.72926 ] ], [ [ -122.23872, 37.73187 ], [ -122.23786, 37.73188 ], [ -122.23848, 37.73218 ], [ -122.23872, 37.73187 ] ], [ [ -122.23847, 37.72933 ], [ -122.23852, 37.72908 ], [ -122.23817, 37.72963 ], [ -122.23847, 37.72933 ] ] ] ] } },
{ "type": "Feature", "properties": { "km": 1, "city": "Berkeley", "people": 97 }, "geometry": { "type": "Polygon", "coordinates": [ [ [ -122.30392, 37.86677 ], [ -122.30193, 37.86721 ], [ -122.30147, 37.86586 ], [ -122.30181, 37.86559 ], [ -122.30036, 37.86289 ], [ -122.29928, 37.86296 ], [ -122.2954, 37.85092 ], [ -122.293, 37.85139 ], [ -122.29271, 37.85123 ], [ -122.29248, 37.85029 ], [ -122.29515, 37.84914 ], [ -122.2952, 37.84844 ], [ -122.29875, 37.84781 ], [ -122.29986, 37.85225 ], [ -122.29978, 37.85086 ], [ -122.30062, 37.84727 ], [ -122.30968, 37.84533 ], [ -122.31106, 37.85376 ], [ -122.31401, 37.85338 ], [ -122.32236, 37.85338 ], [ -122.32625, 37.85433 ], [ -122.33143, 37.85702 ], [ -122.33263, 37.8592 ], [ -122.33292, 37.86269 ], [ -122.33164, 37.86648 ], [ -122.32948, 37.87137 ], [ -122.32623, 37.8744 ], [ -122.32789, 37.87726 ], [ -122.32772, 37.87757 ], [ -122.31233, 37.88158 ], [ -122.30968, 37.87794 ], [ -122.30776, 37.87807 ], [ -122.30475, 37.86939 ], [ -122.30462, 37.86853 ], [ -122.30545, 37.86709 ], [ -122.30534, 37.8664 ], [ -122.305, 37.86581 ], [ -122.30344, 37.8648 ], [ -122.30292, 37.86332 ], [ -122.30392, 37.86677 ] ] ] } },
{ "type": "Feature", "properties": { "km": 1, "city": "Emeryville", "people": 155 }, "geometry": { "type": "Polygon", "coordinates": [ [ [ -122.3157, 37.83967 ], [ -122.31521, 37.84169 ], [ -122.31441, 37.84274 ], [ -122.31301, 37.84228 ], [ -122.31414, 37.83977 ], [ -122.31421, 37.83881 ], [ -122.31296, 37.83861 ], [ -122.3129, 37.83795 ], [ -122.31243, 37.83758 ], [ -122.30852, 37.83759 ], [ -122.30834, 37.83852 ], [ -122.30721, 37.83852 ], [ -122.30737, 37.83962 ], [ -122.30704, 37.83993 ], [ -122.30188, 37.83971 ], [ -122.30034, 37.83982 ], [ -122.29982, 37.8403 ], [ -122.29844, 37.84039 ], [ -122.2982, 37.84222 ], [ -122.29934, 37.84566 ], [ -122.30008, 37.84588 ], [ -122.3025, 37.84519 ], [ -122.30307, 37.84545 ], [ -122.30249, 37.84599 ], [ -122.30079, 37.84648 ], [ -122.30131, 37.84741 ], [ -122.30067, 37.84764 ], [ -122.29827, 37.84537 ], [ -122.29749, 37.84216 ], [ -122.2976, 37.83982 ], [ -122.29693, 37.83778 ], [ -122.29429, 37.83307 ], [ -122.29379, 37.83049 ], [ -122.29449, 37.83033 ], [ -122.29639, 37.83084 ], [ -122.29616, 37.83154 ], [ -122.2968, 37.83291 ], [ -122.29643, 37.83356 ], [ -122.29714, 37.83389 ], [ -122.29734, 37.83468 ], [ -122.29782, 37.83486 ], [ -122.29815, 37.83649 ], [ -122.29891, 37.83691 ], [ -122.30338, 37.83622 ], [ -122.30507, 37.83666 ], [ -122.31456, 37.83684 ], [ -122.31557, 37.83722 ], [ -122.3157, 37.83967 ] ] ] } },
{ "type": "Feature", "properties": { "km": 1, "city": "Fremont", "people": 127 }, "geometry": { "type": "MultiPolygon", "coordinates": [ [ [ [ -122.11193, 37.51021 ], [ -122.10934, 37.51318 ], [ -122.10214, 37.52277 ], [ -122.09262, 37.53072 ], [ -122.08833, 37.53257 ], [ -122.07719, 37.53462 ], [ -122.07368, 37.5361 ], [ -122.06934, 37.53874 ], [ -122.06644, 37.53888 ], [ -122.0644, 37.53468 ], [ -122.06774, 37.52435 ], [ -122.06119, 37.52346 ], [ -122.06019, 37.52163 ], [ -122.06035, 37.52109 ], [ -122.07049, 37.51887 ], [ -122.06991, 37.51788 ], [ -122.07039, 37.51734 ], [ -122.07912, 37.51462 ], [ -122.08004, 37.51458 ], [ -122.08044, 37.51486 ], [ -122.08046, 37.51551 ], [ -122.0798, 37.51634 ], [ -122.08079, 37.51638 ], [ -122.082, 37.51576 ], [ -122.08269, 37.51429 ], [ -122.0846, 37.51421 ], [ -122.08788, 37.51297 ], [ -122.08907, 37.51305 ], [ -122.08978, 37.51357 ], [ -122.0887, 37.51685 ], [ -122.09249, 37.51834 ], [ -122.09349, 37.52082 ], [ -122.09832, 37.52237 ], [ -122.10122, 37.52121 ], [ -122.101, 37.51814 ], [ -122.11063, 37.50905 ], [ -122.11113, 37.50918 ], [ -122.11132, 37.50997 ], [ -122.11193, 37.51021 ] ] ], [ [ [ -122.06946, 37.54435 ], [ -122.06448, 37.5459 ], [ -122.05967, 37.54944 ], [ -122.05969, 37.55049 ], [ -122.06148, 37.55162 ], [ -122.06036, 37.55297 ], [ -122.06181, 37.55396 ], [ -122.06263, 37.55557 ], [ -122.06105, 37.55626 ], [ -122.0594, 37.55748 ], [ -122.05691, 37.55785 ], [ -122.05656, 37.55602 ], [ -122.05786, 37.55578 ], [ -122.06063, 37.55426 ], [ -122.05963, 37.55371 ], [ -122.05979, 37.55311 ], [ -122.05945, 37.55302 ], [ -122.0557, 37.55309 ], [ -122.055, 37.54961 ], [ -122.0673, 37.54034 ], [ -122.06765, 37.54047 ], [ -122.06946, 37.54435 ] ] ], [ [ [ -122.054, 37.56686 ], [ -122.06013, 37.56385 ], [ -122.06194, 37.56196 ], [ -122.06333, 37.56272 ], [ -122.06357, 37.56316 ], [ -122.06402, 37.56267 ], [ -122.0647, 37.56253 ], [ -122.06565, 37.56394 ], [ -122.06807, 37.56552 ], [ -122.05787, 37.57716 ], [ -122.05476, 37.57902 ], [ -122.05244, 37.58086 ], [ -122.05046, 37.57987 ], [ -122.05055, 37.57937 ], [ -122.0511, 37.5794 ], [ -122.05341, 37.57638 ], [ -122.05542, 37.57727 ], [ -122.05619, 37.57677 ], [ -122.05363, 37.5753 ], [ -122.05468, 37.57419 ], [ -122.0557, 37.57463 ], [ -122.05551, 37.57518 ], [ -122.05723, 37.57574 ], [ -122.05875, 37.57395 ], [ -122.058, 37.57247 ], [ -122.05912, 37.57199 ], [ -122.05884, 37.57076 ], [ -122.05727, 37.57054 ], [ -122.05718, 37.5697 ], [ -122.05825, 37.56931 ], [ -122.05789, 37.56785 ], [ -122.05587, 37.56731 ], [ -122.05461, 37.56773 ], [ -122.054, 37.56686 ] ], [ [ -122.06343, 37.56343 ], [ -122.0626, 37.56372 ], [ -122.06169, 37.56328 ], [ -122.06071, 37.56459 ], [ -122.06158, 37.56511 ], [ -122.06104, 37.56589 ], [ -122.05951, 37.56529 ], [ -122.05912, 37.56579 ], [ -122.05968, 37.56862 ], [ -122.06256, 37.56886 ], [ -122.06291, 37.56848 ], [ -122.06151, 37.56777 ], [ -122.06127, 37.56735 ], [ -122.06204, 37.56675 ], [ -122.06363, 37.56754 ], [ -122.06377, 37.56737 ], [ -122.06213, 37.56642 ], [ -122.06283, 37.56565 ], [ -122.06449, 37.56645 ], [ -122.06463, 37.56627 ], [ -122.06302, 37.56542 ], [ -122.06355, 37.56459 ], [ -122.06547, 37.56518 ], [ -122.06393, 37.56439 ], [ -122.06389, 37.56381 ], [ -122.06343, 37.56343 ] ], [ [ -122.0578, 37.56623 ], [ -122.05713, 37.56646 ], [ -122.05711, 37.56649 ], [ -122.05791, 37.56669 ], [ -122.0578, 37.56623 ] ], [ [ -122.06038, 37.57192 ], [ -122.06164, 37.57023 ], [ -122.06003, 37.57023 ], [ -122.06038, 37.57192 ] ] ], [ [ [ -121.91577, 37.46291 ], [ -121.91522, 37.46177 ], [ -121.91744, 37.46079 ], [ -121.91724, 37.46043 ], [ -121.91492, 37.46129 ], [ -121.91512, 37.46198 ], [ -121.91377, 37.46248 ], [ -121.91342, 37.46236 ], [ -121.91295, 37.46137 ], [ -121.91442, 37.46071 ], [ -121.9142, 37.46008 ], [ -121.9154, 37.45946 ], [ -121.91607, 37.46012 ], [ -121.91667, 37.45991 ], [ -121.91608, 37.45879 ], [ -121.9171, 37.45825 ], [ -121.9192, 37.46195 ], [ -121.9216, 37.46115 ], [ -121.92022, 37.45858 ], [ -121.91874, 37.4574 ], [ -121.92315, 37.45511 ], [ -121.92459, 37.45977 ], [ -121.93295, 37.47719 ], [ -121.92589, 37.47962 ], [ -121.92498, 37.47831 ], [ -121.92399, 37.47577 ], [ -121.92163, 37.47646 ], [ -121.91415, 37.46359 ], [ -121.91429, 37.4633 ], [ -121.91577, 37.46291 ] ], [ [ -121.91759, 37.46162 ], [ -121.91704, 37.46182 ], [ -121.91729, 37.46225 ], [ -121.91781, 37.46206 ], [ -121.91759, 37.46162 ] ], [ [ -121.92753, 37.4678 ], [ -121.92428, 37.46136 ], [ -121.92343, 37.46105 ], [ -121.92223, 37.46138 ], [ -121.92261, 37.46357 ], [ -121.92521, 37.46859 ], [ -121.92753, 37.4678 ] ] ], [ [ [ -122.05577, 37.49039 ], [ -122.0535, 37.49134 ], [ -122.05161, 37.49167 ], [ -122.03943, 37.49203 ], [ -122.03505, 37.49007 ], [ -122.03291, 37.48293 ], [ -122.02801, 37.47753 ], [ -122.02542, 37.47711 ], [ -122.02555, 37.47798 ], [ -122.02428, 37.47997 ], [ -122.02408, 37.48137 ], [ -122.0234, 37.48278 ], [ -122.02405, 37.48261 ], [ -122.02426, 37.48291 ], [ -122.02265, 37.48391 ], [ -122.0207, 37.48442 ], [ -122.01834, 37.48409 ], [ -122.01635, 37.48322 ], [ -122.01507, 37.48204 ], [ -122.0143, 37.48165 ], [ -122.01403, 37.4818 ], [ -122.01224, 37.48575 ], [ -122.01004, 37.489 ], [ -122.01107, 37.49234 ], [ -122.01095, 37.49296 ], [ -122.01029, 37.4936 ], [ -122.00802, 37.49405 ], [ -122.00658, 37.49482 ], [ -122.00591, 37.49484 ], [ -122.00566, 37.49448 ], [ -122.00518, 37.49444 ], [ -122.00472, 37.4947 ], [ -122.00313, 37.49469 ], [ -121.9996, 37.49358 ], [ -121.99645, 37.49847 ], [ -121.99388, 37.49876 ], [ -121.99316, 37.49812 ], [ -121.99255, 37.49821 ], [ -121.99375, 37.49938 ], [ -121.99323, 37.49967 ], [ -121.97434, 37.48156 ], [ -121.97361, 37.48025 ], [ -121.9731, 37.47813 ], [ -121.97369, 37.46986 ], [ -121.97435, 37.46985 ], [ -121.97442, 37.47044 ], [ -121.97511, 37.47019 ], [ -121.9776, 37.47082 ], [ -121.97959, 37.47051 ], [ -121.98114, 37.46968 ], [ -121.98482, 37.46636 ], [ -121.98665, 37.46563 ], [ -121.98807, 37.46571 ], [ -121.99094, 37.46731 ], [ -121.99476, 37.4689 ], [ -121.99991, 37.46965 ], [ -122.00049, 37.46904 ], [ -122.00159, 37.4687 ], [ -122.00991, 37.46833 ], [ -122.01618, 37.46757 ], [ -122.02068, 37.4678 ], [ -122.02586, 37.46881 ], [ -122.03658, 37.46927 ], [ -122.04335, 37.46808 ], [ -122.04662, 37.46729 ], [ -122.04863, 37.46632 ], [ -122.05032, 37.46612 ], [ -122.0511, 37.46673 ], [ -122.05172, 37.46822 ], [ -122.0522, 37.47133 ], [ -122.05384, 37.47296 ], [ -122.05241, 37.47595 ], [ -122.05278, 37.47661 ], [ -122.05266, 37.47818 ], [ -122.05416, 37.48233 ], [ -122.05397, 37.48357 ], [ -122.05488, 37.48657 ], [ -122.055, 37.4876 ], [ -122.05431, 37.4879 ], [ -122.05564, 37.48955 ], [ -122.05577, 37.49039 ] ] ], [ [ [ -121.9472, 37.48831 ], [ -121.94511, 37.48919 ], [ -121.94429, 37.48917 ], [ -121.94016, 37.48609 ], [ -121.93999, 37.48555 ], [ -121.94028, 37.48502 ], [ -121.94231, 37.4841 ], [ -121.9415, 37.48198 ], [ -121.94367, 37.48122 ], [ -121.94547, 37.48107 ], [ -121.9472, 37.48831 ] ] ], [ [ [ -121.97273, 37.49722 ], [ -121.96709, 37.50196 ], [ -121.97143, 37.50573 ], [ -121.96285, 37.50936 ], [ -121.96089, 37.50685 ], [ -121.95877, 37.50514 ], [ -121.96014, 37.50386 ], [ -121.95749, 37.50181 ], [ -121.95587, 37.50314 ], [ -121.95401, 37.50239 ], [ -121.95148, 37.50215 ], [ -121.95067, 37.49701 ], [ -121.94852, 37.49734 ], [ -121.94823, 37.49718 ], [ -121.94794, 37.49431 ], [ -121.94862, 37.49174 ], [ -121.94845, 37.49055 ], [ -121.95084, 37.49017 ], [ -121.95103, 37.49178 ], [ -121.95177, 37.49279 ], [ -121.95339, 37.49212 ], [ -121.9549, 37.49365 ], [ -121.95537, 37.49324 ], [ -121.95582, 37.49121 ], [ -121.95574, 37.48935 ], [ -121.95863, 37.48908 ], [ -121.9618, 37.48984 ], [ -121.96698, 37.4928 ], [ -121.97273, 37.49722 ] ] ] ] } },
{ "type": "Feature", "properties": { "km": 1, "city": "Hayward", "people": 1377 }, "geometry": { "type": "MultiPolygon", "coordinates": [ [ [ [ -122.12459, 37.62713 ], [ -122.12108, 37.62825 ], [ -122.12077, 37.62812 ], [ -122.12198, 37.62539 ], [ -122.12624, 37.62554 ], [ -122.12625, 37.62382 ], [ -122.12252, 37.62369 ], [ -122.12234, 37.6231 ], [ -122.12075, 37.62362 ], [ -122.11699, 37.62332 ], [ -122.11025, 37.62119 ], [ -122.10877, 37.62111 ], [ -122.10251, 37.61925 ], [ -122.1007, 37.61999 ], [ -122.09748, 37.61725 ], [ -122.09737, 37.61909 ], [ -122.09976, 37.62072 ], [ -122.09946, 37.62113 ], [ -122.10009, 37.62417 ], [ -122.09421, 37.62437 ], [ -122.09424, 37.62343 ], [ -122.09581, 37.62346 ], [ -122.09583, 37.62323 ], [ -122.09421, 37.62295 ], [ -122.09444, 37.62205 ], [ -122.09595, 37.62209 ], [ -122.09597, 37.62187 ], [ -122.09436, 37.62164 ], [ -122.09448, 37.62076 ], [ -122.09543, 37.6207 ], [ -122.09545, 37.62046 ], [ -122.09458, 37.62034 ], [ -122.09463, 37.61954 ], [ -122.09302, 37.61858 ], [ -122.09291, 37.61994 ], [ -122.09167, 37.61993 ], [ -122.09156, 37.61832 ], [ -122.09016, 37.6185 ], [ -122.09094, 37.6199 ], [ -122.08999, 37.62022 ], [ -122.08817, 37.61735 ], [ -122.0899, 37.61651 ], [ -122.09203, 37.6164 ], [ -122.09198, 37.61524 ], [ -122.09132, 37.61479 ], [ -122.08976, 37.61441 ], [ -122.0891, 37.61371 ], [ -122.08637, 37.61437 ], [ -122.08383, 37.61017 ], [ -122.08624, 37.60912 ], [ -122.08786, 37.60909 ], [ -122.08715, 37.60814 ], [ -122.08886, 37.60635 ], [ -122.09752, 37.60162 ], [ -122.09791, 37.60182 ], [ -122.09796, 37.60537 ], [ -122.1001, 37.60536 ], [ -122.10135, 37.60481 ], [ -122.10223, 37.60021 ], [ -122.104, 37.59815 ], [ -122.10667, 37.59813 ], [ -122.1098, 37.59856 ], [ -122.11005, 37.59777 ], [ -122.11058, 37.59757 ], [ -122.11246, 37.59811 ], [ -122.11279, 37.59864 ], [ -122.11263, 37.59989 ], [ -122.11209, 37.60013 ], [ -122.11131, 37.60001 ], [ -122.11089, 37.60057 ], [ -122.10965, 37.60121 ], [ -122.10932, 37.60184 ], [ -122.11098, 37.60279 ], [ -122.11251, 37.60434 ], [ -122.11342, 37.60453 ], [ -122.11474, 37.60433 ], [ -122.11509, 37.60415 ], [ -122.11562, 37.60244 ], [ -122.11707, 37.60217 ], [ -122.11822, 37.60245 ], [ -122.1204, 37.60097 ], [ -122.12158, 37.59959 ], [ -122.12207, 37.5984 ], [ -122.12095, 37.5964 ], [ -122.12314, 37.59275 ], [ -122.12504, 37.59219 ], [ -122.12644, 37.59226 ], [ -122.12741, 37.5939 ], [ -122.12712, 37.5962 ], [ -122.12748, 37.59672 ], [ -122.12827, 37.59686 ], [ -122.12958, 37.59659 ], [ -122.13045, 37.59584 ], [ -122.13027, 37.59351 ], [ -122.13063, 37.5925 ], [ -122.13127, 37.59205 ], [ -122.1324, 37.59205 ], [ -122.13407, 37.5952 ], [ -122.13367, 37.59685 ], [ -122.13454, 37.59823 ], [ -122.13523, 37.5983 ], [ -122.13701, 37.59753 ], [ -122.13872, 37.59729 ], [ -122.14024, 37.59794 ], [ -122.14146, 37.59974 ], [ -122.14157, 37.6022 ], [ -122.14121, 37.60269 ], [ -122.13973, 37.6035 ], [ -122.13575, 37.60482 ], [ -122.13481, 37.60581 ], [ -122.13478, 37.60625 ], [ -122.13581, 37.60609 ], [ -122.13715, 37.60631 ], [ -122.1402, 37.60806 ], [ -122.14101, 37.6083 ], [ -122.14154, 37.60813 ], [ -122.14241, 37.60562 ], [ -122.14535, 37.60269 ], [ -122.14614, 37.60246 ], [ -122.1465, 37.60289 ], [ -122.1464, 37.60416 ], [ -122.14766, 37.6051 ], [ -122.14747, 37.60598 ], [ -122.1478, 37.60655 ], [ -122.14728, 37.60681 ], [ -122.14806, 37.60745 ], [ -122.14755, 37.60825 ], [ -122.14865, 37.61034 ], [ -122.1486, 37.61279 ], [ -122.14956, 37.61548 ], [ -122.15042, 37.61644 ], [ -122.15111, 37.61657 ], [ -122.15158, 37.61705 ], [ -122.15496, 37.61622 ], [ -122.1557, 37.61616 ], [ -122.15622, 37.61653 ], [ -122.1562, 37.61692 ], [ -122.15482, 37.61797 ], [ -122.151, 37.61922 ], [ -122.15177, 37.62574 ], [ -122.15159, 37.62625 ], [ -122.15078, 37.62666 ], [ -122.15159, 37.62767 ], [ -122.15144, 37.6283 ], [ -122.15182, 37.6293 ], [ -122.15338, 37.62883 ], [ -122.154, 37.62917 ], [ -122.15335, 37.63014 ], [ -122.15309, 37.6341 ], [ -122.15394, 37.64023 ], [ -122.1545, 37.64127 ], [ -122.15414, 37.64198 ], [ -122.1527, 37.64206 ], [ -122.15275, 37.64558 ], [ -122.14795, 37.64663 ], [ -122.14763, 37.64572 ], [ -122.14354, 37.64574 ], [ -122.14318, 37.64548 ], [ -122.1375, 37.6456 ], [ -122.13704, 37.64282 ], [ -122.13329, 37.63934 ], [ -122.13281, 37.6382 ], [ -122.12482, 37.63857 ], [ -122.12446, 37.636 ], [ -122.11959, 37.63596 ], [ -122.11962, 37.63311 ], [ -122.12886, 37.63308 ], [ -122.12858, 37.6305 ], [ -122.12516, 37.62793 ], [ -122.12459, 37.62713 ] ], [ [ -122.15225, 37.61783 ], [ -122.15136, 37.61813 ], [ -122.15252, 37.61776 ], [ -122.15225, 37.61783 ] ], [ [ -122.09824, 37.62102 ], [ -122.09761, 37.62068 ], [ -122.0973, 37.62343 ], [ -122.09806, 37.62343 ], [ -122.09824, 37.62102 ] ] ], [ [ [ -122.13945, 37.65858 ], [ -122.13275, 37.66171 ], [ -122.13132, 37.66375 ], [ -122.12925, 37.66351 ], [ -122.12273, 37.66631 ], [ -122.12214, 37.66627 ], [ -122.11984, 37.66508 ], [ -122.11991, 37.66407 ], [ -122.119, 37.66227 ], [ -122.12386, 37.66196 ], [ -122.1235, 37.65657 ], [ -122.12016, 37.65654 ], [ -122.12012, 37.65302 ], [ -122.12461, 37.65297 ], [ -122.12494, 37.65606 ], [ -122.12555, 37.65695 ], [ -122.13149, 37.65952 ], [ -122.1346, 37.65789 ], [ -122.1335, 37.65668 ], [ -122.13355, 37.65465 ], [ -122.131, 37.65434 ], [ -122.13064, 37.6539 ], [ -122.13061, 37.65293 ], [ -122.13411, 37.6527 ], [ -122.13945, 37.65858 ] ] ], [ [ [ -122.07389, 37.61868 ], [ -122.07319, 37.62103 ], [ -122.07247, 37.6212 ], [ -122.07216, 37.62085 ], [ -122.07306, 37.61845 ], [ -122.07389, 37.61868 ] ] ], [ [ [ -122.08838, 37.62467 ], [ -122.0875, 37.62496 ], [ -122.08249, 37.62492 ], [ -122.08246, 37.62388 ], [ -122.08422, 37.62379 ], [ -122.0842, 37.62287 ], [ -122.0824, 37.62277 ], [ -122.08237, 37.62175 ], [ -122.08669, 37.62167 ], [ -122.08838, 37.62467 ] ] ] ] } },
{ "type": "Feature", "properties": { "km": 1, "city": "Newark", "people": 416 }, "geometry": { "type": "MultiPolygon", "coordinates": [ [ [ [ -122.06619, 37.51894 ], [ -122.05077, 37.52401 ], [ -122.04858, 37.52009 ], [ -122.05203, 37.51876 ], [ -122.05034, 37.51549 ], [ -122.04699, 37.51663 ], [ -122.04618, 37.51546 ], [ -122.0339, 37.51965 ], [ -122.03462, 37.52145 ], [ -122.03162, 37.52227 ], [ -122.02967, 37.52402 ], [ -122.01226, 37.51596 ], [ -122.01106, 37.51868 ], [ -122.00941, 37.51834 ], [ -122.00938, 37.51755 ], [ -122.00517, 37.51136 ], [ -122.004, 37.51219 ], [ -122.00243, 37.5178 ], [ -122.0018, 37.51787 ], [ -121.99963, 37.5166 ], [ -122.00038, 37.51537 ], [ -122.00177, 37.5157 ], [ -122.00258, 37.51299 ], [ -121.99729, 37.51171 ], [ -121.99603, 37.51165 ], [ -121.99707, 37.51195 ], [ -121.99679, 37.51263 ], [ -121.99501, 37.51239 ], [ -121.99495, 37.51134 ], [ -121.99579, 37.50941 ], [ -121.99958, 37.51033 ], [ -122.0005, 37.50812 ], [ -121.99657, 37.50701 ], [ -121.99758, 37.50419 ], [ -121.99814, 37.50369 ], [ -122.00807, 37.51307 ], [ -122.01195, 37.51529 ], [ -122.01456, 37.50969 ], [ -122.01218, 37.50699 ], [ -122.01166, 37.504 ], [ -122.01232, 37.50338 ], [ -122.01349, 37.50322 ], [ -122.01463, 37.50228 ], [ -122.01518, 37.50133 ], [ -122.01456, 37.50023 ], [ -122.01296, 37.50023 ], [ -122.01227, 37.49983 ], [ -122.01277, 37.4981 ], [ -122.01225, 37.49704 ], [ -122.01134, 37.49693 ], [ -122.00968, 37.49784 ], [ -122.00812, 37.49772 ], [ -122.00721, 37.49717 ], [ -122.0061, 37.49589 ], [ -122.00578, 37.49457 ], [ -122.00783, 37.49362 ], [ -122.00992, 37.49326 ], [ -122.01043, 37.49277 ], [ -122.00947, 37.48894 ], [ -122.01172, 37.48558 ], [ -122.0136, 37.48149 ], [ -122.01445, 37.48119 ], [ -122.01806, 37.48367 ], [ -122.01989, 37.48437 ], [ -122.02302, 37.48448 ], [ -122.0246, 37.48313 ], [ -122.025, 37.48236 ], [ -122.0256, 37.47888 ], [ -122.02713, 37.47839 ], [ -122.02769, 37.47854 ], [ -122.03053, 37.4826 ], [ -122.03046, 37.48729 ], [ -122.03023, 37.48787 ], [ -122.02956, 37.48815 ], [ -122.03052, 37.48922 ], [ -122.03177, 37.48899 ], [ -122.0324, 37.48917 ], [ -122.03546, 37.49219 ], [ -122.0367, 37.4924 ], [ -122.0384, 37.49347 ], [ -122.04123, 37.49332 ], [ -122.05093, 37.49628 ], [ -122.05112, 37.49745 ], [ -122.0577, 37.49898 ], [ -122.05782, 37.5 ], [ -122.05641, 37.50177 ], [ -122.05533, 37.50413 ], [ -122.05432, 37.50843 ], [ -122.05488, 37.50977 ], [ -122.05536, 37.50972 ], [ -122.0556, 37.5102 ], [ -122.0553, 37.51054 ], [ -122.05601, 37.51402 ], [ -122.06048, 37.51457 ], [ -122.06083, 37.51389 ], [ -122.0642, 37.51275 ], [ -122.06467, 37.51282 ], [ -122.06766, 37.51823 ], [ -122.06619, 37.51894 ] ] ], [ [ [ -122.05355, 37.52841 ], [ -122.05006, 37.52949 ], [ -122.04471, 37.53352 ], [ -122.04166, 37.5311 ], [ -122.04213, 37.53054 ], [ -122.04419, 37.52989 ], [ -122.04474, 37.53113 ], [ -122.0452, 37.53125 ], [ -122.04925, 37.52819 ], [ -122.05304, 37.52691 ], [ -122.05346, 37.52713 ], [ -122.05577, 37.52667 ], [ -122.0561, 37.52635 ], [ -122.06222, 37.52845 ], [ -122.06337, 37.5292 ], [ -122.06398, 37.53007 ], [ -122.06442, 37.53294 ], [ -122.06242, 37.5333 ], [ -122.06135, 37.53421 ], [ -122.06018, 37.53391 ], [ -122.05952, 37.53459 ], [ -122.06106, 37.53537 ], [ -122.06079, 37.53628 ], [ -122.06098, 37.53715 ], [ -122.05957, 37.53836 ], [ -122.05741, 37.5371 ], [ -122.05721, 37.53597 ], [ -122.05779, 37.53529 ], [ -122.05682, 37.53482 ], [ -122.05594, 37.53525 ], [ -122.05461, 37.53388 ], [ -122.05337, 37.53344 ], [ -122.05362, 37.532 ], [ -122.05167, 37.52921 ], [ -122.05355, 37.52841 ] ] ] ] } },
{ "type": "Feature", "properties": { "km": 1, "city": "Oakland", "people": 668 }, "geometry": { "type": "MultiPolygon", "coordinates": [ [ [ [ -122.30779, 37.79604 ], [ -122.29323, 37.79876 ], [ -122.29006, 37.79906 ], [ -122.28746, 37.8003 ], [ -122.28841, 37.80065 ], [ -122.2882, 37.8011 ], [ -122.28485, 37.80031 ], [ -122.28529, 37.79861 ], [ -122.28136, 37.79715 ], [ -122.28199, 37.79612 ], [ -122.28365, 37.79459 ], [ -122.288, 37.79477 ], [ -122.28812, 37.79559 ], [ -122.28837, 37.7952 ], [ -122.28885, 37.79532 ], [ -122.28876, 37.796 ], [ -122.29005, 37.79484 ], [ -122.29132, 37.79463 ], [ -122.29179, 37.79483 ], [ -122.29259, 37.79427 ], [ -122.29353, 37.79431 ], [ -122.29376, 37.79385 ], [ -122.29602, 37.79321 ], [ -122.30557, 37.7935 ], [ -122.31349, 37.79527 ], [ -122.31326, 37.79553 ], [ -122.30779, 37.79604 ] ] ], [ [ [ -122.30612, 37.80827 ], [ -122.30636, 37.8073 ], [ -122.30584, 37.80718 ], [ -122.30574, 37.80822 ], [ -122.30472, 37.80809 ], [ -122.30435, 37.80769 ], [ -122.3043, 37.81012 ], [ -122.30291, 37.81235 ], [ -122.29988, 37.81452 ], [ -122.29861, 37.81396 ], [ -122.29948, 37.81214 ], [ -122.30019, 37.81221 ], [ -122.30323, 37.80819 ], [ -122.30193, 37.80786 ], [ -122.30208, 37.80714 ], [ -122.29806, 37.80618 ], [ -122.29973, 37.80373 ], [ -122.29614, 37.80288 ], [ -122.29558, 37.80428 ], [ -122.29404, 37.80403 ], [ -122.29414, 37.80276 ], [ -122.29382, 37.80238 ], [ -122.28914, 37.80128 ], [ -122.28979, 37.7995 ], [ -122.29029, 37.79922 ], [ -122.29318, 37.79936 ], [ -122.29848, 37.80057 ], [ -122.30258, 37.80191 ], [ -122.3045, 37.80308 ], [ -122.30825, 37.80696 ], [ -122.30883, 37.80813 ], [ -122.31077, 37.80857 ], [ -122.31227, 37.80849 ], [ -122.31295, 37.81062 ], [ -122.31499, 37.80864 ], [ -122.32042, 37.80909 ], [ -122.32348, 37.80782 ], [ -122.32777, 37.80743 ], [ -122.32867, 37.80813 ], [ -122.32896, 37.80965 ], [ -122.33404, 37.81014 ], [ -122.33414, 37.81045 ], [ -122.33308, 37.81126 ], [ -122.32779, 37.81073 ], [ -122.32754, 37.81051 ], [ -122.32636, 37.81066 ], [ -122.32311, 37.81035 ], [ -122.31349, 37.81942 ], [ -122.30892, 37.81906 ], [ -122.30868, 37.82091 ], [ -122.3125, 37.822 ], [ -122.31529, 37.82161 ], [ -122.31885, 37.81849 ], [ -122.31975, 37.81903 ], [ -122.31966, 37.8194 ], [ -122.32128, 37.82076 ], [ -122.32433, 37.82082 ], [ -122.33035, 37.82007 ], [ -122.3309, 37.82038 ], [ -122.33034, 37.82166 ], [ -122.3243, 37.82225 ], [ -122.30483, 37.82539 ], [ -122.29605, 37.8274 ], [ -122.29498, 37.82791 ], [ -122.29403, 37.8291 ], [ -122.29367, 37.82913 ], [ -122.2932, 37.8282 ], [ -122.2912, 37.8263 ], [ -122.29225, 37.82256 ], [ -122.29297, 37.82192 ], [ -122.29394, 37.82174 ], [ -122.29473, 37.82072 ], [ -122.29868, 37.81771 ], [ -122.30392, 37.81182 ], [ -122.30719, 37.80995 ], [ -122.30819, 37.80848 ], [ -122.30612, 37.80827 ] ], [ [ -122.31031, 37.81292 ], [ -122.30553, 37.8125 ], [ -122.30137, 37.81569 ], [ -122.29921, 37.81812 ], [ -122.30468, 37.81881 ], [ -122.3023, 37.82121 ], [ -122.30019, 37.8201 ], [ -122.29675, 37.82085 ], [ -122.30025, 37.82245 ], [ -122.30177, 37.82127 ], [ -122.30285, 37.82274 ], [ -122.30461, 37.82371 ], [ -122.30702, 37.82315 ], [ -122.30533, 37.82271 ], [ -122.3061, 37.82191 ], [ -122.307, 37.82154 ], [ -122.30657, 37.82082 ], [ -122.30694, 37.81879 ], [ -122.30501, 37.81861 ], [ -122.30482, 37.81833 ], [ -122.31031, 37.81292 ] ], [ [ -122.31082, 37.82266 ], [ -122.31067, 37.82269 ], [ -122.31089, 37.82266 ], [ -122.31082, 37.82266 ] ], [ [ -122.31682, 37.82197 ], [ -122.32037, 37.82144 ], [ -122.31919, 37.81994 ], [ -122.31682, 37.82197 ] ] ], [ [ [ -122.26562, 37.80616 ], [ -122.2646, 37.80807 ], [ -122.2636, 37.80781 ], [ -122.26329, 37.80943 ], [ -122.26247, 37.81117 ], [ -122.2609, 37.81095 ], [ -122.25936, 37.80999 ], [ -122.25854, 37.8082 ], [ -122.25924, 37.80643 ], [ -122.25868, 37.80566 ], [ -122.25766, 37.80589 ], [ -122.25614, 37.80766 ], [ -122.25333, 37.80797 ], [ -122.25288, 37.80886 ], [ -122.25112, 37.80879 ], [ -122.24995, 37.80927 ], [ -122.24886, 37.8084 ], [ -122.25068, 37.80449 ], [ -122.25313, 37.80361 ], [ -122.25415, 37.80195 ], [ -122.25438, 37.80027 ], [ -122.25694, 37.79856 ], [ -122.25826, 37.79804 ], [ -122.25973, 37.79812 ], [ -122.25971, 37.79895 ], [ -122.25925, 37.79898 ], [ -122.25778, 37.80017 ], [ -122.25546, 37.80044 ], [ -122.25494, 37.80075 ], [ -122.25489, 37.80221 ], [ -122.25369, 37.80404 ], [ -122.25121, 37.80507 ], [ -122.24987, 37.80824 ], [ -122.25123, 37.80792 ], [ -122.25288, 37.80689 ], [ -122.25549, 37.80686 ], [ -122.25608, 37.80627 ], [ -122.25624, 37.80528 ], [ -122.25876, 37.80445 ], [ -122.26035, 37.80599 ], [ -122.26058, 37.80663 ], [ -122.26134, 37.80672 ], [ -122.26172, 37.80716 ], [ -122.26156, 37.8103 ], [ -122.26254, 37.808 ], [ -122.26252, 37.80686 ], [ -122.2605, 37.80441 ], [ -122.26133, 37.80432 ], [ -122.26278, 37.80547 ], [ -122.2632, 37.80522 ], [ -122.26562, 37.80616 ] ] ], [ [ [ -122.29852, 37.81443 ], [ -122.29787, 37.81503 ], [ -122.29835, 37.8157 ], [ -122.29599, 37.81745 ], [ -122.29423, 37.81943 ], [ -122.29317, 37.81907 ], [ -122.29422, 37.81742 ], [ -122.29175, 37.81607 ], [ -122.2929, 37.81457 ], [ -122.29556, 37.81568 ], [ -122.29579, 37.81539 ], [ -122.29465, 37.81473 ], [ -122.29522, 37.81389 ], [ -122.29557, 37.8138 ], [ -122.29666, 37.81435 ], [ -122.29786, 37.81307 ], [ -122.29838, 37.81335 ], [ -122.29801, 37.81403 ], [ -122.29852, 37.81443 ] ] ], [ [ [ -122.2266, 37.74829 ], [ -122.22366, 37.74826 ], [ -122.22375, 37.75477 ], [ -122.21805, 37.75996 ], [ -122.21957, 37.75976 ], [ -122.22089, 37.75866 ], [ -122.22188, 37.75845 ], [ -122.22238, 37.75857 ], [ -122.22336, 37.75988 ], [ -122.22327, 37.76169 ], [ -122.22105, 37.76342 ], [ -122.22052, 37.76325 ], [ -122.21817, 37.76511 ], [ -122.22033, 37.76785 ], [ -122.22505, 37.76437 ], [ -122.22482, 37.7652 ], [ -122.22734, 37.76781 ], [ -122.23827, 37.77287 ], [ -122.24135, 37.77498 ], [ -122.24118, 37.77551 ], [ -122.24171, 37.77575 ], [ -122.24398, 37.77878 ], [ -122.24377, 37.77905 ], [ -122.24411, 37.77967 ], [ -122.24352, 37.78018 ], [ -122.24421, 37.7802 ], [ -122.24434, 37.78072 ], [ -122.24351, 37.78096 ], [ -122.24409, 37.78121 ], [ -122.24421, 37.78232 ], [ -122.24353, 37.78274 ], [ -122.24364, 37.78352 ], [ -122.24464, 37.78351 ], [ -122.24545, 37.78458 ], [ -122.24761, 37.78618 ], [ -122.24814, 37.78593 ], [ -122.24908, 37.78658 ], [ -122.25245, 37.78757 ], [ -122.25468, 37.78726 ], [ -122.25481, 37.78689 ], [ -122.25851, 37.78557 ], [ -122.26162, 37.78689 ], [ -122.25904, 37.7892 ], [ -122.26158, 37.78753 ], [ -122.26259, 37.7874 ], [ -122.26339, 37.78781 ], [ -122.26365, 37.78949 ], [ -122.26532, 37.78833 ], [ -122.26576, 37.78872 ], [ -122.26461, 37.78959 ], [ -122.26596, 37.78863 ], [ -122.26639, 37.78872 ], [ -122.26583, 37.78959 ], [ -122.26397, 37.7908 ], [ -122.26301, 37.79104 ], [ -122.26159, 37.79089 ], [ -122.25921, 37.79002 ], [ -122.25556, 37.78931 ], [ -122.2554, 37.78904 ], [ -122.25581, 37.78856 ], [ -122.25543, 37.788 ], [ -122.25307, 37.78884 ], [ -122.25132, 37.7884 ], [ -122.24715, 37.78693 ], [ -122.24328, 37.78464 ], [ -122.24277, 37.78461 ], [ -122.24229, 37.7789 ], [ -122.24076, 37.77732 ], [ -122.24048, 37.776 ], [ -122.23982, 37.77545 ], [ -122.23958, 37.7744 ], [ -122.23746, 37.77329 ], [ -122.2353, 37.773 ], [ -122.23081, 37.77101 ], [ -122.22996, 37.77221 ], [ -122.22875, 37.7718 ], [ -122.22844, 37.77146 ], [ -122.22932, 37.7696 ], [ -122.22723, 37.76846 ], [ -122.22168, 37.76834 ], [ -122.22204, 37.76921 ], [ -122.22154, 37.76953 ], [ -122.22375, 37.77157 ], [ -122.22815, 37.77308 ], [ -122.22801, 37.77367 ], [ -122.22351, 37.77219 ], [ -122.22239, 37.77334 ], [ -122.22128, 37.77274 ], [ -122.22181, 37.77191 ], [ -122.22046, 37.77125 ], [ -122.21941, 37.77264 ], [ -122.22017, 37.77304 ], [ -122.22003, 37.77342 ], [ -122.21738, 37.7723 ], [ -122.21733, 37.77194 ], [ -122.21989, 37.77011 ], [ -122.21876, 37.76926 ], [ -122.21963, 37.7685 ], [ -122.21863, 37.76717 ], [ -122.21593, 37.76485 ], [ -122.21462, 37.76433 ], [ -122.21322, 37.76553 ], [ -122.21084, 37.76369 ], [ -122.20956, 37.76449 ], [ -122.20076, 37.75706 ], [ -122.19837, 37.75884 ], [ -122.19716, 37.75769 ], [ -122.19736, 37.75644 ], [ -122.19638, 37.75691 ], [ -122.19513, 37.75571 ], [ -122.1971, 37.7543 ], [ -122.19829, 37.75522 ], [ -122.19851, 37.75508 ], [ -122.19727, 37.75395 ], [ -122.19755, 37.75337 ], [ -122.20096, 37.75654 ], [ -122.20807, 37.75378 ], [ -122.21252, 37.75874 ], [ -122.21182, 37.75942 ], [ -122.21301, 37.76145 ], [ -122.214, 37.7617 ], [ -122.21742, 37.7596 ], [ -122.21678, 37.75791 ], [ -122.21568, 37.75738 ], [ -122.21654, 37.75637 ], [ -122.2157, 37.75625 ], [ -122.21519, 37.75548 ], [ -122.21429, 37.75535 ], [ -122.21409, 37.75472 ], [ -122.21339, 37.75498 ], [ -122.21231, 37.75485 ], [ -122.21163, 37.75351 ], [ -122.21098, 37.75308 ], [ -122.21092, 37.75174 ], [ -122.20829, 37.75319 ], [ -122.20773, 37.75287 ], [ -122.21174, 37.75039 ], [ -122.21166, 37.7497 ], [ -122.21217, 37.74936 ], [ -122.2072, 37.74365 ], [ -122.20846, 37.74255 ], [ -122.2094, 37.74212 ], [ -122.21091, 37.742 ], [ -122.21135, 37.74251 ], [ -122.21155, 37.74371 ], [ -122.21392, 37.74575 ], [ -122.21716, 37.74776 ], [ -122.21431, 37.74276 ], [ -122.21142, 37.74098 ], [ -122.21063, 37.73997 ], [ -122.21086, 37.73736 ], [ -122.21011, 37.73657 ], [ -122.20991, 37.73601 ], [ -122.21019, 37.73574 ], [ -122.20875, 37.73264 ], [ -122.20748, 37.73156 ], [ -122.20768, 37.73118 ], [ -122.20816, 37.73119 ], [ -122.20804, 37.73062 ], [ -122.2084, 37.73028 ], [ -122.21078, 37.73157 ], [ -122.21391, 37.73841 ], [ -122.21544, 37.74088 ], [ -122.21956, 37.74449 ], [ -122.22129, 37.74556 ], [ -122.22234, 37.74584 ], [ -122.22264, 37.74548 ], [ -122.2236, 37.74542 ], [ -122.22377, 37.74754 ], [ -122.22656, 37.74766 ], [ -122.2266, 37.74829 ] ], [ [ -122.20594, 37.75526 ], [ -122.20673, 37.75607 ], [ -122.2083, 37.75546 ], [ -122.20746, 37.75481 ], [ -122.20594, 37.75526 ] ] ], [ [ [ -122.26186, 37.79364 ], [ -122.26137, 37.79394 ], [ -122.25798, 37.79281 ], [ -122.2599, 37.79048 ], [ -122.26247, 37.79214 ], [ -122.26186, 37.79364 ] ] ], [ [ [ -122.19292, 37.73007 ], [ -122.18849, 37.73177 ], [ -122.18394, 37.72666 ], [ -122.18416, 37.72602 ], [ -122.18477, 37.72601 ], [ -122.18666, 37.72743 ], [ -122.18838, 37.72822 ], [ -122.19224, 37.7294 ], [ -122.19292, 37.73007 ] ], [ [ -122.18843, 37.73 ], [ -122.18822, 37.72902 ], [ -122.18723, 37.7286 ], [ -122.18843, 37.73 ] ], [ [ -122.19101, 37.72995 ], [ -122.19013, 37.72959 ], [ -122.19003, 37.72957 ], [ -122.19017, 37.73 ], [ -122.19101, 37.72995 ] ] ], [ [ [ -122.20774, 37.72943 ], [ -122.20629, 37.73204 ], [ -122.20483, 37.73284 ], [ -122.20307, 37.73106 ], [ -122.20026, 37.72996 ], [ -122.20004, 37.72955 ], [ -122.20156, 37.72638 ], [ -122.20774, 37.72943 ] ] ], [ [ [ -122.19049, 37.74594 ], [ -122.19174, 37.74171 ], [ -122.19211, 37.74159 ], [ -122.19284, 37.74187 ], [ -122.19574, 37.74432 ], [ -122.19865, 37.74483 ], [ -122.20122, 37.74694 ], [ -122.19751, 37.74943 ], [ -122.19724, 37.75067 ], [ -122.19644, 37.75106 ], [ -122.19049, 37.74594 ] ] ] ] } },
{ "type": "Feature", "properties": { "km": 1, "city": "San Leandro", "people": 1931 }, "geometry": { "type": "MultiPolygon", "coordinates": [ [ [ [ -122.17311, 37.69191 ], [ -122.17266, 37.691 ], [ -122.1729, 37.69075 ], [ -122.18449, 37.69079 ], [ -122.18582, 37.69005 ], [ -122.18699, 37.68986 ], [ -122.18847, 37.69045 ], [ -122.18918, 37.69104 ], [ -122.19031, 37.69304 ], [ -122.19163, 37.69364 ], [ -122.19199, 37.6943 ], [ -122.19044, 37.69504 ], [ -122.18939, 37.69492 ], [ -122.18934, 37.694 ], [ -122.18811, 37.69176 ], [ -122.18672, 37.69105 ], [ -122.18582, 37.69153 ], [ -122.18783, 37.69373 ], [ -122.18815, 37.69448 ], [ -122.18783, 37.69522 ], [ -122.1871, 37.69564 ], [ -122.18886, 37.69506 ], [ -122.18973, 37.69576 ], [ -122.19145, 37.69514 ], [ -122.19253, 37.69547 ], [ -122.19217, 37.69604 ], [ -122.18933, 37.69679 ], [ -122.18966, 37.69815 ], [ -122.19264, 37.69789 ], [ -122.19318, 37.69756 ], [ -122.19316, 37.6963 ], [ -122.1927, 37.6954 ], [ -122.1929, 37.69464 ], [ -122.19347, 37.69462 ], [ -122.19453, 37.69563 ], [ -122.1944, 37.69872 ], [ -122.19136, 37.69917 ], [ -122.19133, 37.70048 ], [ -122.19009, 37.70094 ], [ -122.19085, 37.70454 ], [ -122.19103, 37.70409 ], [ -122.19243, 37.70346 ], [ -122.19522, 37.70283 ], [ -122.1974, 37.70298 ], [ -122.19983, 37.70388 ], [ -122.20125, 37.705 ], [ -122.20227, 37.70655 ], [ -122.20253, 37.70847 ], [ -122.20187, 37.71073 ], [ -122.20235, 37.71168 ], [ -122.2034, 37.71157 ], [ -122.20358, 37.71212 ], [ -122.19644, 37.7138 ], [ -122.19636, 37.71424 ], [ -122.19815, 37.71406 ], [ -122.19716, 37.71582 ], [ -122.19658, 37.71515 ], [ -122.19345, 37.71458 ], [ -122.1869, 37.71639 ], [ -122.18399, 37.71095 ], [ -122.1889, 37.7088 ], [ -122.18726, 37.70606 ], [ -122.1897, 37.7049 ], [ -122.18951, 37.70401 ], [ -122.18655, 37.70516 ], [ -122.18309, 37.69997 ], [ -122.17803, 37.70191 ], [ -122.17669, 37.69983 ], [ -122.17767, 37.69927 ], [ -122.17729, 37.69891 ], [ -122.17619, 37.69917 ], [ -122.17337, 37.69493 ], [ -122.17311, 37.69191 ] ] ], [ [ [ -122.18584, 37.72308 ], [ -122.18505, 37.72568 ], [ -122.18429, 37.72631 ], [ -122.18311, 37.72573 ], [ -122.17951, 37.72186 ], [ -122.18523, 37.72087 ], [ -122.18584, 37.72308 ] ], [ [ -122.18419, 37.72256 ], [ -122.18351, 37.72196 ], [ -122.18151, 37.72228 ], [ -122.18395, 37.725 ], [ -122.18449, 37.72348 ], [ -122.18419, 37.72256 ] ] ], [ [ [ -122.16308, 37.6706 ], [ -122.15514, 37.67522 ], [ -122.15865, 37.67897 ], [ -122.15846, 37.67938 ], [ -122.15573, 37.68001 ], [ -122.15535, 37.67711 ], [ -122.15439, 37.67736 ], [ -122.15379, 37.67656 ], [ -122.15129, 37.67745 ], [ -122.15096, 37.67662 ], [ -122.15451, 37.675 ], [ -122.15425, 37.67453 ], [ -122.15526, 37.6739 ], [ -122.15479, 37.67108 ], [ -122.15651, 37.6699 ], [ -122.16176, 37.66753 ], [ -122.16308, 37.6706 ] ], [ [ -122.15674, 37.67893 ], [ -122.15721, 37.6788 ], [ -122.15673, 37.67829 ], [ -122.15674, 37.67893 ] ] ], [ [ [ -122.16603, 37.69861 ], [ -122.16586, 37.70062 ], [ -122.16512, 37.70047 ], [ -122.16347, 37.69785 ], [ -122.16371, 37.69731 ], [ -122.16231, 37.69504 ], [ -122.16207, 37.69294 ], [ -122.1624, 37.69244 ], [ -122.16335, 37.69243 ], [ -122.16375, 37.69497 ], [ -122.16603, 37.69861 ] ] ] ] } },
{ "type": "Feature", "properties": { "km": 1, "city": "San Lorenzo", "people": 108 }, "geometry": { "type": "Polygon", "coordinates": [ [ [ -122.14521, 37.66726 ], [ -122.14489, 37.66682 ], [ -122.13908, 37.66942 ], [ -122.13878, 37.66826 ], [ -122.14091, 37.66739 ], [ -122.14063, 37.66296 ], [ -122.14402, 37.66328 ], [ -122.14599, 37.66537 ], [ -122.14922, 37.66384 ], [ -122.1495, 37.66332 ], [ -122.15079, 37.66257 ], [ -122.15254, 37.66373 ], [ -122.16072, 37.66362 ], [ -122.1616, 37.66537 ], [ -122.16139, 37.66571 ], [ -122.16199, 37.66778 ], [ -122.15263, 37.67252 ], [ -122.15495, 37.67503 ], [ -122.15491, 37.67533 ], [ -122.14721, 37.67878 ], [ -122.14445, 37.68053 ], [ -122.13893, 37.6825 ], [ -122.13725, 37.67927 ], [ -122.14385, 37.67656 ], [ -122.14437, 37.67716 ], [ -122.14365, 37.67761 ], [ -122.14446, 37.67904 ], [ -122.14997, 37.67632 ], [ -122.14873, 37.67461 ], [ -122.15027, 37.67377 ], [ -122.14979, 37.67298 ], [ -122.15087, 37.6724 ], [ -122.14807, 37.6718 ], [ -122.14831, 37.67088 ], [ -122.14959, 37.67096 ], [ -122.14657, 37.66783 ], [ -122.14245, 37.66973 ], [ -122.14222, 37.67025 ], [ -122.14137, 37.67025 ], [ -122.14099, 37.67072 ], [ -122.13935, 37.67038 ], [ -122.14521, 37.66726 ] ], [ [ -122.1523, 37.66747 ], [ -122.15124, 37.66716 ], [ -122.15038, 37.66752 ], [ -122.15156, 37.66878 ], [ -122.15281, 37.66804 ], [ -122.1523, 37.66747 ] ], [ [ -122.15201, 37.67344 ], [ -122.15176, 37.67357 ], [ -122.15275, 37.67463 ], [ -122.15312, 37.67502 ], [ -122.15338, 37.6749 ], [ -122.15201, 37.67344 ] ] ] } },
{ "type": "Feature", "properties": { "km": 1, "city": "Union City", "people": 3352 }, "geometry": { "type": "MultiPolygon", "coordinates": [ [ [ [ -122.08446, 37.56784 ], [ -122.08392, 37.56966 ], [ -122.08582, 37.5734 ], [ -122.08314, 37.57467 ], [ -122.08322, 37.57551 ], [ -122.08897, 37.58874 ], [ -122.0861, 37.58796 ], [ -122.08252, 37.58919 ], [ -122.08164, 37.5875 ], [ -122.08333, 37.58726 ], [ -122.08378, 37.5877 ], [ -122.08408, 37.58759 ], [ -122.08317, 37.58603 ], [ -122.08237, 37.58594 ], [ -122.08195, 37.58398 ], [ -122.081, 37.5842 ], [ -122.08074, 37.58393 ], [ -122.07803, 37.58703 ], [ -122.07764, 37.58709 ], [ -122.07704, 37.5866 ], [ -122.07842, 37.58495 ], [ -122.07683, 37.58403 ], [ -122.07656, 37.5834 ], [ -122.07675, 37.58287 ], [ -122.07621, 37.58257 ], [ -122.0742, 37.58482 ], [ -122.07344, 37.5845 ], [ -122.07293, 37.58336 ], [ -122.07167, 37.58405 ], [ -122.07119, 37.58385 ], [ -122.0714, 37.58433 ], [ -122.07101, 37.58483 ], [ -122.07031, 37.58489 ], [ -122.06959, 37.5854 ], [ -122.0664, 37.58368 ], [ -122.06769, 37.58226 ], [ -122.06668, 37.58167 ], [ -122.06407, 37.58416 ], [ -122.06462, 37.58488 ], [ -122.06421, 37.58587 ], [ -122.06473, 37.58639 ], [ -122.06522, 37.58642 ], [ -122.06542, 37.58609 ], [ -122.06602, 37.58597 ], [ -122.06774, 37.58757 ], [ -122.06685, 37.58837 ], [ -122.06431, 37.58701 ], [ -122.06312, 37.58571 ], [ -122.06207, 37.58381 ], [ -122.06016, 37.57492 ], [ -122.06123, 37.5737 ], [ -122.06206, 37.57401 ], [ -122.06109, 37.57536 ], [ -122.06138, 37.57669 ], [ -122.06239, 37.57728 ], [ -122.06282, 37.57819 ], [ -122.06185, 37.5794 ], [ -122.06263, 37.58314 ], [ -122.06295, 37.58346 ], [ -122.06423, 37.58206 ], [ -122.06312, 37.58141 ], [ -122.06294, 37.58098 ], [ -122.06378, 37.58045 ], [ -122.06506, 37.58111 ], [ -122.06656, 37.57941 ], [ -122.06587, 37.57845 ], [ -122.06462, 37.57826 ], [ -122.06312, 37.57735 ], [ -122.06382, 37.57639 ], [ -122.06324, 37.57585 ], [ -122.06447, 37.57444 ], [ -122.06243, 37.57326 ], [ -122.06307, 37.5724 ], [ -122.06387, 37.57268 ], [ -122.06424, 37.57217 ], [ -122.06254, 37.57112 ], [ -122.06862, 37.56417 ], [ -122.06993, 37.56326 ], [ -122.07127, 37.56281 ], [ -122.08081, 37.56118 ], [ -122.0809, 37.56212 ], [ -122.08402, 37.5624 ], [ -122.08408, 37.56525 ], [ -122.08379, 37.56542 ], [ -122.08015, 37.56505 ], [ -122.07941, 37.56619 ], [ -122.08474, 37.56613 ], [ -122.08496, 37.56643 ], [ -122.08429, 37.56693 ], [ -122.0854, 37.56721 ], [ -122.08446, 37.56784 ] ], [ [ -122.07169, 37.57226 ], [ -122.0706, 37.57186 ], [ -122.06959, 37.57236 ], [ -122.06997, 37.57358 ], [ -122.07043, 37.57375 ], [ -122.07169, 37.57226 ] ], [ [ -122.08284, 37.5799 ], [ -122.08229, 37.57922 ], [ -122.08104, 37.57509 ], [ -122.08205, 37.57468 ], [ -122.081, 37.57257 ], [ -122.07902, 37.57166 ], [ -122.07906, 37.57231 ], [ -122.07842, 37.5726 ], [ -122.08081, 37.57722 ], [ -122.081, 37.58123 ], [ -122.08175, 37.58128 ], [ -122.0818, 37.58205 ], [ -122.08458, 37.58121 ], [ -122.08374, 37.58028 ], [ -122.08284, 37.5799 ] ], [ [ -122.07341, 37.56673 ], [ -122.07298, 37.56686 ], [ -122.07149, 37.56619 ], [ -122.07077, 37.56618 ], [ -122.07063, 37.56683 ], [ -122.07266, 37.56795 ], [ -122.07341, 37.56673 ] ], [ [ -122.07356, 37.56648 ], [ -122.07434, 37.56642 ], [ -122.07628, 37.5673 ], [ -122.07703, 37.56643 ], [ -122.07605, 37.56615 ], [ -122.07343, 37.56613 ], [ -122.07341, 37.56673 ], [ -122.07356, 37.56648 ] ], [ [ -122.06851, 37.56708 ], [ -122.06908, 37.56675 ], [ -122.06836, 37.56643 ], [ -122.0681, 37.56667 ], [ -122.06851, 37.56708 ] ], [ [ -122.06546, 37.57723 ], [ -122.06581, 37.57678 ], [ -122.06544, 37.57658 ], [ -122.06502, 37.57706 ], [ -122.06546, 37.57723 ] ], [ [ -122.06519, 37.57114 ], [ -122.06572, 37.57052 ], [ -122.06547, 37.57038 ], [ -122.06519, 37.57114 ] ] ], [ [ [ -122.09122, 37.59451 ], [ -122.09116, 37.59526 ], [ -122.09149, 37.59605 ], [ -122.09155, 37.60003 ], [ -122.08839, 37.60696 ], [ -122.08756, 37.60784 ], [ -122.08777, 37.60822 ], [ -122.08736, 37.60841 ], [ -122.08423, 37.60571 ], [ -122.08686, 37.60384 ], [ -122.08638, 37.5961 ], [ -122.08689, 37.59528 ], [ -122.09006, 37.59527 ], [ -122.08999, 37.5929 ], [ -122.0905, 37.59257 ], [ -122.0918, 37.59259 ], [ -122.09202, 37.59371 ], [ -122.09122, 37.59451 ] ] ], [ [ [ -122.06905, 37.60592 ], [ -122.06877, 37.60571 ], [ -122.06961, 37.60454 ], [ -122.07388, 37.60199 ], [ -122.07461, 37.60008 ], [ -122.07642, 37.60076 ], [ -122.07816, 37.60197 ], [ -122.07875, 37.60354 ], [ -122.07899, 37.60576 ], [ -122.06905, 37.60592 ] ], [ [ -122.07716, 37.60439 ], [ -122.07727, 37.60495 ], [ -122.07805, 37.60496 ], [ -122.07775, 37.60334 ], [ -122.07662, 37.60252 ], [ -122.07687, 37.60193 ], [ -122.07537, 37.60117 ], [ -122.07528, 37.60188 ], [ -122.07445, 37.6027 ], [ -122.07068, 37.60492 ], [ -122.07219, 37.60436 ], [ -122.07293, 37.60499 ], [ -122.07538, 37.60497 ], [ -122.0755, 37.60434 ], [ -122.07716, 37.60439 ] ] ], [ [ [ -122.0663, 37.61326 ], [ -122.06769, 37.60838 ], [ -122.06808, 37.60847 ], [ -122.07138, 37.61344 ], [ -122.0663, 37.61326 ] ] ] ] } },
{ "type": "Feature", "properties": { "km": 2, "city": "Alameda", "people": 2826 }, "geometry": { "type": "MultiPolygon", "coordinates": [ [ [ [ -122.22902, 37.72904 ], [ -122.22924, 37.72764 ], [ -122.2285, 37.72759 ], [ -122.22843, 37.72727 ], [ -122.23596, 37.71971 ], [ -122.23632, 37.71965 ], [ -122.24525, 37.72565 ], [ -122.25021, 37.72979 ], [ -122.25739, 37.73653 ], [ -122.25807, 37.73786 ], [ -122.25994, 37.73949 ], [ -122.2613, 37.73999 ], [ -122.26131, 37.74331 ], [ -122.25268, 37.74809 ], [ -122.25095, 37.74841 ], [ -122.24727, 37.74815 ], [ -122.23968, 37.74828 ], [ -122.2377, 37.74798 ], [ -122.23686, 37.74821 ], [ -122.23635, 37.74752 ], [ -122.23511, 37.74688 ], [ -122.2269, 37.74533 ], [ -122.22652, 37.73375 ], [ -122.22902, 37.72904 ] ], [ [ -122.2425, 37.73538 ], [ -122.2434, 37.73568 ], [ -122.2452, 37.73274 ], [ -122.24488, 37.73248 ], [ -122.24519, 37.73192 ], [ -122.24079, 37.73028 ], [ -122.24012, 37.7304 ], [ -122.23984, 37.73071 ], [ -122.24008, 37.73107 ], [ -122.23951, 37.73173 ], [ -122.24017, 37.73223 ], [ -122.2392, 37.73344 ], [ -122.24081, 37.73403 ], [ -122.2417, 37.73297 ], [ -122.24249, 37.73318 ], [ -122.24246, 37.7336 ], [ -122.24325, 37.73404 ], [ -122.2425, 37.73538 ] ], [ [ -122.23851, 37.73177 ], [ -122.2381, 37.73158 ], [ -122.23786, 37.73188 ], [ -122.23848, 37.73218 ], [ -122.23851, 37.73177 ] ], [ [ -122.23539, 37.72926 ], [ -122.23658, 37.7299 ], [ -122.23757, 37.72879 ], [ -122.23539, 37.72926 ] ], [ [ -122.23972, 37.7373 ], [ -122.23997, 37.73662 ], [ -122.24077, 37.73596 ], [ -122.23976, 37.73588 ], [ -122.23921, 37.73657 ], [ -122.2389, 37.73718 ], [ -122.23972, 37.7373 ] ], [ [ -122.24901, 37.73733 ], [ -122.24791, 37.7384 ], [ -122.24797, 37.73876 ], [ -122.24852, 37.73893 ], [ -122.24968, 37.73849 ], [ -122.25076, 37.7391 ], [ -122.25178, 37.73907 ], [ -122.25191, 37.73784 ], [ -122.25383, 37.73776 ], [ -122.25393, 37.7374 ], [ -122.25489, 37.73703 ], [ -122.25412, 37.73677 ], [ -122.2528, 37.73553 ], [ -122.25253, 37.73567 ], [ -122.25266, 37.73695 ], [ -122.25074, 37.73674 ], [ -122.25021, 37.73562 ], [ -122.24976, 37.73545 ], [ -122.24977, 37.73494 ], [ -122.2493, 37.73487 ], [ -122.24901, 37.73733 ] ], [ [ -122.25043, 37.74299 ], [ -122.25007, 37.74322 ], [ -122.24781, 37.74322 ], [ -122.24764, 37.74268 ], [ -122.24496, 37.74189 ], [ -122.24519, 37.74258 ], [ -122.24417, 37.74314 ], [ -122.2435, 37.74396 ], [ -122.24441, 37.74471 ], [ -122.24406, 37.74637 ], [ -122.24425, 37.74711 ], [ -122.24858, 37.74713 ], [ -122.25136, 37.74745 ], [ -122.25372, 37.74576 ], [ -122.25623, 37.74513 ], [ -122.25726, 37.74399 ], [ -122.2587, 37.74355 ], [ -122.25759, 37.74289 ], [ -122.25694, 37.74301 ], [ -122.25487, 37.74148 ], [ -122.25428, 37.74143 ], [ -122.25286, 37.74198 ], [ -122.25185, 37.74112 ], [ -122.25096, 37.74223 ], [ -122.25041, 37.74229 ], [ -122.25043, 37.74299 ] ], [ [ -122.24525, 37.73388 ], [ -122.24373, 37.73632 ], [ -122.24452, 37.73654 ], [ -122.24505, 37.73588 ], [ -122.24648, 37.73639 ], [ -122.24668, 37.73608 ], [ -122.24535, 37.7354 ], [ -122.24594, 37.73414 ], [ -122.24525, 37.73388 ] ], [ [ -122.24912, 37.74238 ], [ -122.24964, 37.74105 ], [ -122.24837, 37.74112 ], [ -122.24822, 37.74236 ], [ -122.24912, 37.74238 ] ], [ [ -122.25704, 37.73814 ], [ -122.2545, 37.73814 ], [ -122.25433, 37.73852 ], [ -122.25365, 37.73871 ], [ -122.25729, 37.74077 ], [ -122.25806, 37.74049 ], [ -122.25821, 37.73993 ], [ -122.25743, 37.73928 ], [ -122.25759, 37.73888 ], [ -122.25704, 37.73814 ] ], [ [ -122.24816, 37.72916 ], [ -122.24435, 37.72581 ], [ -122.24303, 37.72529 ], [ -122.24013, 37.72537 ], [ -122.24048, 37.72774 ], [ -122.24104, 37.72865 ], [ -122.24579, 37.73064 ], [ -122.24627, 37.73006 ], [ -122.24816, 37.72916 ] ], [ [ -122.23933, 37.72388 ], [ -122.23716, 37.72242 ], [ -122.23625, 37.72263 ], [ -122.23447, 37.72449 ], [ -122.23483, 37.72733 ], [ -122.238, 37.727 ], [ -122.23841, 37.72531 ], [ -122.23953, 37.72511 ], [ -122.23933, 37.72388 ] ], [ [ -122.23847, 37.72933 ], [ -122.23852, 37.72908 ], [ -122.23817, 37.72963 ], [ -122.23847, 37.72933 ] ] ], [ [ [ -122.26553, 37.78237 ], [ -122.26513, 37.7828 ], [ -122.26373, 37.78278 ], [ -122.263, 37.78244 ], [ -122.26248, 37.78277 ], [ -122.26085, 37.7827 ], [ -122.26039, 37.78016 ], [ -122.2605, 37.77842 ], [ -122.26014, 37.77821 ], [ -122.25955, 37.78242 ], [ -122.25909, 37.78259 ], [ -122.25741, 37.78204 ], [ -122.25588, 37.781 ], [ -122.25779, 37.77819 ], [ -122.25603, 37.77749 ], [ -122.25561, 37.77806 ], [ -122.25507, 37.77797 ], [ -122.25468, 37.77844 ], [ -122.25254, 37.77859 ], [ -122.25236, 37.77825 ], [ -122.25275, 37.77764 ], [ -122.25201, 37.77716 ], [ -122.25306, 37.77558 ], [ -122.25443, 37.77584 ], [ -122.25421, 37.77648 ], [ -122.25477, 37.77673 ], [ -122.257, 37.77717 ], [ -122.25842, 37.77717 ], [ -122.25859, 37.7761 ], [ -122.26333, 37.7766 ], [ -122.2633, 37.77902 ], [ -122.26439, 37.78019 ], [ -122.26431, 37.7809 ], [ -122.26566, 37.78105 ], [ -122.26553, 37.78237 ] ] ], [ [ [ -122.33221, 37.79555 ], [ -122.3319, 37.7971 ], [ -122.33115, 37.79709 ], [ -122.33075, 37.79741 ], [ -122.31564, 37.79363 ], [ -122.30928, 37.79234 ], [ -122.30891, 37.7925 ], [ -122.30334, 37.79086 ], [ -122.29718, 37.7905 ], [ -122.29467, 37.79087 ], [ -122.29485, 37.7894 ], [ -122.30226, 37.78989 ], [ -122.30239, 37.78931 ], [ -122.3034, 37.78857 ], [ -122.30827, 37.78883 ], [ -122.30859, 37.78521 ], [ -122.3082, 37.785 ], [ -122.30832, 37.78365 ], [ -122.2977, 37.78292 ], [ -122.29805, 37.77655 ], [ -122.30022, 37.77453 ], [ -122.30032, 37.77253 ], [ -122.29322, 37.77216 ], [ -122.29298, 37.77531 ], [ -122.29104, 37.77535 ], [ -122.29044, 37.77398 ], [ -122.29046, 37.77109 ], [ -122.2916, 37.76968 ], [ -122.2996, 37.77182 ], [ -122.30525, 37.77199 ], [ -122.30502, 37.77279 ], [ -122.3011, 37.77262 ], [ -122.30103, 37.77344 ], [ -122.30131, 37.77368 ], [ -122.30561, 37.77392 ], [ -122.3058, 37.77441 ], [ -122.30139, 37.77439 ], [ -122.3003, 37.77524 ], [ -122.3021, 37.77532 ], [ -122.30238, 37.77574 ], [ -122.30008, 37.77583 ], [ -122.29877, 37.77655 ], [ -122.2986, 37.7798 ], [ -122.3041, 37.78003 ], [ -122.30497, 37.77979 ], [ -122.30605, 37.78017 ], [ -122.30654, 37.77985 ], [ -122.30681, 37.78025 ], [ -122.30822, 37.78034 ], [ -122.30861, 37.77611 ], [ -122.30892, 37.7759 ], [ -122.31563, 37.77629 ], [ -122.31823, 37.77934 ], [ -122.3232, 37.77962 ], [ -122.32552, 37.78081 ], [ -122.3281, 37.78103 ], [ -122.33181, 37.78688 ], [ -122.33117, 37.79242 ], [ -122.3315, 37.7946 ], [ -122.33221, 37.79555 ] ] ], [ [ [ -122.23655, 37.74848 ], [ -122.23643, 37.74989 ], [ -122.23575, 37.75007 ], [ -122.23524, 37.75094 ], [ -122.23472, 37.75098 ], [ -122.23326, 37.7502 ], [ -122.22712, 37.75458 ], [ -122.22757, 37.75506 ], [ -122.22614, 37.75641 ], [ -122.22512, 37.75597 ], [ -122.22627, 37.7546 ], [ -122.22477, 37.75339 ], [ -122.22588, 37.74951 ], [ -122.23593, 37.74835 ], [ -122.23655, 37.74848 ] ] ] ] } },
{ "type": "Feature", "properties": { "km": 2, "city": "Berkeley", "people": 21 }, "geometry": { "type": "Polygon", "coordinates": [ [ [ -122.33292, 37.86265 ], [ -122.3295, 37.87133 ], [ -122.32623, 37.8744 ], [ -122.32785, 37.8775 ], [ -122.31228, 37.88156 ], [ -122.30971, 37.8781 ], [ -122.30969, 37.87762 ], [ -122.3101, 37.87745 ], [ -122.30847, 37.87013 ], [ -122.31329, 37.86934 ], [ -122.31602, 37.87217 ], [ -122.31866, 37.87563 ], [ -122.32436, 37.87446 ], [ -122.31854, 37.86818 ], [ -122.31797, 37.86873 ], [ -122.31495, 37.86921 ], [ -122.31445, 37.86822 ], [ -122.31276, 37.86777 ], [ -122.3114, 37.86541 ], [ -122.31145, 37.86496 ], [ -122.31215, 37.86488 ], [ -122.3123, 37.86461 ], [ -122.31618, 37.86384 ], [ -122.31689, 37.86415 ], [ -122.31765, 37.86605 ], [ -122.31768, 37.86604 ], [ -122.31764, 37.86367 ], [ -122.31621, 37.85941 ], [ -122.31578, 37.85926 ], [ -122.31619, 37.86143 ], [ -122.31557, 37.86257 ], [ -122.31431, 37.86307 ], [ -122.31151, 37.86358 ], [ -122.31176, 37.86452 ], [ -122.3114, 37.86492 ], [ -122.30669, 37.86601 ], [ -122.30623, 37.86563 ], [ -122.30621, 37.86504 ], [ -122.3071, 37.86454 ], [ -122.30648, 37.86244 ], [ -122.30631, 37.86313 ], [ -122.30476, 37.86336 ], [ -122.30345, 37.8626 ], [ -122.30243, 37.8611 ], [ -122.30024, 37.85309 ], [ -122.30014, 37.85021 ], [ -122.30078, 37.84729 ], [ -122.30973, 37.84535 ], [ -122.31106, 37.85376 ], [ -122.31401, 37.85338 ], [ -122.32236, 37.85338 ], [ -122.32632, 37.85436 ], [ -122.33147, 37.85706 ], [ -122.33265, 37.85924 ], [ -122.33292, 37.86265 ] ], [ [ -122.30639, 37.86215 ], [ -122.3063, 37.86181 ], [ -122.30578, 37.85977 ], [ -122.30568, 37.86096 ], [ -122.30639, 37.86215 ] ] ] } },
{ "type": "Feature", "properties": { "km": 2, "city": "Fremont", "people": 126 }, "geometry": { "type": "MultiPolygon", "coordinates": [ [ [ [ -122.11188, 37.51057 ], [ -122.10934, 37.51318 ], [ -122.10214, 37.52277 ], [ -122.09262, 37.53072 ], [ -122.08833, 37.53257 ], [ -122.07719, 37.53462 ], [ -122.07368, 37.5361 ], [ -122.06934, 37.53874 ], [ -122.06644, 37.53888 ], [ -122.0644, 37.53468 ], [ -122.06774, 37.52435 ], [ -122.06119, 37.52346 ], [ -122.06019, 37.52163 ], [ -122.06035, 37.52109 ], [ -122.07049, 37.51887 ], [ -122.06991, 37.51788 ], [ -122.07039, 37.51734 ], [ -122.07912, 37.51462 ], [ -122.08004, 37.51458 ], [ -122.08044, 37.51486 ], [ -122.08046, 37.51551 ], [ -122.0798, 37.51634 ], [ -122.08079, 37.51638 ], [ -122.082, 37.51576 ], [ -122.08269, 37.51429 ], [ -122.0846, 37.51421 ], [ -122.08788, 37.51297 ], [ -122.08907, 37.51305 ], [ -122.08978, 37.51357 ], [ -122.0887, 37.51685 ], [ -122.09249, 37.51834 ], [ -122.09349, 37.52082 ], [ -122.09832, 37.52237 ], [ -122.10122, 37.52121 ], [ -122.101, 37.51814 ], [ -122.11058, 37.50907 ], [ -122.11113, 37.50918 ], [ -122.11188, 37.51057 ] ] ], [ [ [ -122.06946, 37.54435 ], [ -122.06448, 37.5459 ], [ -122.05967, 37.54944 ], [ -122.05969, 37.55049 ], [ -122.06148, 37.55162 ], [ -122.06036, 37.55297 ], [ -122.06181, 37.55396 ], [ -122.06263, 37.55557 ], [ -122.06105, 37.55626 ], [ -122.0594, 37.55748 ], [ -122.05691, 37.55785 ], [ -122.05656, 37.55602 ], [ -122.05786, 37.55578 ], [ -122.06063, 37.55426 ], [ -122.05963, 37.55371 ], [ -122.05979, 37.55311 ], [ -122.05945, 37.55302 ], [ -122.0557, 37.55309 ], [ -122.055, 37.54961 ], [ -122.0673, 37.54034 ], [ -122.06765, 37.54047 ], [ -122.06946, 37.54435 ] ] ], [ [ [ -122.054, 37.56686 ], [ -122.06013, 37.56385 ], [ -122.06194, 37.56196 ], [ -122.06333, 37.56272 ], [ -122.06357, 37.56316 ], [ -122.06402, 37.56267 ], [ -122.0647, 37.56253 ], [ -122.06565, 37.56394 ], [ -122.06807, 37.56552 ], [ -122.05787, 37.57716 ], [ -122.05476, 37.57902 ], [ -122.05244, 37.58086 ], [ -122.05046, 37.57987 ], [ -122.05055, 37.57937 ], [ -122.0511, 37.5794 ], [ -122.05341, 37.57638 ], [ -122.05542, 37.57727 ], [ -122.05619, 37.57677 ], [ -122.05363, 37.5753 ], [ -122.05468, 37.57419 ], [ -122.0557, 37.57463 ], [ -122.05551, 37.57518 ], [ -122.05723, 37.57574 ], [ -122.05875, 37.57395 ], [ -122.058, 37.57247 ], [ -122.05912, 37.57199 ], [ -122.05884, 37.57076 ], [ -122.05727, 37.57054 ], [ -122.05718, 37.5697 ], [ -122.05825, 37.56931 ], [ -122.05789, 37.56785 ], [ -122.05587, 37.56731 ], [ -122.05461, 37.56773 ], [ -122.054, 37.56686 ] ], [ [ -122.06333, 37.56345 ], [ -122.06254, 37.56372 ], [ -122.06169, 37.56328 ], [ -122.06071, 37.56459 ], [ -122.06158, 37.56511 ], [ -122.06104, 37.56589 ], [ -122.05951, 37.56529 ], [ -122.05912, 37.56579 ], [ -122.05968, 37.56862 ], [ -122.06256, 37.56886 ], [ -122.06291, 37.56848 ], [ -122.06151, 37.56777 ], [ -122.06127, 37.56735 ], [ -122.06204, 37.56675 ], [ -122.06363, 37.56754 ], [ -122.06377, 37.56737 ], [ -122.06213, 37.56642 ], [ -122.06283, 37.56565 ], [ -122.06449, 37.56645 ], [ -122.06463, 37.56627 ], [ -122.06302, 37.56542 ], [ -122.06355, 37.56459 ], [ -122.06547, 37.56518 ], [ -122.06393, 37.56439 ], [ -122.06383, 37.5637 ], [ -122.06333, 37.56345 ] ], [ [ -122.0578, 37.56623 ], [ -122.05713, 37.56646 ], [ -122.05711, 37.56649 ], [ -122.05791, 37.56669 ], [ -122.0578, 37.56623 ] ], [ [ -122.06038, 37.57192 ], [ -122.06164, 37.57023 ], [ -122.06003, 37.57023 ], [ -122.06038, 37.57192 ] ] ], [ [ [ -121.91927, 37.46218 ], [ -121.91597, 37.46321 ], [ -121.91522, 37.46177 ], [ -121.91744, 37.46079 ], [ -121.91724, 37.46043 ], [ -121.91492, 37.46129 ], [ -121.91512, 37.46198 ], [ -121.91377, 37.46248 ], [ -121.91291, 37.46146 ], [ -121.91442, 37.46071 ], [ -121.9142, 37.46008 ], [ -121.91535, 37.45948 ], [ -121.9157, 37.45951 ], [ -121.91607, 37.46012 ], [ -121.91667, 37.45991 ], [ -121.91608, 37.45879 ], [ -121.91716, 37.45825 ], [ -121.91927, 37.46218 ] ], [ [ -121.91762, 37.46167 ], [ -121.91704, 37.46182 ], [ -121.91729, 37.46225 ], [ -121.91781, 37.46206 ], [ -121.91762, 37.46167 ] ] ], [ [ [ -121.9324, 37.47735 ], [ -121.9243, 37.46138 ], [ -121.92343, 37.46105 ], [ -121.92174, 37.46139 ], [ -121.92022, 37.45858 ], [ -121.91875, 37.45753 ], [ -121.92289, 37.45509 ], [ -121.92328, 37.45524 ], [ -121.92459, 37.45977 ], [ -121.93301, 37.47694 ], [ -121.9324, 37.47735 ] ] ], [ [ [ -122.05577, 37.49039 ], [ -122.0535, 37.49134 ], [ -122.05161, 37.49167 ], [ -122.03943, 37.49203 ], [ -122.03505, 37.49007 ], [ -122.03291, 37.48293 ], [ -122.02801, 37.47753 ], [ -122.02542, 37.47711 ], [ -122.02555, 37.47798 ], [ -122.02428, 37.47997 ], [ -122.02408, 37.48137 ], [ -122.0234, 37.48278 ], [ -122.02405, 37.48261 ], [ -122.02426, 37.48291 ], [ -122.02265, 37.48391 ], [ -122.0207, 37.48442 ], [ -122.01834, 37.48409 ], [ -122.01635, 37.48322 ], [ -122.01507, 37.48204 ], [ -122.0143, 37.48165 ], [ -122.01403, 37.4818 ], [ -122.01224, 37.48575 ], [ -122.01004, 37.489 ], [ -122.01107, 37.49234 ], [ -122.01095, 37.49296 ], [ -122.01029, 37.4936 ], [ -122.00802, 37.49405 ], [ -122.00658, 37.49482 ], [ -122.00591, 37.49484 ], [ -122.00566, 37.49448 ], [ -122.00518, 37.49444 ], [ -122.00472, 37.4947 ], [ -122.00313, 37.49469 ], [ -121.9996, 37.49358 ], [ -121.99645, 37.49847 ], [ -121.99388, 37.49876 ], [ -121.99316, 37.49812 ], [ -121.99255, 37.49821 ], [ -121.99375, 37.49938 ], [ -121.99323, 37.49967 ], [ -121.97434, 37.48156 ], [ -121.97361, 37.48025 ], [ -121.9731, 37.47813 ], [ -121.97369, 37.46986 ], [ -121.97435, 37.46985 ], [ -121.97442, 37.47044 ], [ -121.97511, 37.47019 ], [ -121.9776, 37.47082 ], [ -121.97959, 37.47051 ], [ -121.98114, 37.46968 ], [ -121.98482, 37.46636 ], [ -121.98665, 37.46563 ], [ -121.98807, 37.46571 ], [ -121.99094, 37.46731 ], [ -121.99476, 37.4689 ], [ -121.99991, 37.46965 ], [ -122.00049, 37.46904 ], [ -122.00159, 37.4687 ], [ -122.00991, 37.46833 ], [ -122.01618, 37.46757 ], [ -122.02068, 37.4678 ], [ -122.02586, 37.46881 ], [ -122.03658, 37.46927 ], [ -122.04335, 37.46808 ], [ -122.04662, 37.46729 ], [ -122.04863, 37.46632 ], [ -122.05032, 37.46612 ], [ -122.0511, 37.46673 ], [ -122.05172, 37.46822 ], [ -122.0522, 37.47133 ], [ -122.05384, 37.47296 ], [ -122.05241, 37.47595 ], [ -122.05278, 37.47661 ], [ -122.05266, 37.47818 ], [ -122.05416, 37.48233 ], [ -122.05397, 37.48357 ], [ -122.05488, 37.48657 ], [ -122.055, 37.4876 ], [ -122.05431, 37.4879 ], [ -122.05564, 37.48955 ], [ -122.05577, 37.49039 ] ] ], [ [ [ -121.97273, 37.49718 ], [ -121.96709, 37.50196 ], [ -121.97143, 37.50573 ], [ -121.96285, 37.50936 ], [ -121.96089, 37.50685 ], [ -121.95877, 37.50514 ], [ -121.96014, 37.50386 ], [ -121.95749, 37.50181 ], [ -121.95587, 37.50314 ], [ -121.95401, 37.50239 ], [ -121.95148, 37.50215 ], [ -121.95067, 37.49701 ], [ -121.94852, 37.49734 ], [ -121.94823, 37.49718 ], [ -121.94794, 37.49431 ], [ -121.94862, 37.49174 ], [ -121.94845, 37.49055 ], [ -121.95084, 37.49017 ], [ -121.95103, 37.49178 ], [ -121.95177, 37.49279 ], [ -121.95339, 37.49212 ], [ -121.9549, 37.49365 ], [ -121.95537, 37.49324 ], [ -121.95582, 37.49121 ], [ -121.9557, 37.48938 ], [ -121.95858, 37.48908 ], [ -121.96054, 37.48949 ], [ -121.9625, 37.49012 ], [ -121.96604, 37.4922 ], [ -121.97273, 37.49718 ] ] ] ] } },
{ "type": "Feature", "properties": { "km": 2, "city": "Hayward", "people": 1251 }, "geometry": { "type": "Polygon", "coordinates": [ [ [ -122.12459, 37.62713 ], [ -122.12108, 37.62825 ], [ -122.12077, 37.62812 ], [ -122.12198, 37.62539 ], [ -122.12624, 37.62554 ], [ -122.12625, 37.62382 ], [ -122.12252, 37.62369 ], [ -122.12234, 37.6231 ], [ -122.12075, 37.62362 ], [ -122.11699, 37.62332 ], [ -122.11025, 37.62119 ], [ -122.10877, 37.62111 ], [ -122.10251, 37.61925 ], [ -122.1007, 37.61999 ], [ -122.09748, 37.61725 ], [ -122.09737, 37.61909 ], [ -122.09976, 37.62072 ], [ -122.09946, 37.62113 ], [ -122.10009, 37.62417 ], [ -122.09421, 37.62437 ], [ -122.09424, 37.62343 ], [ -122.09581, 37.62346 ], [ -122.09583, 37.62323 ], [ -122.09421, 37.62295 ], [ -122.09444, 37.62205 ], [ -122.09595, 37.62209 ], [ -122.09597, 37.62187 ], [ -122.09436, 37.62164 ], [ -122.09448, 37.62076 ], [ -122.09543, 37.6207 ], [ -122.09545, 37.62046 ], [ -122.09458, 37.62034 ], [ -122.09463, 37.61954 ], [ -122.09302, 37.61858 ], [ -122.09291, 37.61994 ], [ -122.09167, 37.61993 ], [ -122.09156, 37.61832 ], [ -122.09016, 37.6185 ], [ -122.09094, 37.6199 ], [ -122.08999, 37.62022 ], [ -122.08817, 37.61735 ], [ -122.0899, 37.61651 ], [ -122.09203, 37.6164 ], [ -122.09198, 37.61524 ], [ -122.09132, 37.61479 ], [ -122.08976, 37.61441 ], [ -122.0891, 37.61371 ], [ -122.08637, 37.61437 ], [ -122.08383, 37.61017 ], [ -122.08624, 37.60912 ], [ -122.08786, 37.60909 ], [ -122.08715, 37.60814 ], [ -122.08886, 37.60635 ], [ -122.09752, 37.60162 ], [ -122.09791, 37.60182 ], [ -122.09796, 37.60537 ], [ -122.1001, 37.60536 ], [ -122.10135, 37.60481 ], [ -122.10223, 37.60021 ], [ -122.104, 37.59815 ], [ -122.10667, 37.59813 ], [ -122.1098, 37.59856 ], [ -122.11005, 37.59777 ], [ -122.11058, 37.59757 ], [ -122.11246, 37.59811 ], [ -122.11279, 37.59864 ], [ -122.11263, 37.59989 ], [ -122.11209, 37.60013 ], [ -122.11131, 37.60001 ], [ -122.11089, 37.60057 ], [ -122.10965, 37.60121 ], [ -122.10932, 37.60184 ], [ -122.11098, 37.60279 ], [ -122.11251, 37.60434 ], [ -122.11342, 37.60453 ], [ -122.11474, 37.60433 ], [ -122.11509, 37.60415 ], [ -122.11562, 37.60244 ], [ -122.11707, 37.60217 ], [ -122.11822, 37.60245 ], [ -122.1204, 37.60097 ], [ -122.12158, 37.59959 ], [ -122.12207, 37.5984 ], [ -122.12095, 37.5964 ], [ -122.12314, 37.59275 ], [ -122.12504, 37.59219 ], [ -122.12644, 37.59226 ], [ -122.12741, 37.5939 ], [ -122.12712, 37.5962 ], [ -122.12748, 37.59672 ], [ -122.12827, 37.59686 ], [ -122.12958, 37.59659 ], [ -122.13045, 37.59584 ], [ -122.13027, 37.59351 ], [ -122.13063, 37.5925 ], [ -122.13127, 37.59205 ], [ -122.1324, 37.59205 ], [ -122.13407, 37.5952 ], [ -122.13367, 37.59685 ], [ -122.13454, 37.59823 ], [ -122.13523, 37.5983 ], [ -122.13701, 37.59753 ], [ -122.13872, 37.59729 ], [ -122.14024, 37.59794 ], [ -122.14146, 37.59974 ], [ -122.14157, 37.6022 ], [ -122.14121, 37.60269 ], [ -122.13973, 37.6035 ], [ -122.13575, 37.60482 ], [ -122.13481, 37.60581 ], [ -122.13478, 37.60625 ], [ -122.13581, 37.60609 ], [ -122.13715, 37.60631 ], [ -122.1402, 37.60806 ], [ -122.14101, 37.6083 ], [ -122.14154, 37.60813 ], [ -122.14241, 37.60562 ], [ -122.14535, 37.60269 ], [ -122.14614, 37.60246 ], [ -122.1465, 37.60289 ], [ -122.1464, 37.60416 ], [ -122.14766, 37.6051 ], [ -122.14747, 37.60598 ], [ -122.1478, 37.60655 ], [ -122.14728, 37.60681 ], [ -122.14806, 37.60745 ], [ -122.14755, 37.60825 ], [ -122.14865, 37.61034 ], [ -122.1486, 37.61279 ], [ -122.14956, 37.61548 ], [ -122.15042, 37.61644 ], [ -122.15111, 37.61657 ], [ -122.15158, 37.61705 ], [ -122.15496, 37.61622 ], [ -122.1557, 37.61616 ], [ -122.15622, 37.61653 ], [ -122.1562, 37.61692 ], [ -122.15482, 37.61797 ], [ -122.151, 37.61922 ], [ -122.15177, 37.62574 ], [ -122.15159, 37.62625 ], [ -122.15078, 37.62666 ], [ -122.15159, 37.62767 ], [ -122.15144, 37.6283 ], [ -122.15182, 37.6293 ], [ -122.15338, 37.62883 ], [ -122.154, 37.62917 ], [ -122.15335, 37.63014 ], [ -122.15309, 37.6341 ], [ -122.15394, 37.64023 ], [ -122.1545, 37.64127 ], [ -122.15414, 37.64198 ], [ -122.1527, 37.64206 ], [ -122.15275, 37.64558 ], [ -122.14795, 37.64663 ], [ -122.14763, 37.64572 ], [ -122.14354, 37.64574 ], [ -122.14318, 37.64548 ], [ -122.1375, 37.6456 ], [ -122.13704, 37.64282 ], [ -122.13329, 37.63934 ], [ -122.13281, 37.6382 ], [ -122.12482, 37.63857 ], [ -122.12446, 37.636 ], [ -122.11959, 37.63596 ], [ -122.11962, 37.63311 ], [ -122.12886, 37.63308 ], [ -122.12858, 37.6305 ], [ -122.12516, 37.62793 ], [ -122.12459, 37.62713 ] ], [ [ -122.15225, 37.61783 ], [ -122.15136, 37.61813 ], [ -122.15252, 37.61776 ], [ -122.15225, 37.61783 ] ], [ [ -122.09599, 37.60632 ], [ -122.09123, 37.60639 ], [ -122.09044, 37.60742 ], [ -122.08909, 37.60822 ], [ -122.09042, 37.60939 ], [ -122.09161, 37.60854 ], [ -122.09232, 37.60896 ], [ -122.09344, 37.60805 ], [ -122.09428, 37.60787 ], [ -122.09442, 37.60742 ], [ -122.09599, 37.6074 ], [ -122.09599, 37.60632 ] ], [ [ -122.09824, 37.62102 ], [ -122.09761, 37.62068 ], [ -122.0973, 37.62343 ], [ -122.09806, 37.62343 ], [ -122.09824, 37.62102 ] ] ] } },
{ "type": "Feature", "properties": { "km": 2, "city": "Newark", "people": 372 }, "geometry": { "type": "MultiPolygon", "coordinates": [ [ [ [ -122.06644, 37.51886 ], [ -122.05077, 37.52401 ], [ -122.04858, 37.52009 ], [ -122.05203, 37.51876 ], [ -122.05034, 37.51549 ], [ -122.04699, 37.51663 ], [ -122.04618, 37.51546 ], [ -122.0339, 37.51965 ], [ -122.03462, 37.52145 ], [ -122.03162, 37.52227 ], [ -122.02967, 37.52402 ], [ -122.01192, 37.51579 ], [ -122.01456, 37.50969 ], [ -122.01218, 37.50699 ], [ -122.01166, 37.504 ], [ -122.01232, 37.50338 ], [ -122.01349, 37.50322 ], [ -122.01463, 37.50228 ], [ -122.01518, 37.50133 ], [ -122.01456, 37.50023 ], [ -122.01296, 37.50023 ], [ -122.01227, 37.49983 ], [ -122.01277, 37.4981 ], [ -122.01225, 37.49704 ], [ -122.01134, 37.49693 ], [ -122.00968, 37.49784 ], [ -122.00817, 37.49773 ], [ -122.00718, 37.49714 ], [ -122.00568, 37.49492 ], [ -122.00586, 37.49446 ], [ -122.00682, 37.49398 ], [ -122.00931, 37.49348 ], [ -122.01043, 37.49277 ], [ -122.00947, 37.48894 ], [ -122.01172, 37.48558 ], [ -122.0136, 37.48149 ], [ -122.01445, 37.48119 ], [ -122.01806, 37.48367 ], [ -122.01989, 37.48437 ], [ -122.02302, 37.48448 ], [ -122.0246, 37.48313 ], [ -122.025, 37.48236 ], [ -122.02563, 37.47884 ], [ -122.02634, 37.47851 ], [ -122.02756, 37.47845 ], [ -122.03018, 37.48173 ], [ -122.03054, 37.48263 ], [ -122.03046, 37.48729 ], [ -122.03023, 37.48787 ], [ -122.02956, 37.48815 ], [ -122.03052, 37.48922 ], [ -122.03177, 37.48899 ], [ -122.0324, 37.48917 ], [ -122.03546, 37.49219 ], [ -122.0367, 37.4924 ], [ -122.0384, 37.49347 ], [ -122.04123, 37.49332 ], [ -122.05093, 37.49628 ], [ -122.05112, 37.49745 ], [ -122.05766, 37.49895 ], [ -122.05782, 37.5 ], [ -122.05641, 37.50177 ], [ -122.05533, 37.50413 ], [ -122.05432, 37.50843 ], [ -122.05488, 37.50977 ], [ -122.05536, 37.50972 ], [ -122.0556, 37.5102 ], [ -122.0553, 37.51054 ], [ -122.05601, 37.51402 ], [ -122.06048, 37.51457 ], [ -122.06083, 37.51389 ], [ -122.0642, 37.51275 ], [ -122.06467, 37.51282 ], [ -122.06766, 37.51823 ], [ -122.06644, 37.51886 ] ] ], [ [ [ -122.05615, 37.52635 ], [ -122.063, 37.52888 ], [ -122.06399, 37.53008 ], [ -122.06436, 37.53195 ], [ -122.06431, 37.53309 ], [ -122.06242, 37.5333 ], [ -122.0613, 37.53422 ], [ -122.06018, 37.53391 ], [ -122.05952, 37.53459 ], [ -122.06106, 37.53537 ], [ -122.06079, 37.53628 ], [ -122.06098, 37.53715 ], [ -122.05946, 37.53838 ], [ -122.0574, 37.53708 ], [ -122.05721, 37.53597 ], [ -122.05779, 37.53529 ], [ -122.05682, 37.53482 ], [ -122.05594, 37.53525 ], [ -122.05461, 37.53388 ], [ -122.0534, 37.53348 ], [ -122.05362, 37.532 ], [ -122.05168, 37.52926 ], [ -122.0536, 37.52841 ], [ -122.05293, 37.52836 ], [ -122.05237, 37.52733 ], [ -122.05304, 37.52691 ], [ -122.05346, 37.52713 ], [ -122.05577, 37.52667 ], [ -122.05615, 37.52635 ] ] ] ] } },
{ "type": "Feature", "properties": { "km": 2, "city": "Oakland", "people": 232 }, "geometry": { "type": "MultiPolygon", "coordinates": [ [ [ [ -122.2267, 37.74824 ], [ -122.22366, 37.74826 ], [ -122.22375, 37.75477 ], [ -122.21805, 37.75996 ], [ -122.21935, 37.75984 ], [ -122.22098, 37.75861 ], [ -122.22226, 37.75849 ], [ -122.22334, 37.75984 ], [ -122.2233, 37.76165 ], [ -122.22105, 37.76342 ], [ -122.22052, 37.76325 ], [ -122.21817, 37.76511 ], [ -122.22248, 37.77067 ], [ -122.22402, 37.77171 ], [ -122.22811, 37.77305 ], [ -122.22796, 37.77369 ], [ -122.22351, 37.77219 ], [ -122.22239, 37.77334 ], [ -122.22128, 37.77274 ], [ -122.22181, 37.77191 ], [ -122.22046, 37.77125 ], [ -122.21941, 37.77264 ], [ -122.22017, 37.77304 ], [ -122.22003, 37.77342 ], [ -122.21738, 37.7723 ], [ -122.21733, 37.77194 ], [ -122.21989, 37.77011 ], [ -122.21876, 37.76926 ], [ -122.21963, 37.7685 ], [ -122.21863, 37.76717 ], [ -122.21593, 37.76485 ], [ -122.21462, 37.76433 ], [ -122.21322, 37.76553 ], [ -122.21084, 37.76369 ], [ -122.20956, 37.76449 ], [ -122.20076, 37.75706 ], [ -122.19837, 37.75884 ], [ -122.19716, 37.75769 ], [ -122.19736, 37.75644 ], [ -122.19638, 37.75691 ], [ -122.19513, 37.75571 ], [ -122.1971, 37.7543 ], [ -122.19829, 37.75522 ], [ -122.19851, 37.75508 ], [ -122.19727, 37.75395 ], [ -122.19755, 37.75337 ], [ -122.20096, 37.75654 ], [ -122.20807, 37.75378 ], [ -122.21252, 37.75874 ], [ -122.21182, 37.75942 ], [ -122.21301, 37.76145 ], [ -122.214, 37.7617 ], [ -122.21742, 37.7596 ], [ -122.21678, 37.75791 ], [ -122.21568, 37.75738 ], [ -122.21654, 37.75637 ], [ -122.2157, 37.75625 ], [ -122.21519, 37.75548 ], [ -122.21429, 37.75535 ], [ -122.21409, 37.75472 ], [ -122.21339, 37.75498 ], [ -122.21231, 37.75485 ], [ -122.21163, 37.75351 ], [ -122.21098, 37.75308 ], [ -122.21092, 37.75174 ], [ -122.20829, 37.75319 ], [ -122.20773, 37.75287 ], [ -122.21174, 37.75039 ], [ -122.21166, 37.7497 ], [ -122.21217, 37.74936 ], [ -122.2072, 37.74365 ], [ -122.20846, 37.74255 ], [ -122.2094, 37.74212 ], [ -122.21091, 37.742 ], [ -122.21135, 37.74251 ], [ -122.21155, 37.74371 ], [ -122.21392, 37.74575 ], [ -122.21716, 37.74776 ], [ -122.21431, 37.74276 ], [ -122.21142, 37.74098 ], [ -122.21063, 37.73997 ], [ -122.21086, 37.73736 ], [ -122.21011, 37.73657 ], [ -122.20991, 37.73601 ], [ -122.21019, 37.73574 ], [ -122.20875, 37.73264 ], [ -122.20748, 37.73156 ], [ -122.20768, 37.73118 ], [ -122.20816, 37.73119 ], [ -122.20804, 37.73062 ], [ -122.2084, 37.73028 ], [ -122.21078, 37.73157 ], [ -122.21391, 37.73841 ], [ -122.21544, 37.74088 ], [ -122.21956, 37.74449 ], [ -122.22129, 37.74556 ], [ -122.22234, 37.74584 ], [ -122.22264, 37.74548 ], [ -122.2236, 37.74542 ], [ -122.22377, 37.74754 ], [ -122.22656, 37.74766 ], [ -122.2267, 37.74824 ] ], [ [ -122.20594, 37.75526 ], [ -122.20673, 37.75607 ], [ -122.2083, 37.75546 ], [ -122.20746, 37.75481 ], [ -122.20594, 37.75526 ] ] ], [ [ [ -122.26647, 37.78889 ], [ -122.26474, 37.79036 ], [ -122.26301, 37.79104 ], [ -122.25556, 37.78931 ], [ -122.2554, 37.78904 ], [ -122.25581, 37.78856 ], [ -122.25543, 37.788 ], [ -122.25302, 37.78884 ], [ -122.24752, 37.78708 ], [ -122.24328, 37.78464 ], [ -122.24269, 37.78454 ], [ -122.24236, 37.7792 ], [ -122.24359, 37.77901 ], [ -122.24409, 37.77928 ], [ -122.24396, 37.77998 ], [ -122.24352, 37.78018 ], [ -122.24421, 37.7802 ], [ -122.24434, 37.78068 ], [ -122.24351, 37.78096 ], [ -122.24409, 37.78121 ], [ -122.24421, 37.78232 ], [ -122.24353, 37.78274 ], [ -122.24364, 37.78352 ], [ -122.24464, 37.78351 ], [ -122.24545, 37.78458 ], [ -122.2477, 37.78621 ], [ -122.24814, 37.78593 ], [ -122.24922, 37.78664 ], [ -122.25258, 37.78758 ], [ -122.25468, 37.78726 ], [ -122.25481, 37.78689 ], [ -122.25841, 37.78555 ], [ -122.26162, 37.78689 ], [ -122.25904, 37.7892 ], [ -122.26158, 37.78753 ], [ -122.26265, 37.7874 ], [ -122.26339, 37.78781 ], [ -122.26365, 37.78949 ], [ -122.26532, 37.78833 ], [ -122.26576, 37.78872 ], [ -122.26461, 37.78959 ], [ -122.26601, 37.78861 ], [ -122.26647, 37.78889 ] ] ], [ [ [ -122.33412, 37.8102 ], [ -122.33308, 37.81126 ], [ -122.32779, 37.81073 ], [ -122.32754, 37.81051 ], [ -122.32636, 37.81066 ], [ -122.32311, 37.81035 ], [ -122.31349, 37.81942 ], [ -122.30892, 37.81906 ], [ -122.30868, 37.82091 ], [ -122.3125, 37.822 ], [ -122.31543, 37.82155 ], [ -122.31879, 37.81849 ], [ -122.31975, 37.81903 ], [ -122.31966, 37.8194 ], [ -122.32128, 37.82076 ], [ -122.32433, 37.82082 ], [ -122.33059, 37.82014 ], [ -122.33087, 37.82056 ], [ -122.33011, 37.8218 ], [ -122.3243, 37.82225 ], [ -122.30541, 37.8253 ], [ -122.30164, 37.82386 ], [ -122.30011, 37.82286 ], [ -122.30167, 37.82125 ], [ -122.30292, 37.8228 ], [ -122.30461, 37.82371 ], [ -122.30702, 37.82315 ], [ -122.30533, 37.82271 ], [ -122.3061, 37.82191 ], [ -122.307, 37.82154 ], [ -122.30657, 37.82082 ], [ -122.30694, 37.81879 ], [ -122.30501, 37.81861 ], [ -122.30482, 37.81833 ], [ -122.31494, 37.80866 ], [ -122.32042, 37.80909 ], [ -122.32348, 37.80782 ], [ -122.32783, 37.80743 ], [ -122.32868, 37.80814 ], [ -122.32896, 37.80965 ], [ -122.33412, 37.8102 ] ], [ [ -122.31089, 37.82266 ], [ -122.31082, 37.82266 ], [ -122.31067, 37.82269 ], [ -122.31089, 37.82266 ] ], [ [ -122.31682, 37.82197 ], [ -122.32037, 37.82144 ], [ -122.31919, 37.81994 ], [ -122.31682, 37.82197 ] ] ] ] } },
{ "type": "Feature", "properties": { "km": 2, "city": "San Leandro", "people": 838 }, "geometry": { "type": "Polygon", "coordinates": [ [ [ -122.1824, 37.69702 ], [ -122.18155, 37.69569 ], [ -122.1817, 37.69518 ], [ -122.17958, 37.69179 ], [ -122.17918, 37.69179 ], [ -122.1789, 37.69227 ], [ -122.17333, 37.69223 ], [ -122.17272, 37.69084 ], [ -122.18449, 37.69079 ], [ -122.18582, 37.69005 ], [ -122.18699, 37.68986 ], [ -122.18847, 37.69045 ], [ -122.18918, 37.69104 ], [ -122.19031, 37.69304 ], [ -122.19163, 37.69364 ], [ -122.19199, 37.6943 ], [ -122.19044, 37.69504 ], [ -122.18939, 37.69492 ], [ -122.18934, 37.694 ], [ -122.18811, 37.69176 ], [ -122.18672, 37.69105 ], [ -122.18582, 37.69153 ], [ -122.18783, 37.69373 ], [ -122.18815, 37.69448 ], [ -122.18783, 37.69522 ], [ -122.1871, 37.69564 ], [ -122.18886, 37.69506 ], [ -122.18973, 37.69576 ], [ -122.19145, 37.69514 ], [ -122.19253, 37.69547 ], [ -122.19217, 37.69604 ], [ -122.18933, 37.69679 ], [ -122.18966, 37.69815 ], [ -122.19264, 37.69789 ], [ -122.19318, 37.69756 ], [ -122.19316, 37.6963 ], [ -122.1927, 37.6954 ], [ -122.1929, 37.69464 ], [ -122.19347, 37.69462 ], [ -122.19453, 37.69563 ], [ -122.1944, 37.69872 ], [ -122.19136, 37.69917 ], [ -122.19133, 37.70048 ], [ -122.19009, 37.70094 ], [ -122.19085, 37.70454 ], [ -122.19103, 37.70409 ], [ -122.19243, 37.70346 ], [ -122.19522, 37.70283 ], [ -122.1974, 37.70298 ], [ -122.19983, 37.70388 ], [ -122.20125, 37.705 ], [ -122.20227, 37.70655 ], [ -122.20253, 37.70847 ], [ -122.20187, 37.71073 ], [ -122.20235, 37.71168 ], [ -122.2034, 37.71157 ], [ -122.20354, 37.71216 ], [ -122.19644, 37.7138 ], [ -122.19636, 37.71424 ], [ -122.19815, 37.71406 ], [ -122.19716, 37.71582 ], [ -122.19658, 37.71515 ], [ -122.19345, 37.71458 ], [ -122.1869, 37.71639 ], [ -122.18399, 37.71095 ], [ -122.1889, 37.7088 ], [ -122.18726, 37.70606 ], [ -122.1897, 37.7049 ], [ -122.18951, 37.70401 ], [ -122.18655, 37.70516 ], [ -122.18309, 37.69997 ], [ -122.17807, 37.70193 ], [ -122.17669, 37.69983 ], [ -122.17767, 37.69927 ], [ -122.17729, 37.69891 ], [ -122.17623, 37.6992 ], [ -122.17481, 37.69705 ], [ -122.1774, 37.69594 ], [ -122.17791, 37.69673 ], [ -122.17731, 37.69709 ], [ -122.17808, 37.69823 ], [ -122.18038, 37.69726 ], [ -122.17947, 37.6958 ], [ -122.18045, 37.69531 ], [ -122.18202, 37.69735 ], [ -122.1824, 37.69702 ] ] ] } },
{ "type": "Feature", "properties": { "km": 2, "city": "San Lorenzo", "people": 9 }, "geometry": { "type": "Polygon", "coordinates": [ [ [ -122.16195, 37.66764 ], [ -122.16089, 37.66849 ], [ -122.15805, 37.66993 ], [ -122.15763, 37.66982 ], [ -122.15662, 37.6703 ], [ -122.15218, 37.67269 ], [ -122.14564, 37.66564 ], [ -122.14922, 37.66384 ], [ -122.1495, 37.66332 ], [ -122.15079, 37.66257 ], [ -122.15254, 37.66373 ], [ -122.16067, 37.66361 ], [ -122.1616, 37.66537 ], [ -122.16139, 37.66571 ], [ -122.16195, 37.66764 ] ], [ [ -122.15281, 37.66804 ], [ -122.15166, 37.66718 ], [ -122.15038, 37.66752 ], [ -122.15156, 37.66878 ], [ -122.15281, 37.66804 ] ] ] } },
{ "type": "Feature", "properties": { "km": 2, "city": "Union City", "people": 1526 }, "geometry": { "type": "MultiPolygon", "coordinates": [ [ [ [ -122.08539, 37.56717 ], [ -122.08446, 37.56784 ], [ -122.08392, 37.56966 ], [ -122.08582, 37.5734 ], [ -122.08314, 37.57467 ], [ -122.08326, 37.57549 ], [ -122.08129, 37.57611 ], [ -122.08106, 37.57501 ], [ -122.08205, 37.57468 ], [ -122.081, 37.57257 ], [ -122.07902, 37.57166 ], [ -122.07906, 37.57231 ], [ -122.07842, 37.5726 ], [ -122.07986, 37.57538 ], [ -122.07759, 37.57649 ], [ -122.07522, 37.57534 ], [ -122.07402, 37.57638 ], [ -122.07277, 37.57477 ], [ -122.07221, 37.57524 ], [ -122.07131, 37.57478 ], [ -122.06992, 37.57633 ], [ -122.06943, 37.57642 ], [ -122.0681, 37.57574 ], [ -122.06877, 37.57455 ], [ -122.06843, 37.57446 ], [ -122.06761, 37.5756 ], [ -122.06647, 37.5754 ], [ -122.06426, 37.5779 ], [ -122.06314, 37.57739 ], [ -122.06382, 37.57639 ], [ -122.06324, 37.57585 ], [ -122.06447, 37.57444 ], [ -122.06243, 37.57326 ], [ -122.06307, 37.5724 ], [ -122.06387, 37.57268 ], [ -122.06424, 37.57217 ], [ -122.06256, 37.57108 ], [ -122.06641, 37.56642 ], [ -122.06865, 37.56414 ], [ -122.06993, 37.56326 ], [ -122.0767, 37.56177 ], [ -122.08086, 37.56119 ], [ -122.0809, 37.56212 ], [ -122.08402, 37.5624 ], [ -122.08408, 37.56525 ], [ -122.08379, 37.56542 ], [ -122.08015, 37.56505 ], [ -122.07941, 37.56619 ], [ -122.08474, 37.56613 ], [ -122.08496, 37.56643 ], [ -122.08429, 37.56693 ], [ -122.08539, 37.56717 ] ], [ [ -122.07043, 37.57375 ], [ -122.07169, 37.57226 ], [ -122.0706, 37.57186 ], [ -122.06959, 37.57236 ], [ -122.06997, 37.57358 ], [ -122.07043, 37.57375 ] ], [ [ -122.07266, 37.56795 ], [ -122.07365, 37.56644 ], [ -122.07451, 37.56643 ], [ -122.07628, 37.5673 ], [ -122.07703, 37.56643 ], [ -122.07605, 37.56615 ], [ -122.07343, 37.56613 ], [ -122.07341, 37.56673 ], [ -122.07298, 37.56686 ], [ -122.07149, 37.56619 ], [ -122.07077, 37.56618 ], [ -122.07063, 37.56683 ], [ -122.07266, 37.56795 ] ], [ [ -122.06814, 37.56664 ], [ -122.06851, 37.56708 ], [ -122.06908, 37.56675 ], [ -122.06836, 37.56643 ], [ -122.06814, 37.56664 ] ], [ [ -122.06572, 37.57052 ], [ -122.06487, 37.57105 ], [ -122.06519, 37.57114 ], [ -122.06572, 37.57052 ] ] ], [ [ [ -122.07144, 37.61337 ], [ -122.0663, 37.61326 ], [ -122.06769, 37.60838 ], [ -122.06808, 37.60847 ], [ -122.07144, 37.61337 ] ] ] ] } }
]
}
