{
"type": "FeatureCollection",
"name": "b4_r0_c0",
"crs": { "type": "name", "properties": { "name": "urn:ogc:def:crs:OGC:1.3:CRS84" } },
"xy_coordinate_resolution": 1e-05,
"features": [
{ "type": "Feature", "properties": { "km": 1, "city": "Alameda", "people": 9914 }, "geometry": { "type": "MultiPolygon", "coordinates": [ [ [ [ -122.28929, 37.76644 ], [ -122.28812, 37.76855 ], [ -122.28854, 37.7682 ], [ -122.289, 37.76829 ], [ -122.28899, 37.76864 ], [ -122.28951, 37.76895 ], [ -122.28903, 37.76933 ], [ -122.28935, 37.76961 ], [ -122.28988, 37.7692 ], [ -122.29072, 37.76918 ], [ -122.29142, 37.76821 ], [ -122.29193, 37.76963 ], [ -122.2996, 37.77182 ], [ -122.30525, 37.77199 ], [ -122.30502, 37.77279 ], [ -122.3011, 37.77262 ], [ -122.30103, 37.77344 ], [ -122.30131, 37.77368 ], [ -122.30561, 37.77392 ], [ -122.3058, 37.77441 ], [ -122.30139, 37.77439 ], [ -122.3003, 37.77524 ], [ -122.3021, 37.77532 ], [ -122.30238, 37.77574 ], [ -122.30008, 37.77583 ], [ -122.29877, 37.77655 ], [ -122.2986, 37.7798 ], [ -122.3041, 37.78003 ], [ -122.30497, 37.77979 ], [ -122.30605, 37.78017 ], [ -122.30654, 37.77985 ], [ -122.30681, 37.78025 ], [ -122.30822, 37.78034 ], [ -122.30861, 37.77611 ], [ -122.30892, 37.7759 ], [ -122.31563, 37.77629 ], [ -122.31823, 37.77934 ], [ -122.3232, 37.77962 ], [ -122.32552, 37.78081 ], [ -122.3281, 37.78103 ], [ -122.33181, 37.78688 ], [ -122.33117, 37.79242 ], [ -122.3315, 37.7946 ], [ -122.33221, 37.79555 ], [ -122.3319, 37.7971 ], [ -122.33115, 37.79709 ], [ -122.33075, 37.79741 ], [ -122.31564, 37.79363 ], [ -122.30928, 37.79234 ], [ -122.30891, 37.7925 ], [ -122.30334, 37.79086 ], [ -122.29693, 37.79051 ], [ -122.28966, 37.79242 ], [ -122.28789, 37.79264 ], [ -122.28068, 37.79277 ], [ -122.27725, 37.79198 ], [ -122.27617, 37.79166 ], [ -122.2763, 37.79107 ], [ -122.27545, 37.79078 ], [ -122.27547, 37.79017 ], [ -122.27434, 37.78955 ], [ -122.27445, 37.78827 ], [ -122.27417, 37.78804 ], [ -122.27396, 37.78792 ], [ -122.27335, 37.78864 ], [ -122.27099, 37.7878 ], [ -122.2713, 37.78688 ], [ -122.27052, 37.7869 ], [ -122.27027, 37.78637 ], [ -122.26871, 37.78555 ], [ -122.26785, 37.78338 ], [ -122.26629, 37.78331 ], [ -122.26542, 37.7842 ], [ -122.26203, 37.78261 ], [ -122.26085, 37.7827 ], [ -122.26039, 37.78016 ], [ -122.26045, 37.77823 ], [ -122.26014, 37.77821 ], [ -122.25948, 37.78249 ], [ -122.25746, 37.78206 ], [ -122.25596, 37.78119 ], [ -122.25779, 37.77819 ], [ -122.25603, 37.77749 ], [ -122.25506, 37.77883 ], [ -122.2525, 37.77889 ], [ -122.2521, 37.77915 ], [ -122.25177, 37.77893 ], [ -122.25183, 37.77845 ], [ -122.25159, 37.7791 ], [ -122.25713, 37.7858 ], [ -122.25408, 37.78698 ], [ -122.25269, 37.78721 ], [ -122.25125, 37.7871 ], [ -122.24851, 37.78603 ], [ -122.24638, 37.78483 ], [ -122.24496, 37.78313 ], [ -122.24454, 37.77917 ], [ -122.24329, 37.7764 ], [ -122.24031, 37.7739 ], [ -122.2363, 37.77186 ], [ -122.23597, 37.77125 ], [ -122.2281, 37.7676 ], [ -122.22656, 37.7663 ], [ -122.22535, 37.76456 ], [ -122.22499, 37.76482 ], [ -122.22467, 37.76469 ], [ -122.22506, 37.76408 ], [ -122.22447, 37.76154 ], [ -122.22468, 37.75698 ], [ -122.22505, 37.75579 ], [ -122.22627, 37.7546 ], [ -122.22477, 37.75339 ], [ -122.22582, 37.74958 ], [ -122.23635, 37.74833 ], [ -122.23648, 37.74959 ], [ -122.23693, 37.7495 ], [ -122.23992, 37.75058 ], [ -122.24432, 37.75151 ], [ -122.25023, 37.75362 ], [ -122.25069, 37.75343 ], [ -122.25103, 37.75372 ], [ -122.25076, 37.75429 ], [ -122.26185, 37.75841 ], [ -122.26145, 37.7595 ], [ -122.26259, 37.75993 ], [ -122.26315, 37.75905 ], [ -122.26398, 37.75921 ], [ -122.26446, 37.75875 ], [ -122.26701, 37.7596 ], [ -122.27075, 37.76102 ], [ -122.27263, 37.76221 ], [ -122.27505, 37.76494 ], [ -122.27592, 37.76641 ], [ -122.27599, 37.76753 ], [ -122.27648, 37.76794 ], [ -122.27777, 37.76831 ], [ -122.28009, 37.76617 ], [ -122.28091, 37.76613 ], [ -122.28098, 37.76657 ], [ -122.2802, 37.76703 ], [ -122.28014, 37.76798 ], [ -122.28186, 37.76822 ], [ -122.28189, 37.7709 ], [ -122.28278, 37.77074 ], [ -122.28286, 37.77 ], [ -122.28373, 37.76987 ], [ -122.28393, 37.76906 ], [ -122.28457, 37.76903 ], [ -122.28546, 37.76959 ], [ -122.28401, 37.76842 ], [ -122.28428, 37.76704 ], [ -122.28507, 37.76697 ], [ -122.28633, 37.76775 ], [ -122.28687, 37.76757 ], [ -122.28724, 37.76666 ], [ -122.2865, 37.76581 ], [ -122.28249, 37.76494 ], [ -122.28227, 37.76403 ], [ -122.2825, 37.76358 ], [ -122.2867, 37.76439 ], [ -122.28895, 37.7653 ], [ -122.28929, 37.76644 ] ], [ [ -122.25153, 37.7778 ], [ -122.25327, 37.7755 ], [ -122.25446, 37.77587 ], [ -122.25421, 37.77648 ], [ -122.257, 37.77717 ], [ -122.25842, 37.77717 ], [ -122.25859, 37.7761 ], [ -122.26323, 37.77657 ], [ -122.26339, 37.77759 ], [ -122.26547, 37.77768 ], [ -122.26583, 37.77673 ], [ -122.27444, 37.77691 ], [ -122.27478, 37.77794 ], [ -122.2764, 37.77797 ], [ -122.27666, 37.77701 ], [ -122.28105, 37.77714 ], [ -122.28115, 37.779 ], [ -122.28463, 37.77916 ], [ -122.28479, 37.77993 ], [ -122.28449, 37.78015 ], [ -122.27691, 37.7798 ], [ -122.27683, 37.78413 ], [ -122.27859, 37.78617 ], [ -122.27875, 37.78747 ], [ -122.27836, 37.78848 ], [ -122.28013, 37.78957 ], [ -122.28086, 37.78868 ], [ -122.28171, 37.78892 ], [ -122.28181, 37.78947 ], [ -122.28247, 37.78948 ], [ -122.28261, 37.7848 ], [ -122.28387, 37.78457 ], [ -122.28792, 37.78463 ], [ -122.28817, 37.7842 ], [ -122.29058, 37.78423 ], [ -122.29051, 37.78072 ], [ -122.29011, 37.78042 ], [ -122.28778, 37.78068 ], [ -122.28757, 37.78013 ], [ -122.28784, 37.77838 ], [ -122.29071, 37.77836 ], [ -122.29066, 37.77653 ], [ -122.29109, 37.77635 ], [ -122.29159, 37.77684 ], [ -122.29168, 37.78466 ], [ -122.29695, 37.78493 ], [ -122.29828, 37.78539 ], [ -122.29817, 37.78829 ], [ -122.30205, 37.78851 ], [ -122.30267, 37.78917 ], [ -122.3034, 37.78857 ], [ -122.30827, 37.78883 ], [ -122.30859, 37.78521 ], [ -122.3082, 37.785 ], [ -122.30832, 37.78365 ], [ -122.29794, 37.78307 ], [ -122.29755, 37.78259 ], [ -122.29775, 37.78018 ], [ -122.29584, 37.78009 ], [ -122.29421, 37.78047 ], [ -122.29305, 37.77995 ], [ -122.29317, 37.77957 ], [ -122.29402, 37.77936 ], [ -122.29545, 37.77947 ], [ -122.29586, 37.77524 ], [ -122.29927, 37.7753 ], [ -122.30022, 37.77453 ], [ -122.30032, 37.77253 ], [ -122.29322, 37.77216 ], [ -122.29301, 37.77527 ], [ -122.29114, 37.77537 ], [ -122.29012, 37.7738 ], [ -122.28629, 37.77183 ], [ -122.27836, 37.77165 ], [ -122.27809, 37.77106 ], [ -122.27685, 37.77135 ], [ -122.27636, 37.77106 ], [ -122.2761, 37.77159 ], [ -122.27281, 37.77149 ], [ -122.27268, 37.76942 ], [ -122.2712, 37.76881 ], [ -122.27072, 37.76963 ], [ -122.26342, 37.76945 ], [ -122.26334, 37.76659 ], [ -122.26072, 37.76545 ], [ -122.25991, 37.76623 ], [ -122.25263, 37.76302 ], [ -122.25368, 37.76066 ], [ -122.25397, 37.76046 ], [ -122.25449, 37.7606 ], [ -122.25473, 37.75952 ], [ -122.25564, 37.75821 ], [ -122.25313, 37.76056 ], [ -122.24819, 37.75772 ], [ -122.24715, 37.75696 ], [ -122.24744, 37.75633 ], [ -122.24682, 37.75599 ], [ -122.24621, 37.75648 ], [ -122.24493, 37.75582 ], [ -122.24392, 37.7569 ], [ -122.24263, 37.75628 ], [ -122.24176, 37.75729 ], [ -122.2407, 37.75691 ], [ -122.23943, 37.75809 ], [ -122.23803, 37.75716 ], [ -122.23893, 37.75595 ], [ -122.2382, 37.7564 ], [ -122.23603, 37.7549 ], [ -122.23532, 37.75533 ], [ -122.2339, 37.75435 ], [ -122.23368, 37.75455 ], [ -122.23433, 37.75514 ], [ -122.23372, 37.75575 ], [ -122.2344, 37.75637 ], [ -122.22936, 37.76093 ], [ -122.2261, 37.75887 ], [ -122.22573, 37.76187 ], [ -122.22647, 37.76335 ], [ -122.22615, 37.76379 ], [ -122.2282, 37.76639 ], [ -122.23102, 37.76798 ], [ -122.23331, 37.76755 ], [ -122.23371, 37.76833 ], [ -122.23768, 37.77045 ], [ -122.23717, 37.77131 ], [ -122.24069, 37.77285 ], [ -122.24227, 37.77426 ], [ -122.24492, 37.77512 ], [ -122.2457, 37.77403 ], [ -122.2462, 37.77403 ], [ -122.24636, 37.77431 ], [ -122.24561, 37.77537 ], [ -122.24621, 37.77564 ], [ -122.24699, 37.77476 ], [ -122.24852, 37.77527 ], [ -122.24942, 37.77592 ], [ -122.24942, 37.77622 ], [ -122.2507, 37.77669 ], [ -122.25153, 37.7778 ] ], [ [ -122.27603, 37.78953 ], [ -122.27639, 37.78957 ], [ -122.27639, 37.78919 ], [ -122.27597, 37.78917 ], [ -122.27603, 37.78953 ] ], [ [ -122.27553, 37.78753 ], [ -122.27524, 37.78511 ], [ -122.27577, 37.78488 ], [ -122.27562, 37.7834 ], [ -122.27527, 37.7828 ], [ -122.27319, 37.78285 ], [ -122.27295, 37.78257 ], [ -122.27317, 37.78187 ], [ -122.27399, 37.78179 ], [ -122.27386, 37.78074 ], [ -122.27323, 37.78065 ], [ -122.2732, 37.77989 ], [ -122.2744, 37.77967 ], [ -122.27433, 37.77932 ], [ -122.27083, 37.77969 ], [ -122.26448, 37.77943 ], [ -122.2633, 37.77901 ], [ -122.26439, 37.78019 ], [ -122.26431, 37.7809 ], [ -122.26554, 37.78096 ], [ -122.26567, 37.78147 ], [ -122.26781, 37.78147 ], [ -122.27128, 37.78306 ], [ -122.27136, 37.78425 ], [ -122.27236, 37.78548 ], [ -122.27452, 37.78639 ], [ -122.27553, 37.78753 ] ], [ [ -122.28098, 37.76949 ], [ -122.28033, 37.7695 ], [ -122.28033, 37.76985 ], [ -122.28098, 37.76985 ], [ -122.28098, 37.76949 ] ], [ [ -122.2971, 37.78608 ], [ -122.29712, 37.7861 ], [ -122.29714, 37.78609 ], [ -122.2971, 37.78608 ] ], [ [ -122.28394, 37.78757 ], [ -122.28367, 37.78754 ], [ -122.28363, 37.7879 ], [ -122.28392, 37.78826 ], [ -122.28394, 37.78757 ] ], [ [ -122.26405, 37.76189 ], [ -122.26797, 37.76341 ], [ -122.26958, 37.76289 ], [ -122.27042, 37.76362 ], [ -122.2713, 37.76374 ], [ -122.27114, 37.76232 ], [ -122.26509, 37.76012 ], [ -122.26405, 37.76189 ] ], [ [ -122.25995, 37.76344 ], [ -122.25986, 37.76361 ], [ -122.26011, 37.76355 ], [ -122.25995, 37.76344 ] ], [ [ -122.25801, 37.7641 ], [ -122.25805, 37.76408 ], [ -122.25805, 37.76407 ], [ -122.25801, 37.7641 ] ], [ [ -122.257, 37.76407 ], [ -122.25653, 37.76392 ], [ -122.25708, 37.76413 ], [ -122.257, 37.76407 ] ], [ [ -122.25577, 37.76328 ], [ -122.25552, 37.76329 ], [ -122.25579, 37.76348 ], [ -122.25577, 37.76328 ] ], [ [ -122.26186, 37.76395 ], [ -122.262, 37.76434 ], [ -122.26218, 37.76388 ], [ -122.26186, 37.76395 ] ], [ [ -122.26355, 37.76497 ], [ -122.26372, 37.76429 ], [ -122.26363, 37.76427 ], [ -122.263, 37.76483 ], [ -122.26355, 37.76497 ] ], [ [ -122.26015, 37.76461 ], [ -122.2605, 37.76483 ], [ -122.2607, 37.76456 ], [ -122.26035, 37.76444 ], [ -122.26015, 37.76461 ] ], [ [ -122.27077, 37.76763 ], [ -122.2702, 37.76809 ], [ -122.27063, 37.76833 ], [ -122.27077, 37.76763 ] ], [ [ -122.26911, 37.76771 ], [ -122.26921, 37.76773 ], [ -122.2692, 37.76766 ], [ -122.26911, 37.76771 ] ], [ [ -122.26803, 37.76729 ], [ -122.26802, 37.76715 ], [ -122.26781, 37.7672 ], [ -122.26803, 37.76729 ] ], [ [ -122.26693, 37.76671 ], [ -122.26693, 37.76653 ], [ -122.26668, 37.76658 ], [ -122.26693, 37.76671 ] ], [ [ -122.26584, 37.76614 ], [ -122.26561, 37.76604 ], [ -122.26585, 37.76618 ], [ -122.26584, 37.76614 ] ], [ [ -122.26471, 37.76565 ], [ -122.26468, 37.76556 ], [ -122.26459, 37.7656 ], [ -122.26471, 37.76565 ] ], [ [ -122.23892, 37.75406 ], [ -122.23782, 37.75328 ], [ -122.2376, 37.75348 ], [ -122.2387, 37.75425 ], [ -122.23892, 37.75406 ] ], [ [ -122.24752, 37.75377 ], [ -122.24799, 37.7543 ], [ -122.2491, 37.75473 ], [ -122.24963, 37.75478 ], [ -122.24996, 37.75439 ], [ -122.24765, 37.75354 ], [ -122.24752, 37.75377 ] ], [ [ -122.24757, 37.77972 ], [ -122.24759, 37.78072 ], [ -122.24707, 37.78139 ], [ -122.24859, 37.78226 ], [ -122.24813, 37.783 ], [ -122.24899, 37.78248 ], [ -122.25064, 37.78341 ], [ -122.25181, 37.78215 ], [ -122.24757, 37.77972 ] ] ], [ [ [ -122.22902, 37.72904 ], [ -122.22924, 37.72764 ], [ -122.2285, 37.72759 ], [ -122.22843, 37.72727 ], [ -122.23596, 37.71971 ], [ -122.23632, 37.71965 ], [ -122.24525, 37.72565 ], [ -122.25021, 37.72979 ], [ -122.25739, 37.73653 ], [ -122.25807, 37.73786 ], [ -122.25994, 37.73949 ], [ -122.2613, 37.73999 ], [ -122.26131, 37.74331 ], [ -122.25268, 37.74809 ], [ -122.25095, 37.74841 ], [ -122.24727, 37.74815 ], [ -122.23968, 37.74828 ], [ -122.2377, 37.74798 ], [ -122.23686, 37.74821 ], [ -122.23635, 37.74752 ], [ -122.23511, 37.74688 ], [ -122.2269, 37.74533 ], [ -122.22652, 37.73375 ], [ -122.22902, 37.72904 ] ], [ [ -122.24694, 37.7369 ], [ -122.24717, 37.73618 ], [ -122.24829, 37.73643 ], [ -122.24844, 37.73617 ], [ -122.24756, 37.73553 ], [ -122.24795, 37.73489 ], [ -122.24841, 37.73498 ], [ -122.24848, 37.73417 ], [ -122.24722, 37.73335 ], [ -122.24684, 37.73354 ], [ -122.24571, 37.73312 ], [ -122.24456, 37.73498 ], [ -122.24567, 37.73552 ], [ -122.24507, 37.73667 ], [ -122.24694, 37.7369 ] ], [ [ -122.24073, 37.73595 ], [ -122.23976, 37.73588 ], [ -122.2389, 37.73718 ], [ -122.23972, 37.7373 ], [ -122.24073, 37.73595 ] ], [ [ -122.24081, 37.73403 ], [ -122.24147, 37.73321 ], [ -122.24105, 37.73296 ], [ -122.24116, 37.73262 ], [ -122.24024, 37.73203 ], [ -122.24139, 37.73055 ], [ -122.2396, 37.72949 ], [ -122.23887, 37.73026 ], [ -122.24006, 37.73087 ], [ -122.23951, 37.73173 ], [ -122.24017, 37.73218 ], [ -122.2392, 37.73344 ], [ -122.24081, 37.73403 ] ], [ [ -122.23539, 37.72926 ], [ -122.23658, 37.7299 ], [ -122.23757, 37.72879 ], [ -122.23539, 37.72926 ] ], [ [ -122.25116, 37.74748 ], [ -122.25372, 37.74576 ], [ -122.25623, 37.74513 ], [ -122.25726, 37.74399 ], [ -122.2587, 37.74355 ], [ -122.25759, 37.74289 ], [ -122.25744, 37.74352 ], [ -122.25465, 37.74435 ], [ -122.25281, 37.74207 ], [ -122.2517, 37.74244 ], [ -122.25041, 37.74229 ], [ -122.25041, 37.74303 ], [ -122.25007, 37.74322 ], [ -122.24789, 37.74323 ], [ -122.24631, 37.7427 ], [ -122.24614, 37.74384 ], [ -122.24521, 37.74416 ], [ -122.24419, 37.74516 ], [ -122.24425, 37.74711 ], [ -122.24858, 37.74713 ], [ -122.25116, 37.74748 ] ], [ [ -122.24903, 37.73718 ], [ -122.25117, 37.7378 ], [ -122.25697, 37.73782 ], [ -122.25643, 37.73676 ], [ -122.25566, 37.73696 ], [ -122.25309, 37.73483 ], [ -122.25186, 37.73557 ], [ -122.25228, 37.73678 ], [ -122.25191, 37.73702 ], [ -122.25064, 37.7367 ], [ -122.25021, 37.73562 ], [ -122.24976, 37.73545 ], [ -122.24977, 37.73494 ], [ -122.2493, 37.73487 ], [ -122.24903, 37.73718 ] ], [ [ -122.25707, 37.7382 ], [ -122.25707, 37.73821 ], [ -122.25708, 37.73822 ], [ -122.25707, 37.7382 ] ], [ [ -122.25477, 37.74281 ], [ -122.25485, 37.74304 ], [ -122.25566, 37.74284 ], [ -122.25545, 37.74266 ], [ -122.25477, 37.74281 ] ], [ [ -122.24458, 37.72596 ], [ -122.24275, 37.72524 ], [ -122.24013, 37.72537 ], [ -122.24048, 37.72774 ], [ -122.24104, 37.72865 ], [ -122.24579, 37.73064 ], [ -122.24627, 37.73006 ], [ -122.24816, 37.72916 ], [ -122.24458, 37.72596 ] ], [ [ -122.23905, 37.72363 ], [ -122.23716, 37.72242 ], [ -122.23616, 37.7227 ], [ -122.23447, 37.72449 ], [ -122.23483, 37.72733 ], [ -122.238, 37.727 ], [ -122.23841, 37.72531 ], [ -122.23953, 37.72511 ], [ -122.23905, 37.72363 ] ] ] ] } },
{ "type": "Feature", "properties": { "km": 1, "city": "Berkeley", "people": 35 }, "geometry": { "type": "Polygon", "coordinates": [ [ [ -122.30545, 37.86709 ], [ -122.305, 37.86581 ], [ -122.3033, 37.86453 ], [ -122.29999, 37.85292 ], [ -122.29978, 37.85086 ], [ -122.30072, 37.84723 ], [ -122.30973, 37.84535 ], [ -122.31106, 37.85376 ], [ -122.31401, 37.85338 ], [ -122.32236, 37.85338 ], [ -122.32625, 37.85433 ], [ -122.33143, 37.85702 ], [ -122.33263, 37.8592 ], [ -122.33292, 37.86269 ], [ -122.33164, 37.86648 ], [ -122.32948, 37.87137 ], [ -122.32623, 37.8744 ], [ -122.32785, 37.8775 ], [ -122.31254, 37.88159 ], [ -122.30968, 37.87794 ], [ -122.30776, 37.87807 ], [ -122.30475, 37.86939 ], [ -122.30462, 37.86853 ], [ -122.30545, 37.86709 ] ] ] } },
{ "type": "Feature", "properties": { "km": 1, "city": "Emeryville", "people": 168 }, "geometry": { "type": "Polygon", "coordinates": [ [ [ -122.3157, 37.83967 ], [ -122.31521, 37.84169 ], [ -122.31441, 37.84274 ], [ -122.31301, 37.84228 ], [ -122.31414, 37.83977 ], [ -122.31421, 37.83881 ], [ -122.31296, 37.83861 ], [ -122.3129, 37.83795 ], [ -122.31243, 37.83758 ], [ -122.30852, 37.83759 ], [ -122.30834, 37.83852 ], [ -122.30721, 37.83852 ], [ -122.30737, 37.83962 ], [ -122.30704, 37.83993 ], [ -122.30188, 37.83971 ], [ -122.30034, 37.83982 ], [ -122.29982, 37.8403 ], [ -122.29844, 37.84039 ], [ -122.2982, 37.84222 ], [ -122.29934, 37.84566 ], [ -122.30008, 37.84588 ], [ -122.3025, 37.84519 ], [ -122.30307, 37.84545 ], [ -122.30249, 37.84599 ], [ -122.30079, 37.84648 ], [ -122.30131, 37.84741 ], [ -122.30067, 37.84764 ], [ -122.29827, 37.84537 ], [ -122.29749, 37.84216 ], [ -122.2976, 37.83982 ], [ -122.29693, 37.83778 ], [ -122.29429, 37.83307 ], [ -122.29379, 37.83049 ], [ -122.29449, 37.83033 ], [ -122.29639, 37.83084 ], [ -122.29616, 37.83154 ], [ -122.2968, 37.83291 ], [ -122.29643, 37.83356 ], [ -122.29714, 37.83389 ], [ -122.29734, 37.83468 ], [ -122.29782, 37.83486 ], [ -122.29815, 37.83649 ], [ -122.29891, 37.83691 ], [ -122.30338, 37.83622 ], [ -122.30507, 37.83666 ], [ -122.31456, 37.83684 ], [ -122.31557, 37.83722 ], [ -122.3157, 37.83967 ] ] ] } },
{ "type": "Feature", "properties": { "km": 1, "city": "Fremont", "people": 92 }, "geometry": { "type": "MultiPolygon", "coordinates": [ [ [ [ -121.93245, 37.47735 ], [ -121.9243, 37.46138 ], [ -121.92343, 37.46105 ], [ -121.92174, 37.46139 ], [ -121.92022, 37.45858 ], [ -121.91875, 37.45753 ], [ -121.92289, 37.45509 ], [ -121.92328, 37.45524 ], [ -121.92459, 37.45977 ], [ -121.93301, 37.47694 ], [ -121.93245, 37.47735 ] ] ], [ [ [ -122.05578, 37.49035 ], [ -122.05473, 37.49096 ], [ -122.05161, 37.49167 ], [ -122.03943, 37.49203 ], [ -122.03505, 37.49007 ], [ -122.03291, 37.48293 ], [ -122.02801, 37.47753 ], [ -122.02542, 37.47711 ], [ -122.02555, 37.47798 ], [ -122.02428, 37.47997 ], [ -122.02408, 37.48137 ], [ -122.0234, 37.48278 ], [ -122.02405, 37.48261 ], [ -122.02426, 37.48291 ], [ -122.02265, 37.48391 ], [ -122.0207, 37.48442 ], [ -122.01834, 37.48409 ], [ -122.01635, 37.48322 ], [ -122.01507, 37.48204 ], [ -122.0143, 37.48165 ], [ -122.01403, 37.4818 ], [ -122.01224, 37.48575 ], [ -122.01004, 37.489 ], [ -122.01107, 37.49234 ], [ -122.01095, 37.49296 ], [ -122.01029, 37.4936 ], [ -122.00802, 37.49405 ], [ -122.00658, 37.49482 ], [ -122.00591, 37.49484 ], [ -122.00566, 37.49448 ], [ -122.00518, 37.49444 ], [ -122.00472, 37.4947 ], [ -122.00313, 37.49469 ], [ -121.9996, 37.49358 ], [ -121.99645, 37.49847 ], [ -121.99388, 37.49876 ], [ -121.99316, 37.49812 ], [ -121.99255, 37.49821 ], [ -121.99375, 37.49938 ], [ -121.99323, 37.49967 ], [ -121.97434, 37.48156 ], [ -121.97361, 37.48025 ], [ -121.9731, 37.47813 ], [ -121.97369, 37.46986 ], [ -121.97435, 37.46985 ], [ -121.97442, 37.47044 ], [ -121.97511, 37.47019 ], [ -121.9776, 37.47082 ], [ -121.97959, 37.47051 ], [ -121.98114, 37.46968 ], [ -121.98482, 37.46636 ], [ -121.98665, 37.46563 ], [ -121.98807, 37.46571 ], [ -121.99094, 37.46731 ], [ -121.99476, 37.4689 ], [ -121.99991, 37.46965 ], [ -122.00049, 37.46904 ], [ -122.00159, 37.4687 ], [ -122.00991, 37.46833 ], [ -122.01618, 37.46757 ], [ -122.02068, 37.4678 ], [ -122.02586, 37.46881 ], [ -122.03658, 37.46927 ], [ -122.04335, 37.46808 ], [ -122.04662, 37.46729 ], [ -122.04863, 37.46632 ], [ -122.05032, 37.46612 ], [ -122.0511, 37.46673 ], [ -122.05172, 37.46822 ], [ -122.0522, 37.47133 ], [ -122.05384, 37.47296 ], [ -122.05241, 37.47595 ], [ -122.05278, 37.47661 ], [ -122.05266, 37.47818 ], [ -122.05416, 37.48233 ], [ -122.05397, 37.48357 ], [ -122.05477, 37.4859 ], [ -122.055, 37.4876 ], [ -122.05431, 37.4879 ], [ -122.05564, 37.48955 ], [ -122.05578, 37.49035 ] ] ], [ [ [ -121.94722, 37.48827 ], [ -121.94528, 37.48914 ], [ -121.94429, 37.48917 ], [ -121.94016, 37.48609 ], [ -121.93999, 37.48555 ], [ -121.94028, 37.48502 ], [ -121.94231, 37.4841 ], [ -121.9415, 37.48198 ], [ -121.94367, 37.48122 ], [ -121.94547, 37.48107 ], [ -121.94722, 37.48827 ] ] ], [ [ [ -121.97273, 37.49713 ], [ -121.96709, 37.50196 ], [ -121.97148, 37.5056 ], [ -121.96749, 37.50746 ], [ -121.94843, 37.49276 ], [ -121.94845, 37.49055 ], [ -121.95084, 37.49017 ], [ -121.95103, 37.49178 ], [ -121.95177, 37.49279 ], [ -121.95339, 37.49212 ], [ -121.9549, 37.49365 ], [ -121.95537, 37.49324 ], [ -121.95582, 37.49121 ], [ -121.95566, 37.48941 ], [ -121.9578, 37.48909 ], [ -121.9596, 37.48924 ], [ -121.96324, 37.4905 ], [ -121.967, 37.49281 ], [ -121.97273, 37.49713 ] ] ], [ [ [ -122.11188, 37.51057 ], [ -122.10934, 37.51318 ], [ -122.10214, 37.52277 ], [ -122.09262, 37.53072 ], [ -122.08833, 37.53257 ], [ -122.07719, 37.53462 ], [ -122.07368, 37.5361 ], [ -122.06934, 37.53874 ], [ -122.06644, 37.53888 ], [ -122.0644, 37.53468 ], [ -122.06774, 37.52435 ], [ -122.06119, 37.52346 ], [ -122.06019, 37.52163 ], [ -122.06035, 37.52109 ], [ -122.07049, 37.51887 ], [ -122.06991, 37.51788 ], [ -122.07039, 37.51734 ], [ -122.07912, 37.51462 ], [ -122.08004, 37.51458 ], [ -122.08044, 37.51486 ], [ -122.08046, 37.51551 ], [ -122.0798, 37.51634 ], [ -122.08079, 37.51638 ], [ -122.082, 37.51576 ], [ -122.08269, 37.51429 ], [ -122.0846, 37.51421 ], [ -122.08788, 37.51297 ], [ -122.08907, 37.51305 ], [ -122.08978, 37.51357 ], [ -122.0887, 37.51685 ], [ -122.09249, 37.51834 ], [ -122.09349, 37.52082 ], [ -122.09832, 37.52237 ], [ -122.10122, 37.52121 ], [ -122.101, 37.51814 ], [ -122.11058, 37.50907 ], [ -122.11113, 37.50918 ], [ -122.11188, 37.51057 ] ] ], [ [ [ -122.06803, 37.56535 ], [ -122.05787, 37.57716 ], [ -122.05476, 37.57902 ], [ -122.05286, 37.58067 ], [ -122.05764, 37.58313 ], [ -122.05687, 37.58387 ], [ -122.05474, 37.58288 ], [ -122.05297, 37.58573 ], [ -122.05528, 37.58902 ], [ -122.05625, 37.58956 ], [ -122.05596, 37.59011 ], [ -122.05501, 37.59055 ], [ -122.05007, 37.58354 ], [ -122.05217, 37.58073 ], [ -122.0504, 37.5796 ], [ -122.05071, 37.57926 ], [ -122.0511, 37.5794 ], [ -122.05341, 37.57638 ], [ -122.05542, 37.57727 ], [ -122.05619, 37.57677 ], [ -122.05364, 37.57547 ], [ -122.05447, 37.57424 ], [ -122.05566, 37.5746 ], [ -122.05551, 37.57518 ], [ -122.0571, 37.57579 ], [ -122.05872, 37.57402 ], [ -122.05859, 37.57326 ], [ -122.05927, 37.5729 ], [ -122.05974, 37.57297 ], [ -122.0591, 37.56925 ], [ -122.06288, 37.56926 ], [ -122.06653, 37.56463 ], [ -122.06803, 37.56535 ] ], [ [ -122.06038, 37.57192 ], [ -122.06126, 37.57084 ], [ -122.06164, 37.57023 ], [ -122.06003, 37.57023 ], [ -122.06038, 37.57192 ] ], [ [ -122.05281, 37.58378 ], [ -122.05195, 37.58357 ], [ -122.0527, 37.58394 ], [ -122.05281, 37.58378 ] ], [ [ -122.0535, 37.58202 ], [ -122.05287, 37.58251 ], [ -122.05353, 37.58283 ], [ -122.05395, 37.58226 ], [ -122.0535, 37.58202 ] ] ] ] } },
{ "type": "Feature", "properties": { "km": 1, "city": "Hayward", "people": 1365 }, "geometry": { "type": "MultiPolygon", "coordinates": [ [ [ [ -122.15624, 37.61663 ], [ -122.15575, 37.61738 ], [ -122.15482, 37.61797 ], [ -122.151, 37.61922 ], [ -122.15177, 37.62574 ], [ -122.15159, 37.62625 ], [ -122.15078, 37.62666 ], [ -122.15159, 37.62767 ], [ -122.15144, 37.6283 ], [ -122.15182, 37.6293 ], [ -122.15338, 37.62883 ], [ -122.154, 37.62917 ], [ -122.15335, 37.63014 ], [ -122.15309, 37.6341 ], [ -122.15394, 37.64023 ], [ -122.1545, 37.64127 ], [ -122.15414, 37.64198 ], [ -122.1527, 37.64206 ], [ -122.15279, 37.64555 ], [ -122.14795, 37.64663 ], [ -122.14763, 37.64572 ], [ -122.14354, 37.64574 ], [ -122.14318, 37.64548 ], [ -122.13756, 37.64561 ], [ -122.13704, 37.64282 ], [ -122.13329, 37.63934 ], [ -122.13281, 37.6382 ], [ -122.12482, 37.63857 ], [ -122.12446, 37.636 ], [ -122.11948, 37.63586 ], [ -122.11962, 37.63311 ], [ -122.12886, 37.63308 ], [ -122.12874, 37.63067 ], [ -122.12516, 37.62793 ], [ -122.12459, 37.62713 ], [ -122.12113, 37.62824 ], [ -122.12075, 37.62808 ], [ -122.12201, 37.62535 ], [ -122.12624, 37.62554 ], [ -122.12632, 37.62386 ], [ -122.12252, 37.62369 ], [ -122.12234, 37.6231 ], [ -122.12075, 37.62362 ], [ -122.11699, 37.62332 ], [ -122.11025, 37.62119 ], [ -122.10877, 37.62111 ], [ -122.10251, 37.61925 ], [ -122.10065, 37.61997 ], [ -122.08715, 37.60818 ], [ -122.0889, 37.60633 ], [ -122.09757, 37.60161 ], [ -122.09791, 37.60182 ], [ -122.09796, 37.60537 ], [ -122.1001, 37.60536 ], [ -122.10135, 37.60481 ], [ -122.10223, 37.60021 ], [ -122.104, 37.59815 ], [ -122.10667, 37.59813 ], [ -122.1098, 37.59856 ], [ -122.11005, 37.59777 ], [ -122.11058, 37.59757 ], [ -122.11246, 37.59811 ], [ -122.11279, 37.59864 ], [ -122.11263, 37.59989 ], [ -122.11209, 37.60013 ], [ -122.11131, 37.60001 ], [ -122.11089, 37.60057 ], [ -122.10965, 37.60121 ], [ -122.10932, 37.60184 ], [ -122.11098, 37.60279 ], [ -122.11251, 37.60434 ], [ -122.11342, 37.60453 ], [ -122.11474, 37.60433 ], [ -122.11509, 37.60415 ], [ -122.11562, 37.60244 ], [ -122.11707, 37.60217 ], [ -122.11822, 37.60245 ], [ -122.1204, 37.60097 ], [ -122.12158, 37.59959 ], [ -122.12207, 37.5984 ], [ -122.12095, 37.5964 ], [ -122.12314, 37.59275 ], [ -122.12504, 37.59219 ], [ -122.12644, 37.59226 ], [ -122.12741, 37.5939 ], [ -122.12712, 37.5962 ], [ -122.12748, 37.59672 ], [ -122.12827, 37.59686 ], [ -122.12958, 37.59659 ], [ -122.13045, 37.59584 ], [ -122.13027, 37.59351 ], [ -122.13063, 37.5925 ], [ -122.13127, 37.59205 ], [ -122.1324, 37.59205 ], [ -122.13407, 37.5952 ], [ -122.13367, 37.59685 ], [ -122.13454, 37.59823 ], [ -122.13523, 37.5983 ], [ -122.13701, 37.59753 ], [ -122.13872, 37.59729 ], [ -122.14024, 37.59794 ], [ -122.14146, 37.59974 ], [ -122.14157, 37.6022 ], [ -122.14121, 37.60269 ], [ -122.13973, 37.6035 ], [ -122.13575, 37.60482 ], [ -122.13481, 37.60581 ], [ -122.13478, 37.60625 ], [ -122.13581, 37.60609 ], [ -122.13715, 37.60631 ], [ -122.1402, 37.60806 ], [ -122.14101, 37.6083 ], [ -122.14154, 37.60813 ], [ -122.14241, 37.60562 ], [ -122.14535, 37.60269 ], [ -122.14614, 37.60246 ], [ -122.1465, 37.60289 ], [ -122.1464, 37.60416 ], [ -122.14766, 37.6051 ], [ -122.14747, 37.60598 ], [ -122.1478, 37.60655 ], [ -122.14728, 37.60681 ], [ -122.14806, 37.60745 ], [ -122.14755, 37.60825 ], [ -122.14865, 37.61034 ], [ -122.1486, 37.61279 ], [ -122.14956, 37.61548 ], [ -122.15042, 37.61644 ], [ -122.15111, 37.61657 ], [ -122.15158, 37.61705 ], [ -122.15559, 37.61616 ], [ -122.15624, 37.61663 ] ], [ [ -122.15174, 37.618 ], [ -122.15145, 37.61811 ], [ -122.15252, 37.61776 ], [ -122.15174, 37.618 ] ] ], [ [ [ -122.13948, 37.6585 ], [ -122.13275, 37.66171 ], [ -122.13132, 37.66375 ], [ -122.12925, 37.66351 ], [ -122.12273, 37.66631 ], [ -122.12214, 37.66627 ], [ -122.11984, 37.66508 ], [ -122.11991, 37.66407 ], [ -122.119, 37.66227 ], [ -122.12386, 37.66196 ], [ -122.1235, 37.65657 ], [ -122.12016, 37.65654 ], [ -122.12012, 37.65302 ], [ -122.12461, 37.65297 ], [ -122.12494, 37.65606 ], [ -122.12555, 37.65695 ], [ -122.13149, 37.65952 ], [ -122.1346, 37.65789 ], [ -122.1335, 37.65668 ], [ -122.13355, 37.65465 ], [ -122.131, 37.65434 ], [ -122.13064, 37.6539 ], [ -122.13061, 37.65293 ], [ -122.13411, 37.6527 ], [ -122.13948, 37.6585 ] ] ], [ [ [ -122.07387, 37.61864 ], [ -122.07319, 37.62103 ], [ -122.07247, 37.6212 ], [ -122.07216, 37.62085 ], [ -122.07301, 37.61847 ], [ -122.07387, 37.61864 ] ] ] ] } },
{ "type": "Feature", "properties": { "km": 1, "city": "Newark", "people": 74 }, "geometry": { "type": "Polygon", "coordinates": [ [ [ -122.06645, 37.51886 ], [ -122.05077, 37.52401 ], [ -122.0497, 37.52196 ], [ -122.05312, 37.52087 ], [ -122.05034, 37.51549 ], [ -122.04699, 37.51663 ], [ -122.04618, 37.51546 ], [ -122.0339, 37.51965 ], [ -122.03462, 37.52145 ], [ -122.03162, 37.52227 ], [ -122.02967, 37.52402 ], [ -122.01226, 37.51596 ], [ -122.01106, 37.51868 ], [ -122.00941, 37.51834 ], [ -122.00938, 37.51755 ], [ -122.00517, 37.51136 ], [ -122.004, 37.51219 ], [ -122.0022, 37.51797 ], [ -121.99963, 37.5166 ], [ -122.00038, 37.51537 ], [ -122.00177, 37.5157 ], [ -122.00258, 37.51299 ], [ -121.99729, 37.51171 ], [ -121.99603, 37.51165 ], [ -121.99707, 37.51195 ], [ -121.99679, 37.51263 ], [ -121.99501, 37.51239 ], [ -121.99482, 37.51215 ], [ -121.99568, 37.50945 ], [ -121.99958, 37.51033 ], [ -122.0005, 37.50812 ], [ -121.99658, 37.50705 ], [ -121.99758, 37.50419 ], [ -121.99814, 37.50369 ], [ -122.00807, 37.51307 ], [ -122.01195, 37.51529 ], [ -122.01456, 37.50969 ], [ -122.01218, 37.50699 ], [ -122.01166, 37.504 ], [ -122.01232, 37.50338 ], [ -122.01349, 37.50322 ], [ -122.01463, 37.50228 ], [ -122.01518, 37.50133 ], [ -122.01456, 37.50023 ], [ -122.01296, 37.50023 ], [ -122.01227, 37.49983 ], [ -122.01277, 37.4981 ], [ -122.01225, 37.49704 ], [ -122.01134, 37.49693 ], [ -122.00968, 37.49784 ], [ -122.00812, 37.49772 ], [ -122.00721, 37.49717 ], [ -122.0061, 37.49589 ], [ -122.00578, 37.49457 ], [ -122.00783, 37.49362 ], [ -122.00992, 37.49326 ], [ -122.01043, 37.49277 ], [ -122.00947, 37.48894 ], [ -122.01172, 37.48558 ], [ -122.0136, 37.48149 ], [ -122.01445, 37.48119 ], [ -122.01806, 37.48367 ], [ -122.01989, 37.48437 ], [ -122.02302, 37.48448 ], [ -122.0246, 37.48313 ], [ -122.025, 37.48236 ], [ -122.0256, 37.47888 ], [ -122.02713, 37.47839 ], [ -122.02769, 37.47854 ], [ -122.03053, 37.4826 ], [ -122.03046, 37.48729 ], [ -122.03023, 37.48787 ], [ -122.02956, 37.48815 ], [ -122.03052, 37.48922 ], [ -122.03177, 37.48899 ], [ -122.0324, 37.48917 ], [ -122.03546, 37.49219 ], [ -122.0367, 37.4924 ], [ -122.0384, 37.49347 ], [ -122.04123, 37.49332 ], [ -122.05093, 37.49628 ], [ -122.05112, 37.49745 ], [ -122.0577, 37.49898 ], [ -122.05782, 37.5 ], [ -122.05641, 37.50177 ], [ -122.05533, 37.50413 ], [ -122.05432, 37.50843 ], [ -122.05488, 37.50977 ], [ -122.05536, 37.50972 ], [ -122.0556, 37.5102 ], [ -122.0553, 37.51054 ], [ -122.05601, 37.51402 ], [ -122.06048, 37.51457 ], [ -122.06083, 37.51389 ], [ -122.0642, 37.51275 ], [ -122.06467, 37.51282 ], [ -122.06766, 37.51823 ], [ -122.06645, 37.51886 ] ] ] } },
{ "type": "Feature", "properties": { "km": 1, "city": "Oakland", "people": 612 }, "geometry": { "type": "MultiPolygon", "coordinates": [ [ [ [ -122.26646, 37.78893 ], [ -122.26474, 37.79036 ], [ -122.26301, 37.79104 ], [ -122.26145, 37.79086 ], [ -122.25921, 37.79002 ], [ -122.25825, 37.78981 ], [ -122.25556, 37.78931 ], [ -122.2554, 37.78904 ], [ -122.25581, 37.78856 ], [ -122.25543, 37.788 ], [ -122.25306, 37.78884 ], [ -122.25865, 37.78994 ], [ -122.26078, 37.79084 ], [ -122.26248, 37.79218 ], [ -122.26194, 37.79353 ], [ -122.26143, 37.79394 ], [ -122.25718, 37.79269 ], [ -122.25542, 37.79141 ], [ -122.24703, 37.78836 ], [ -122.24481, 37.78726 ], [ -122.24436, 37.78584 ], [ -122.24473, 37.78573 ], [ -122.246, 37.7864 ], [ -122.24689, 37.7868 ], [ -122.24267, 37.7845 ], [ -122.24286, 37.78367 ], [ -122.24229, 37.7789 ], [ -122.24076, 37.77732 ], [ -122.24048, 37.776 ], [ -122.23982, 37.77545 ], [ -122.2394, 37.77426 ], [ -122.23681, 37.77306 ], [ -122.23525, 37.77299 ], [ -122.23081, 37.77101 ], [ -122.22996, 37.77221 ], [ -122.22875, 37.7718 ], [ -122.22844, 37.77146 ], [ -122.22932, 37.7696 ], [ -122.22715, 37.76843 ], [ -122.22168, 37.76834 ], [ -122.22203, 37.76926 ], [ -122.22122, 37.76954 ], [ -122.22038, 37.76843 ], [ -122.21972, 37.76861 ], [ -122.21863, 37.76717 ], [ -122.21593, 37.76485 ], [ -122.21238, 37.76297 ], [ -122.20647, 37.75652 ], [ -122.20666, 37.7561 ], [ -122.2083, 37.75546 ], [ -122.20746, 37.75481 ], [ -122.20551, 37.75541 ], [ -122.20521, 37.75487 ], [ -122.20822, 37.75384 ], [ -122.21252, 37.75874 ], [ -122.21182, 37.75942 ], [ -122.21301, 37.76145 ], [ -122.214, 37.7617 ], [ -122.21742, 37.7596 ], [ -122.21678, 37.75791 ], [ -122.21568, 37.75738 ], [ -122.21654, 37.75637 ], [ -122.2157, 37.75625 ], [ -122.21519, 37.75548 ], [ -122.21429, 37.75535 ], [ -122.21409, 37.75472 ], [ -122.21339, 37.75498 ], [ -122.21231, 37.75485 ], [ -122.21163, 37.75351 ], [ -122.21098, 37.75308 ], [ -122.21092, 37.75174 ], [ -122.20829, 37.75319 ], [ -122.20777, 37.75298 ], [ -122.20784, 37.75263 ], [ -122.21174, 37.75039 ], [ -122.21166, 37.7497 ], [ -122.21217, 37.74936 ], [ -122.20721, 37.74344 ], [ -122.20935, 37.74214 ], [ -122.21086, 37.74198 ], [ -122.21135, 37.74251 ], [ -122.21155, 37.74371 ], [ -122.21392, 37.74575 ], [ -122.21716, 37.74776 ], [ -122.21431, 37.74276 ], [ -122.21142, 37.74098 ], [ -122.21063, 37.73997 ], [ -122.21086, 37.73736 ], [ -122.21011, 37.73657 ], [ -122.20991, 37.73601 ], [ -122.21019, 37.73574 ], [ -122.20875, 37.73264 ], [ -122.20748, 37.73156 ], [ -122.20768, 37.73118 ], [ -122.20816, 37.73119 ], [ -122.20831, 37.73032 ], [ -122.2089, 37.73035 ], [ -122.21078, 37.73157 ], [ -122.21391, 37.73841 ], [ -122.21544, 37.74088 ], [ -122.21956, 37.74449 ], [ -122.22129, 37.74556 ], [ -122.22234, 37.74584 ], [ -122.22264, 37.74548 ], [ -122.2236, 37.74542 ], [ -122.22377, 37.74754 ], [ -122.22677, 37.7478 ], [ -122.22655, 37.7483 ], [ -122.22366, 37.74826 ], [ -122.22375, 37.75477 ], [ -122.21805, 37.75996 ], [ -122.21957, 37.75976 ], [ -122.22116, 37.75854 ], [ -122.22238, 37.75857 ], [ -122.22336, 37.75988 ], [ -122.22332, 37.7616 ], [ -122.22129, 37.76323 ], [ -122.22375, 37.76525 ], [ -122.22505, 37.76437 ], [ -122.22482, 37.7652 ], [ -122.22734, 37.76781 ], [ -122.23827, 37.77287 ], [ -122.24132, 37.77495 ], [ -122.24118, 37.77551 ], [ -122.24171, 37.77575 ], [ -122.24398, 37.77878 ], [ -122.24377, 37.77905 ], [ -122.24411, 37.77967 ], [ -122.24352, 37.78018 ], [ -122.24421, 37.7802 ], [ -122.24434, 37.78072 ], [ -122.24351, 37.78096 ], [ -122.24409, 37.78121 ], [ -122.24421, 37.78232 ], [ -122.24353, 37.78274 ], [ -122.24364, 37.78352 ], [ -122.24464, 37.78351 ], [ -122.24545, 37.78458 ], [ -122.24761, 37.78618 ], [ -122.24814, 37.78593 ], [ -122.24922, 37.78664 ], [ -122.25258, 37.78758 ], [ -122.25468, 37.78726 ], [ -122.25481, 37.78689 ], [ -122.25841, 37.78555 ], [ -122.26162, 37.78689 ], [ -122.25904, 37.7892 ], [ -122.26158, 37.78753 ], [ -122.26265, 37.7874 ], [ -122.26339, 37.78781 ], [ -122.26365, 37.78949 ], [ -122.26532, 37.78833 ], [ -122.26576, 37.78872 ], [ -122.26461, 37.78959 ], [ -122.26601, 37.78861 ], [ -122.26646, 37.78893 ] ], [ [ -122.21925, 37.76641 ], [ -122.21906, 37.76588 ], [ -122.21841, 37.76537 ], [ -122.21925, 37.76641 ] ] ], [ [ [ -122.30779, 37.79604 ], [ -122.29323, 37.79876 ], [ -122.29006, 37.79906 ], [ -122.28746, 37.8003 ], [ -122.28841, 37.80065 ], [ -122.2882, 37.8011 ], [ -122.28485, 37.80031 ], [ -122.28529, 37.79861 ], [ -122.28136, 37.79715 ], [ -122.28199, 37.79612 ], [ -122.28365, 37.79459 ], [ -122.288, 37.79477 ], [ -122.28812, 37.79559 ], [ -122.28837, 37.7952 ], [ -122.28885, 37.79532 ], [ -122.28876, 37.796 ], [ -122.29005, 37.79484 ], [ -122.29132, 37.79463 ], [ -122.29179, 37.79483 ], [ -122.29259, 37.79427 ], [ -122.29353, 37.79431 ], [ -122.29376, 37.79385 ], [ -122.29602, 37.79321 ], [ -122.30557, 37.7935 ], [ -122.31349, 37.79527 ], [ -122.31326, 37.79553 ], [ -122.30779, 37.79604 ] ] ], [ [ [ -122.25416, 37.79945 ], [ -122.25533, 37.79841 ], [ -122.25628, 37.79903 ], [ -122.25805, 37.79808 ], [ -122.25982, 37.79823 ], [ -122.25968, 37.79898 ], [ -122.25925, 37.79898 ], [ -122.25783, 37.80015 ], [ -122.2567, 37.80047 ], [ -122.25546, 37.80044 ], [ -122.25494, 37.80075 ], [ -122.25489, 37.80221 ], [ -122.25369, 37.80404 ], [ -122.25121, 37.80507 ], [ -122.24987, 37.80824 ], [ -122.25123, 37.80792 ], [ -122.25288, 37.80689 ], [ -122.25549, 37.80686 ], [ -122.25608, 37.80627 ], [ -122.25624, 37.80528 ], [ -122.25876, 37.80445 ], [ -122.26035, 37.80599 ], [ -122.26058, 37.80663 ], [ -122.26134, 37.80672 ], [ -122.26172, 37.80716 ], [ -122.26169, 37.81027 ], [ -122.26255, 37.80732 ], [ -122.26154, 37.80541 ], [ -122.26043, 37.80461 ], [ -122.26059, 37.80436 ], [ -122.26133, 37.80432 ], [ -122.26278, 37.80547 ], [ -122.2632, 37.80522 ], [ -122.26572, 37.80627 ], [ -122.26463, 37.80804 ], [ -122.2636, 37.80781 ], [ -122.26315, 37.80916 ], [ -122.26492, 37.80954 ], [ -122.2646, 37.81066 ], [ -122.26295, 37.8104 ], [ -122.26282, 37.81078 ], [ -122.26452, 37.81114 ], [ -122.26435, 37.812 ], [ -122.26226, 37.81172 ], [ -122.26151, 37.813 ], [ -122.26083, 37.81251 ], [ -122.26043, 37.81166 ], [ -122.26068, 37.81079 ], [ -122.25936, 37.80999 ], [ -122.25859, 37.80846 ], [ -122.25862, 37.8076 ], [ -122.25924, 37.80643 ], [ -122.25868, 37.80566 ], [ -122.25766, 37.80589 ], [ -122.25614, 37.80766 ], [ -122.25333, 37.80797 ], [ -122.25288, 37.80886 ], [ -122.25112, 37.80879 ], [ -122.24995, 37.80927 ], [ -122.24891, 37.80852 ], [ -122.25024, 37.80536 ], [ -122.24916, 37.80501 ], [ -122.24905, 37.80474 ], [ -122.25078, 37.80395 ], [ -122.2512, 37.80414 ], [ -122.25309, 37.80366 ], [ -122.25354, 37.80277 ], [ -122.25281, 37.8022 ], [ -122.25215, 37.80093 ], [ -122.25327, 37.80069 ], [ -122.25384, 37.80024 ], [ -122.25434, 37.80032 ], [ -122.25475, 37.79998 ], [ -122.25416, 37.79945 ] ] ], [ [ [ -122.33415, 37.81023 ], [ -122.33308, 37.81126 ], [ -122.32779, 37.81073 ], [ -122.32754, 37.81051 ], [ -122.32636, 37.81066 ], [ -122.32311, 37.81035 ], [ -122.31349, 37.81942 ], [ -122.30892, 37.81906 ], [ -122.30868, 37.82091 ], [ -122.3125, 37.822 ], [ -122.31543, 37.82155 ], [ -122.31879, 37.81849 ], [ -122.31975, 37.81903 ], [ -122.31966, 37.8194 ], [ -122.32128, 37.82076 ], [ -122.32433, 37.82082 ], [ -122.33059, 37.82014 ], [ -122.33087, 37.82056 ], [ -122.33011, 37.8218 ], [ -122.3243, 37.82225 ], [ -122.30541, 37.8253 ], [ -122.30164, 37.82386 ], [ -122.30011, 37.82286 ], [ -122.30167, 37.82125 ], [ -122.30292, 37.8228 ], [ -122.30461, 37.82371 ], [ -122.30702, 37.82315 ], [ -122.30533, 37.82271 ], [ -122.3061, 37.82191 ], [ -122.307, 37.82154 ], [ -122.30657, 37.82082 ], [ -122.30694, 37.81879 ], [ -122.30501, 37.81861 ], [ -122.30482, 37.81833 ], [ -122.31494, 37.80866 ], [ -122.32042, 37.80909 ], [ -122.32348, 37.80782 ], [ -122.32783, 37.80743 ], [ -122.32868, 37.80814 ], [ -122.32896, 37.80965 ], [ -122.33415, 37.81023 ] ], [ [ -122.31082, 37.82266 ], [ -122.31067, 37.82269 ], [ -122.31089, 37.82266 ], [ -122.31082, 37.82266 ] ], [ [ -122.31682, 37.82197 ], [ -122.32037, 37.82144 ], [ -122.31919, 37.81994 ], [ -122.31682, 37.82197 ] ] ], [ [ [ -122.19292, 37.73007 ], [ -122.18854, 37.73179 ], [ -122.1842, 37.72696 ], [ -122.18212, 37.7301 ], [ -122.18072, 37.7297 ], [ -122.17882, 37.73324 ], [ -122.17836, 37.73324 ], [ -122.17788, 37.7324 ], [ -122.17996, 37.72566 ], [ -122.18113, 37.72523 ], [ -122.18315, 37.72531 ], [ -122.18401, 37.72627 ], [ -122.18456, 37.72592 ], [ -122.18701, 37.72762 ], [ -122.19118, 37.72893 ], [ -122.1923, 37.72943 ], [ -122.19292, 37.73007 ] ], [ [ -122.18843, 37.73 ], [ -122.18822, 37.72902 ], [ -122.18723, 37.7286 ], [ -122.18843, 37.73 ] ], [ [ -122.19101, 37.72995 ], [ -122.19013, 37.72959 ], [ -122.19003, 37.72957 ], [ -122.19017, 37.73 ], [ -122.19101, 37.72995 ] ] ], [ [ [ -122.20774, 37.72943 ], [ -122.20629, 37.73204 ], [ -122.20483, 37.73284 ], [ -122.20307, 37.73106 ], [ -122.20026, 37.72996 ], [ -122.20004, 37.72955 ], [ -122.20156, 37.72638 ], [ -122.20774, 37.72943 ] ] ], [ [ [ -122.19049, 37.74594 ], [ -122.19174, 37.74171 ], [ -122.19211, 37.74159 ], [ -122.19284, 37.74187 ], [ -122.19574, 37.74432 ], [ -122.19854, 37.74478 ], [ -122.20119, 37.74676 ], [ -122.19751, 37.74943 ], [ -122.19697, 37.75094 ], [ -122.19634, 37.75101 ], [ -122.19049, 37.74594 ] ] ], [ [ [ -122.20066, 37.75697 ], [ -122.19727, 37.75395 ], [ -122.1975, 37.75339 ], [ -122.20012, 37.7556 ], [ -122.20106, 37.75691 ], [ -122.20066, 37.75697 ] ] ] ] } },
{ "type": "Feature", "properties": { "km": 1, "city": "San Leandro", "people": 2924 }, "geometry": { "type": "MultiPolygon", "coordinates": [ [ [ [ -122.17311, 37.69191 ], [ -122.17266, 37.691 ], [ -122.1729, 37.69075 ], [ -122.18449, 37.69079 ], [ -122.18582, 37.69005 ], [ -122.18699, 37.68986 ], [ -122.18847, 37.69045 ], [ -122.18918, 37.69104 ], [ -122.19031, 37.69304 ], [ -122.19163, 37.69364 ], [ -122.19199, 37.6943 ], [ -122.19044, 37.69504 ], [ -122.18939, 37.69492 ], [ -122.18934, 37.694 ], [ -122.18811, 37.69176 ], [ -122.18672, 37.69105 ], [ -122.18582, 37.69153 ], [ -122.18783, 37.69373 ], [ -122.18815, 37.69448 ], [ -122.18783, 37.69522 ], [ -122.1871, 37.69564 ], [ -122.18886, 37.69506 ], [ -122.18973, 37.69576 ], [ -122.19145, 37.69514 ], [ -122.19253, 37.69547 ], [ -122.19217, 37.69604 ], [ -122.18933, 37.69679 ], [ -122.18966, 37.69815 ], [ -122.19264, 37.69789 ], [ -122.19318, 37.69756 ], [ -122.19316, 37.6963 ], [ -122.1927, 37.6954 ], [ -122.1929, 37.69464 ], [ -122.19347, 37.69462 ], [ -122.19453, 37.69563 ], [ -122.1944, 37.69872 ], [ -122.19136, 37.69917 ], [ -122.19133, 37.70048 ], [ -122.19009, 37.70094 ], [ -122.19085, 37.70454 ], [ -122.19103, 37.70409 ], [ -122.19243, 37.70346 ], [ -122.19522, 37.70283 ], [ -122.1974, 37.70298 ], [ -122.19983, 37.70388 ], [ -122.20125, 37.705 ], [ -122.20227, 37.70655 ], [ -122.20253, 37.70847 ], [ -122.20187, 37.71073 ], [ -122.20235, 37.71168 ], [ -122.2034, 37.71157 ], [ -122.20358, 37.71212 ], [ -122.19644, 37.7138 ], [ -122.19636, 37.71424 ], [ -122.19815, 37.71406 ], [ -122.19716, 37.71582 ], [ -122.19658, 37.71515 ], [ -122.19345, 37.71458 ], [ -122.1869, 37.71639 ], [ -122.18399, 37.71095 ], [ -122.18889, 37.70873 ], [ -122.18375, 37.70096 ], [ -122.17865, 37.70289 ], [ -122.17649, 37.69958 ], [ -122.17737, 37.69901 ], [ -122.17619, 37.69917 ], [ -122.17337, 37.69493 ], [ -122.17311, 37.69191 ] ] ], [ [ [ -122.18584, 37.72308 ], [ -122.18505, 37.72568 ], [ -122.18429, 37.72631 ], [ -122.18311, 37.72573 ], [ -122.17951, 37.72186 ], [ -122.18523, 37.72087 ], [ -122.18584, 37.72308 ] ], [ [ -122.18451, 37.72317 ], [ -122.18351, 37.72196 ], [ -122.18151, 37.72228 ], [ -122.18395, 37.725 ], [ -122.18451, 37.72317 ] ] ], [ [ [ -122.16308, 37.6706 ], [ -122.15514, 37.67522 ], [ -122.15865, 37.67897 ], [ -122.15846, 37.67938 ], [ -122.15573, 37.68001 ], [ -122.15535, 37.67711 ], [ -122.15439, 37.67736 ], [ -122.15379, 37.67656 ], [ -122.15129, 37.67745 ], [ -122.15096, 37.67662 ], [ -122.15451, 37.675 ], [ -122.15425, 37.67453 ], [ -122.15526, 37.6739 ], [ -122.15479, 37.67108 ], [ -122.15651, 37.6699 ], [ -122.16176, 37.66753 ], [ -122.16308, 37.6706 ] ], [ [ -122.15674, 37.67893 ], [ -122.15721, 37.6788 ], [ -122.15673, 37.67829 ], [ -122.15674, 37.67893 ] ] ], [ [ [ -122.16603, 37.69861 ], [ -122.16586, 37.70062 ], [ -122.16512, 37.70047 ], [ -122.16347, 37.69785 ], [ -122.16371, 37.69731 ], [ -122.16231, 37.69504 ], [ -122.16207, 37.69294 ], [ -122.1624, 37.69244 ], [ -122.16335, 37.69243 ], [ -122.16375, 37.69497 ], [ -122.16603, 37.69861 ] ] ] ] } },
{ "type": "Feature", "properties": { "km": 1, "city": "San Lorenzo", "people": 56 }, "geometry": { "type": "Polygon", "coordinates": [ [ [ -122.14583, 37.66808 ], [ -122.14489, 37.66682 ], [ -122.13908, 37.66942 ], [ -122.13878, 37.66826 ], [ -122.14091, 37.66739 ], [ -122.14063, 37.66296 ], [ -122.14402, 37.66328 ], [ -122.14599, 37.66537 ], [ -122.14922, 37.66384 ], [ -122.1495, 37.66332 ], [ -122.15079, 37.66257 ], [ -122.15254, 37.66373 ], [ -122.16072, 37.66362 ], [ -122.1616, 37.66537 ], [ -122.16139, 37.66571 ], [ -122.16199, 37.66778 ], [ -122.15263, 37.67252 ], [ -122.15495, 37.67503 ], [ -122.15491, 37.67533 ], [ -122.14721, 37.67878 ], [ -122.14445, 37.68053 ], [ -122.13893, 37.6825 ], [ -122.13725, 37.67927 ], [ -122.14385, 37.67656 ], [ -122.14437, 37.67716 ], [ -122.14365, 37.67761 ], [ -122.14446, 37.67904 ], [ -122.14997, 37.67632 ], [ -122.14873, 37.67461 ], [ -122.15027, 37.67377 ], [ -122.14979, 37.67298 ], [ -122.15087, 37.6724 ], [ -122.1481, 37.67184 ], [ -122.14831, 37.67088 ], [ -122.14959, 37.67096 ], [ -122.14657, 37.66783 ], [ -122.14583, 37.66808 ] ], [ [ -122.1523, 37.66747 ], [ -122.15124, 37.66716 ], [ -122.15038, 37.66752 ], [ -122.15156, 37.66878 ], [ -122.15281, 37.66804 ], [ -122.1523, 37.66747 ] ], [ [ -122.1522, 37.67364 ], [ -122.15176, 37.67357 ], [ -122.15312, 37.67502 ], [ -122.15338, 37.6749 ], [ -122.1522, 37.67364 ] ] ] } },
{ "type": "Feature", "properties": { "km": 1, "city": "Union City", "people": 7623 }, "geometry": { "type": "MultiPolygon", "coordinates": [ [ [ [ -122.08336, 37.57458 ], [ -122.0833, 37.57573 ], [ -122.08896, 37.58844 ], [ -122.0917, 37.58889 ], [ -122.09179, 37.59139 ], [ -122.09229, 37.59161 ], [ -122.09231, 37.59259 ], [ -122.09184, 37.59309 ], [ -122.09214, 37.59359 ], [ -122.09122, 37.59451 ], [ -122.09155, 37.60003 ], [ -122.08748, 37.60841 ], [ -122.08423, 37.60571 ], [ -122.08684, 37.60393 ], [ -122.08647, 37.59856 ], [ -122.08158, 37.59876 ], [ -122.0807, 37.59651 ], [ -122.08179, 37.59613 ], [ -122.08277, 37.59651 ], [ -122.08231, 37.59725 ], [ -122.08242, 37.59781 ], [ -122.08357, 37.59774 ], [ -122.08379, 37.59735 ], [ -122.08581, 37.5973 ], [ -122.08579, 37.59656 ], [ -122.08501, 37.59649 ], [ -122.08485, 37.59573 ], [ -122.08344, 37.59562 ], [ -122.08332, 37.59412 ], [ -122.08076, 37.59405 ], [ -122.08098, 37.59154 ], [ -122.08271, 37.59159 ], [ -122.08268, 37.59251 ], [ -122.08192, 37.5926 ], [ -122.0819, 37.59356 ], [ -122.0851, 37.59346 ], [ -122.08495, 37.59324 ], [ -122.08304, 37.59317 ], [ -122.08308, 37.59227 ], [ -122.08427, 37.59216 ], [ -122.08435, 37.59146 ], [ -122.08544, 37.59157 ], [ -122.08533, 37.59231 ], [ -122.08587, 37.59311 ], [ -122.08672, 37.59272 ], [ -122.0854, 37.5912 ], [ -122.08506, 37.58873 ], [ -122.08278, 37.58951 ], [ -122.08167, 37.58781 ], [ -122.08094, 37.58766 ], [ -122.08074, 37.58393 ], [ -122.07779, 37.58713 ], [ -122.07704, 37.5866 ], [ -122.07842, 37.58495 ], [ -122.07683, 37.58403 ], [ -122.07656, 37.5834 ], [ -122.07675, 37.58287 ], [ -122.07621, 37.58257 ], [ -122.07415, 37.58484 ], [ -122.07341, 37.58446 ], [ -122.07293, 37.58336 ], [ -122.07167, 37.58405 ], [ -122.07119, 37.58385 ], [ -122.0714, 37.58433 ], [ -122.07104, 37.5848 ], [ -122.07031, 37.58489 ], [ -122.06981, 37.5854 ], [ -122.06853, 37.5848 ], [ -122.06682, 37.58674 ], [ -122.06776, 37.58748 ], [ -122.06685, 37.58837 ], [ -122.06431, 37.58701 ], [ -122.06261, 37.58492 ], [ -122.06704, 37.57967 ], [ -122.06509, 37.58161 ], [ -122.06349, 37.58071 ], [ -122.0643, 37.57896 ], [ -122.06363, 37.57863 ], [ -122.06233, 37.58008 ], [ -122.06176, 37.58032 ], [ -122.06128, 37.57942 ], [ -122.06382, 37.57639 ], [ -122.06322, 37.57589 ], [ -122.06447, 37.57444 ], [ -122.06276, 37.57349 ], [ -122.06192, 37.57434 ], [ -122.06112, 37.57397 ], [ -122.06301, 37.57155 ], [ -122.06256, 37.57108 ], [ -122.06862, 37.56417 ], [ -122.06993, 37.56326 ], [ -122.0713, 37.5628 ], [ -122.08027, 37.56117 ], [ -122.08101, 37.56131 ], [ -122.0809, 37.56212 ], [ -122.08399, 37.56236 ], [ -122.08399, 37.56536 ], [ -122.08015, 37.56505 ], [ -122.07941, 37.56619 ], [ -122.08474, 37.56613 ], [ -122.08496, 37.56643 ], [ -122.08429, 37.56693 ], [ -122.08539, 37.56717 ], [ -122.08446, 37.56784 ], [ -122.08392, 37.56966 ], [ -122.08582, 37.5734 ], [ -122.08336, 37.57458 ] ], [ [ -122.07043, 37.57375 ], [ -122.07169, 37.57226 ], [ -122.0706, 37.57186 ], [ -122.06959, 37.57236 ], [ -122.06997, 37.57358 ], [ -122.07043, 37.57375 ] ], [ [ -122.07266, 37.56795 ], [ -122.0737, 37.56642 ], [ -122.07486, 37.56653 ], [ -122.07628, 37.5673 ], [ -122.07703, 37.56643 ], [ -122.07605, 37.56615 ], [ -122.07343, 37.56613 ], [ -122.07341, 37.56673 ], [ -122.07298, 37.56686 ], [ -122.07149, 37.56619 ], [ -122.07077, 37.56618 ], [ -122.07063, 37.56683 ], [ -122.07266, 37.56795 ] ], [ [ -122.06503, 37.58427 ], [ -122.06516, 37.58448 ], [ -122.06561, 37.58431 ], [ -122.06548, 37.5841 ], [ -122.06503, 37.58427 ] ] ], [ [ [ -122.07138, 37.61344 ], [ -122.0663, 37.61326 ], [ -122.06769, 37.60838 ], [ -122.06808, 37.60847 ], [ -122.07138, 37.61344 ] ] ] ] } },
{ "type": "Feature", "properties": { "km": 2, "city": "Alameda", "people": 5583 }, "geometry": { "type": "MultiPolygon", "coordinates": [ [ [ [ -122.28908, 37.76713 ], [ -122.2881, 37.76843 ], [ -122.289, 37.76829 ], [ -122.28899, 37.76864 ], [ -122.28951, 37.76895 ], [ -122.28903, 37.76933 ], [ -122.28935, 37.76961 ], [ -122.28988, 37.7692 ], [ -122.29072, 37.76918 ], [ -122.29142, 37.76821 ], [ -122.29193, 37.76963 ], [ -122.2996, 37.77182 ], [ -122.30525, 37.77199 ], [ -122.30502, 37.77279 ], [ -122.3011, 37.77262 ], [ -122.30103, 37.77344 ], [ -122.30131, 37.77368 ], [ -122.30561, 37.77392 ], [ -122.3058, 37.77441 ], [ -122.30139, 37.77439 ], [ -122.3003, 37.77524 ], [ -122.3021, 37.77532 ], [ -122.30238, 37.77574 ], [ -122.30008, 37.77583 ], [ -122.29877, 37.77655 ], [ -122.2986, 37.7798 ], [ -122.3041, 37.78003 ], [ -122.30497, 37.77979 ], [ -122.30605, 37.78017 ], [ -122.30654, 37.77985 ], [ -122.30681, 37.78025 ], [ -122.30822, 37.78034 ], [ -122.30861, 37.77611 ], [ -122.30892, 37.7759 ], [ -122.31563, 37.77629 ], [ -122.31823, 37.77934 ], [ -122.3232, 37.77962 ], [ -122.32552, 37.78081 ], [ -122.3281, 37.78103 ], [ -122.33181, 37.78688 ], [ -122.33117, 37.79242 ], [ -122.3315, 37.7946 ], [ -122.33221, 37.79555 ], [ -122.3319, 37.7971 ], [ -122.33115, 37.79709 ], [ -122.33075, 37.79741 ], [ -122.31564, 37.79363 ], [ -122.30928, 37.79234 ], [ -122.30891, 37.7925 ], [ -122.30334, 37.79086 ], [ -122.29693, 37.79051 ], [ -122.28966, 37.79242 ], [ -122.28789, 37.79264 ], [ -122.28068, 37.79277 ], [ -122.27617, 37.79166 ], [ -122.27787, 37.78835 ], [ -122.28037, 37.78967 ], [ -122.28245, 37.78986 ], [ -122.28261, 37.7848 ], [ -122.28387, 37.78457 ], [ -122.28792, 37.78463 ], [ -122.28817, 37.7842 ], [ -122.29058, 37.78423 ], [ -122.29051, 37.78072 ], [ -122.29011, 37.78042 ], [ -122.28778, 37.78068 ], [ -122.28757, 37.78013 ], [ -122.28784, 37.77838 ], [ -122.29071, 37.77836 ], [ -122.29089, 37.77635 ], [ -122.29159, 37.77684 ], [ -122.29168, 37.78466 ], [ -122.29695, 37.78493 ], [ -122.29828, 37.78539 ], [ -122.29817, 37.78829 ], [ -122.30205, 37.78851 ], [ -122.30267, 37.78917 ], [ -122.3034, 37.78857 ], [ -122.30827, 37.78883 ], [ -122.30859, 37.78521 ], [ -122.3082, 37.785 ], [ -122.30832, 37.78365 ], [ -122.29794, 37.78307 ], [ -122.29755, 37.78259 ], [ -122.29775, 37.78018 ], [ -122.29584, 37.78009 ], [ -122.29421, 37.78047 ], [ -122.29305, 37.77995 ], [ -122.29317, 37.77957 ], [ -122.29402, 37.77936 ], [ -122.29545, 37.77947 ], [ -122.29586, 37.77524 ], [ -122.29927, 37.7753 ], [ -122.30022, 37.77453 ], [ -122.30032, 37.77253 ], [ -122.29322, 37.77216 ], [ -122.29301, 37.77527 ], [ -122.29114, 37.77537 ], [ -122.29012, 37.7738 ], [ -122.28629, 37.77183 ], [ -122.27836, 37.77165 ], [ -122.27809, 37.77106 ], [ -122.27685, 37.77135 ], [ -122.27636, 37.77106 ], [ -122.2761, 37.77159 ], [ -122.27281, 37.77149 ], [ -122.27268, 37.76942 ], [ -122.27048, 37.76873 ], [ -122.27077, 37.76763 ], [ -122.27003, 37.76812 ], [ -122.2692, 37.76766 ], [ -122.26835, 37.76765 ], [ -122.26802, 37.76715 ], [ -122.2671, 37.76698 ], [ -122.26693, 37.76653 ], [ -122.26626, 37.76654 ], [ -122.26581, 37.76599 ], [ -122.2651, 37.76599 ], [ -122.26468, 37.76556 ], [ -122.26379, 37.76543 ], [ -122.26372, 37.76429 ], [ -122.26271, 37.76486 ], [ -122.26201, 37.76443 ], [ -122.26218, 37.76388 ], [ -122.26146, 37.76411 ], [ -122.26114, 37.76383 ], [ -122.26208, 37.76272 ], [ -122.26951, 37.76556 ], [ -122.27134, 37.76588 ], [ -122.27124, 37.76238 ], [ -122.26398, 37.7597 ], [ -122.26389, 37.75933 ], [ -122.26451, 37.75875 ], [ -122.27075, 37.76102 ], [ -122.2726, 37.76218 ], [ -122.27505, 37.76494 ], [ -122.27592, 37.76641 ], [ -122.27599, 37.76753 ], [ -122.27648, 37.76794 ], [ -122.27777, 37.76831 ], [ -122.28009, 37.76617 ], [ -122.28083, 37.76607 ], [ -122.28101, 37.76652 ], [ -122.2802, 37.76703 ], [ -122.28014, 37.76798 ], [ -122.28186, 37.76822 ], [ -122.28189, 37.7709 ], [ -122.28278, 37.77074 ], [ -122.28286, 37.77 ], [ -122.28373, 37.76987 ], [ -122.28393, 37.76906 ], [ -122.28457, 37.76903 ], [ -122.28546, 37.76959 ], [ -122.28401, 37.76842 ], [ -122.28428, 37.76704 ], [ -122.28507, 37.76697 ], [ -122.28633, 37.76775 ], [ -122.28687, 37.76757 ], [ -122.28724, 37.76666 ], [ -122.2865, 37.76581 ], [ -122.28249, 37.76494 ], [ -122.28227, 37.76403 ], [ -122.2825, 37.76358 ], [ -122.2867, 37.76439 ], [ -122.28875, 37.76517 ], [ -122.28928, 37.76598 ], [ -122.28908, 37.76713 ] ], [ [ -122.28098, 37.76949 ], [ -122.28033, 37.7695 ], [ -122.28033, 37.76985 ], [ -122.28098, 37.76985 ], [ -122.28098, 37.76949 ] ], [ [ -122.29712, 37.7861 ], [ -122.29714, 37.78609 ], [ -122.2971, 37.78608 ], [ -122.29712, 37.7861 ] ], [ [ -122.28498, 37.78714 ], [ -122.28367, 37.78754 ], [ -122.28364, 37.78816 ], [ -122.28439, 37.7883 ], [ -122.28508, 37.78895 ], [ -122.28672, 37.78903 ], [ -122.28732, 37.78888 ], [ -122.2886, 37.78721 ], [ -122.28498, 37.78714 ] ] ], [ [ [ -122.28465, 37.78012 ], [ -122.27691, 37.7798 ], [ -122.27691, 37.78233 ], [ -122.27649, 37.78251 ], [ -122.27621, 37.78229 ], [ -122.2762, 37.77986 ], [ -122.27464, 37.78 ], [ -122.27433, 37.77932 ], [ -122.27083, 37.77969 ], [ -122.26448, 37.77943 ], [ -122.2633, 37.77901 ], [ -122.26439, 37.78019 ], [ -122.26431, 37.7809 ], [ -122.26566, 37.78105 ], [ -122.26549, 37.78258 ], [ -122.264, 37.7828 ], [ -122.26274, 37.78244 ], [ -122.26254, 37.78276 ], [ -122.26189, 37.7826 ], [ -122.26131, 37.78279 ], [ -122.26081, 37.78266 ], [ -122.26058, 37.78192 ], [ -122.26045, 37.77823 ], [ -122.26014, 37.77821 ], [ -122.25957, 37.78238 ], [ -122.25909, 37.78259 ], [ -122.25741, 37.78204 ], [ -122.25588, 37.78108 ], [ -122.25779, 37.77819 ], [ -122.25603, 37.77749 ], [ -122.25561, 37.77806 ], [ -122.25507, 37.77797 ], [ -122.25468, 37.77844 ], [ -122.25284, 37.7787 ], [ -122.25235, 37.77835 ], [ -122.25275, 37.77764 ], [ -122.25201, 37.77716 ], [ -122.25327, 37.7755 ], [ -122.25446, 37.77587 ], [ -122.25421, 37.77648 ], [ -122.257, 37.77717 ], [ -122.25842, 37.77717 ], [ -122.25859, 37.7761 ], [ -122.26323, 37.77657 ], [ -122.26339, 37.77759 ], [ -122.26547, 37.77768 ], [ -122.26583, 37.77673 ], [ -122.27444, 37.77691 ], [ -122.27478, 37.77794 ], [ -122.2764, 37.77797 ], [ -122.27666, 37.77701 ], [ -122.28094, 37.77712 ], [ -122.28121, 37.77731 ], [ -122.28115, 37.779 ], [ -122.28463, 37.77916 ], [ -122.28465, 37.78012 ] ] ], [ [ [ -122.25801, 37.73778 ], [ -122.25994, 37.73949 ], [ -122.26136, 37.74006 ], [ -122.26131, 37.74331 ], [ -122.25225, 37.74822 ], [ -122.25083, 37.74841 ], [ -122.24727, 37.74815 ], [ -122.23968, 37.74828 ], [ -122.2377, 37.74798 ], [ -122.23686, 37.74821 ], [ -122.23635, 37.74752 ], [ -122.23526, 37.74692 ], [ -122.22678, 37.74519 ], [ -122.22651, 37.7338 ], [ -122.22923, 37.72857 ], [ -122.22924, 37.72764 ], [ -122.22855, 37.72762 ], [ -122.22838, 37.72736 ], [ -122.2361, 37.71964 ], [ -122.24525, 37.72565 ], [ -122.25021, 37.72979 ], [ -122.25739, 37.73653 ], [ -122.25801, 37.73778 ] ], [ [ -122.24719, 37.73339 ], [ -122.24684, 37.73354 ], [ -122.24571, 37.73312 ], [ -122.24456, 37.73498 ], [ -122.24567, 37.73552 ], [ -122.24507, 37.73667 ], [ -122.24694, 37.73696 ], [ -122.24723, 37.73616 ], [ -122.24829, 37.73643 ], [ -122.24845, 37.736 ], [ -122.24756, 37.73553 ], [ -122.24795, 37.73489 ], [ -122.24841, 37.73498 ], [ -122.24848, 37.73417 ], [ -122.24719, 37.73339 ] ], [ [ -122.24914, 37.73722 ], [ -122.25117, 37.7378 ], [ -122.25697, 37.73782 ], [ -122.25643, 37.73676 ], [ -122.25566, 37.73696 ], [ -122.25309, 37.73483 ], [ -122.25186, 37.73557 ], [ -122.25228, 37.73678 ], [ -122.25191, 37.73702 ], [ -122.25064, 37.7367 ], [ -122.25021, 37.73562 ], [ -122.24976, 37.73545 ], [ -122.24977, 37.73494 ], [ -122.2493, 37.73487 ], [ -122.24914, 37.73722 ] ], [ [ -122.25116, 37.74748 ], [ -122.25372, 37.74576 ], [ -122.25623, 37.74513 ], [ -122.25726, 37.74399 ], [ -122.2587, 37.74355 ], [ -122.25759, 37.74289 ], [ -122.25744, 37.74352 ], [ -122.25465, 37.74435 ], [ -122.25281, 37.74207 ], [ -122.2517, 37.74244 ], [ -122.25041, 37.74229 ], [ -122.25041, 37.74303 ], [ -122.25007, 37.74322 ], [ -122.24789, 37.74323 ], [ -122.24631, 37.7427 ], [ -122.24614, 37.74384 ], [ -122.24521, 37.74416 ], [ -122.24419, 37.74516 ], [ -122.24425, 37.74711 ], [ -122.24858, 37.74713 ], [ -122.25116, 37.74748 ] ], [ [ -122.23972, 37.7373 ], [ -122.23997, 37.73662 ], [ -122.24077, 37.73596 ], [ -122.23976, 37.73588 ], [ -122.23921, 37.73657 ], [ -122.2389, 37.73718 ], [ -122.23972, 37.7373 ] ], [ [ -122.25707, 37.7382 ], [ -122.25707, 37.73821 ], [ -122.25708, 37.73822 ], [ -122.25707, 37.7382 ] ], [ [ -122.25566, 37.74284 ], [ -122.25467, 37.74282 ], [ -122.25485, 37.74304 ], [ -122.25566, 37.74284 ] ], [ [ -122.23539, 37.72926 ], [ -122.23658, 37.7299 ], [ -122.23757, 37.72879 ], [ -122.23539, 37.72926 ] ], [ [ -122.24147, 37.73321 ], [ -122.24116, 37.73262 ], [ -122.24024, 37.73203 ], [ -122.24139, 37.73055 ], [ -122.2396, 37.72949 ], [ -122.23887, 37.73026 ], [ -122.24006, 37.73087 ], [ -122.23951, 37.73173 ], [ -122.24017, 37.73218 ], [ -122.2392, 37.73344 ], [ -122.24081, 37.73403 ], [ -122.24147, 37.73321 ] ], [ [ -122.24507, 37.72637 ], [ -122.24303, 37.72529 ], [ -122.24013, 37.72537 ], [ -122.24048, 37.72774 ], [ -122.24104, 37.72865 ], [ -122.24579, 37.73064 ], [ -122.24627, 37.73006 ], [ -122.24816, 37.72916 ], [ -122.24507, 37.72637 ] ], [ [ -122.23922, 37.72375 ], [ -122.23716, 37.72242 ], [ -122.23625, 37.72263 ], [ -122.23447, 37.72449 ], [ -122.23483, 37.72733 ], [ -122.238, 37.727 ], [ -122.23841, 37.72531 ], [ -122.23953, 37.72511 ], [ -122.23922, 37.72375 ] ] ], [ [ [ -122.23657, 37.74852 ], [ -122.23643, 37.74989 ], [ -122.23575, 37.75007 ], [ -122.23524, 37.75094 ], [ -122.23472, 37.75098 ], [ -122.23326, 37.7502 ], [ -122.22712, 37.75458 ], [ -122.22757, 37.75506 ], [ -122.22614, 37.75641 ], [ -122.22512, 37.75597 ], [ -122.22627, 37.7546 ], [ -122.22477, 37.75339 ], [ -122.22588, 37.74951 ], [ -122.23593, 37.74835 ], [ -122.23657, 37.74852 ] ] ] ] } },
{ "type": "Feature", "properties": { "km": 2, "city": "Berkeley", "people": 21 }, "geometry": { "type": "Polygon", "coordinates": [ [ [ -122.33292, 37.86265 ], [ -122.3295, 37.87133 ], [ -122.32623, 37.8744 ], [ -122.32785, 37.8775 ], [ -122.31228, 37.88156 ], [ -122.30971, 37.8781 ], [ -122.30969, 37.87762 ], [ -122.3101, 37.87745 ], [ -122.30847, 37.87013 ], [ -122.31329, 37.86934 ], [ -122.31602, 37.87217 ], [ -122.31866, 37.87563 ], [ -122.32436, 37.87446 ], [ -122.31854, 37.86818 ], [ -122.31797, 37.86873 ], [ -122.31495, 37.86921 ], [ -122.31445, 37.86822 ], [ -122.31276, 37.86777 ], [ -122.3114, 37.86541 ], [ -122.31145, 37.86496 ], [ -122.31215, 37.86488 ], [ -122.3123, 37.86461 ], [ -122.31618, 37.86384 ], [ -122.31689, 37.86415 ], [ -122.31765, 37.86605 ], [ -122.31768, 37.86604 ], [ -122.31764, 37.86367 ], [ -122.31621, 37.85941 ], [ -122.31578, 37.85926 ], [ -122.31619, 37.86143 ], [ -122.31557, 37.86257 ], [ -122.31431, 37.86307 ], [ -122.31151, 37.86358 ], [ -122.31176, 37.86452 ], [ -122.3114, 37.86492 ], [ -122.30669, 37.86601 ], [ -122.30623, 37.86563 ], [ -122.30621, 37.86504 ], [ -122.3071, 37.86454 ], [ -122.30648, 37.86244 ], [ -122.30631, 37.86313 ], [ -122.30476, 37.86336 ], [ -122.30345, 37.8626 ], [ -122.30243, 37.8611 ], [ -122.30024, 37.85309 ], [ -122.30014, 37.85021 ], [ -122.30078, 37.84729 ], [ -122.30973, 37.84535 ], [ -122.31106, 37.85376 ], [ -122.31401, 37.85338 ], [ -122.32236, 37.85338 ], [ -122.32632, 37.85436 ], [ -122.33147, 37.85706 ], [ -122.33265, 37.85924 ], [ -122.33292, 37.86265 ] ], [ [ -122.30639, 37.86215 ], [ -122.3063, 37.86181 ], [ -122.30578, 37.85977 ], [ -122.30568, 37.86096 ], [ -122.30639, 37.86215 ] ] ] } },
{ "type": "Feature", "properties": { "km": 2, "city": "Fremont", "people": 91 }, "geometry": { "type": "MultiPolygon", "coordinates": [ [ [ [ -121.93251, 37.47735 ], [ -121.93219, 37.47721 ], [ -121.9243, 37.46138 ], [ -121.92343, 37.46105 ], [ -121.92174, 37.46139 ], [ -121.92022, 37.45858 ], [ -121.91875, 37.45753 ], [ -121.92289, 37.45509 ], [ -121.92328, 37.45524 ], [ -121.92459, 37.45977 ], [ -121.93301, 37.47694 ], [ -121.93251, 37.47735 ] ] ], [ [ [ -122.05578, 37.49035 ], [ -122.05473, 37.49096 ], [ -122.05161, 37.49167 ], [ -122.03943, 37.49203 ], [ -122.03505, 37.49007 ], [ -122.03291, 37.48293 ], [ -122.02801, 37.47753 ], [ -122.02542, 37.47711 ], [ -122.02555, 37.47798 ], [ -122.02428, 37.47997 ], [ -122.02408, 37.48137 ], [ -122.0234, 37.48278 ], [ -122.02405, 37.48261 ], [ -122.02426, 37.48291 ], [ -122.02265, 37.48391 ], [ -122.0207, 37.48442 ], [ -122.01834, 37.48409 ], [ -122.01635, 37.48322 ], [ -122.01507, 37.48204 ], [ -122.0143, 37.48165 ], [ -122.01403, 37.4818 ], [ -122.01224, 37.48575 ], [ -122.01004, 37.489 ], [ -122.01107, 37.49234 ], [ -122.01095, 37.49296 ], [ -122.01029, 37.4936 ], [ -122.00802, 37.49405 ], [ -122.00658, 37.49482 ], [ -122.00591, 37.49484 ], [ -122.00566, 37.49448 ], [ -122.00518, 37.49444 ], [ -122.00472, 37.4947 ], [ -122.00313, 37.49469 ], [ -121.9996, 37.49358 ], [ -121.99645, 37.49847 ], [ -121.99388, 37.49876 ], [ -121.99316, 37.49812 ], [ -121.99255, 37.49821 ], [ -121.99375, 37.49938 ], [ -121.99323, 37.49967 ], [ -121.97434, 37.48156 ], [ -121.97361, 37.48025 ], [ -121.9731, 37.47813 ], [ -121.97369, 37.46986 ], [ -121.97435, 37.46985 ], [ -121.97442, 37.47044 ], [ -121.97511, 37.47019 ], [ -121.9776, 37.47082 ], [ -121.97959, 37.47051 ], [ -121.98114, 37.46968 ], [ -121.98482, 37.46636 ], [ -121.98665, 37.46563 ], [ -121.98807, 37.46571 ], [ -121.99094, 37.46731 ], [ -121.99476, 37.4689 ], [ -121.99991, 37.46965 ], [ -122.00049, 37.46904 ], [ -122.00159, 37.4687 ], [ -122.00991, 37.46833 ], [ -122.01618, 37.46757 ], [ -122.02068, 37.4678 ], [ -122.02586, 37.46881 ], [ -122.03658, 37.46927 ], [ -122.04335, 37.46808 ], [ -122.04662, 37.46729 ], [ -122.04863, 37.46632 ], [ -122.05032, 37.46612 ], [ -122.0511, 37.46673 ], [ -122.05172, 37.46822 ], [ -122.0522, 37.47133 ], [ -122.05384, 37.47296 ], [ -122.05241, 37.47595 ], [ -122.05278, 37.47661 ], [ -122.05266, 37.47818 ], [ -122.05416, 37.48233 ], [ -122.05397, 37.48357 ], [ -122.05477, 37.4859 ], [ -122.055, 37.4876 ], [ -122.05431, 37.4879 ], [ -122.05564, 37.48955 ], [ -122.05578, 37.49035 ] ] ], [ [ [ -121.97273, 37.49713 ], [ -121.96709, 37.50196 ], [ -121.97148, 37.5056 ], [ -121.96749, 37.50746 ], [ -121.94843, 37.49276 ], [ -121.94845, 37.49055 ], [ -121.95084, 37.49017 ], [ -121.95103, 37.49178 ], [ -121.95177, 37.49279 ], [ -121.95339, 37.49212 ], [ -121.9549, 37.49365 ], [ -121.95537, 37.49324 ], [ -121.95582, 37.49121 ], [ -121.95566, 37.48941 ], [ -121.9578, 37.48909 ], [ -121.9596, 37.48924 ], [ -121.96324, 37.4905 ], [ -121.967, 37.49281 ], [ -121.97273, 37.49713 ] ] ], [ [ [ -122.11188, 37.51057 ], [ -122.10934, 37.51318 ], [ -122.10214, 37.52277 ], [ -122.09262, 37.53072 ], [ -122.08833, 37.53257 ], [ -122.07719, 37.53462 ], [ -122.07368, 37.5361 ], [ -122.06934, 37.53874 ], [ -122.06644, 37.53888 ], [ -122.0644, 37.53468 ], [ -122.06774, 37.52435 ], [ -122.06119, 37.52346 ], [ -122.06019, 37.52163 ], [ -122.06035, 37.52109 ], [ -122.07049, 37.51887 ], [ -122.06991, 37.51788 ], [ -122.07039, 37.51734 ], [ -122.07912, 37.51462 ], [ -122.08004, 37.51458 ], [ -122.08044, 37.51486 ], [ -122.08046, 37.51551 ], [ -122.0798, 37.51634 ], [ -122.08079, 37.51638 ], [ -122.082, 37.51576 ], [ -122.08269, 37.51429 ], [ -122.0846, 37.51421 ], [ -122.08788, 37.51297 ], [ -122.08907, 37.51305 ], [ -122.08978, 37.51357 ], [ -122.0887, 37.51685 ], [ -122.09249, 37.51834 ], [ -122.09349, 37.52082 ], [ -122.09832, 37.52237 ], [ -122.10122, 37.52121 ], [ -122.101, 37.51814 ], [ -122.11058, 37.50907 ], [ -122.11113, 37.50918 ], [ -122.11188, 37.51057 ] ] ], [ [ [ -122.06803, 37.56535 ], [ -122.05787, 37.57716 ], [ -122.05476, 37.57902 ], [ -122.05286, 37.58067 ], [ -122.05764, 37.58313 ], [ -122.05687, 37.58387 ], [ -122.05474, 37.58288 ], [ -122.05297, 37.58573 ], [ -122.05528, 37.58902 ], [ -122.05625, 37.58956 ], [ -122.05596, 37.59011 ], [ -122.05501, 37.59055 ], [ -122.05007, 37.58354 ], [ -122.05217, 37.58073 ], [ -122.0504, 37.5796 ], [ -122.05071, 37.57926 ], [ -122.0511, 37.5794 ], [ -122.05341, 37.57638 ], [ -122.05542, 37.57727 ], [ -122.05619, 37.57677 ], [ -122.05364, 37.57547 ], [ -122.05447, 37.57424 ], [ -122.05566, 37.5746 ], [ -122.05551, 37.57518 ], [ -122.0571, 37.57579 ], [ -122.05872, 37.57402 ], [ -122.05859, 37.57326 ], [ -122.05927, 37.5729 ], [ -122.05974, 37.57297 ], [ -122.0591, 37.56925 ], [ -122.06288, 37.56926 ], [ -122.06653, 37.56463 ], [ -122.06803, 37.56535 ] ], [ [ -122.06038, 37.57192 ], [ -122.06126, 37.57084 ], [ -122.06164, 37.57023 ], [ -122.06003, 37.57023 ], [ -122.06038, 37.57192 ] ], [ [ -122.05281, 37.58378 ], [ -122.05195, 37.58357 ], [ -122.0527, 37.58394 ], [ -122.05281, 37.58378 ] ], [ [ -122.0535, 37.58202 ], [ -122.05287, 37.58251 ], [ -122.05353, 37.58283 ], [ -122.05395, 37.58226 ], [ -122.0535, 37.58202 ] ] ] ] } },
{ "type": "Feature", "properties": { "km": 2, "city": "Hayward", "people": 1358 }, "geometry": { "type": "Polygon", "coordinates": [ [ [ -122.12459, 37.62713 ], [ -122.12108, 37.62825 ], [ -122.12077, 37.62812 ], [ -122.12198, 37.62539 ], [ -122.12624, 37.62554 ], [ -122.12629, 37.62384 ], [ -122.12252, 37.62369 ], [ -122.12234, 37.6231 ], [ -122.12075, 37.62362 ], [ -122.11699, 37.62332 ], [ -122.11025, 37.62119 ], [ -122.10877, 37.62111 ], [ -122.10251, 37.61925 ], [ -122.10065, 37.61997 ], [ -122.08715, 37.60814 ], [ -122.0889, 37.60633 ], [ -122.09757, 37.60161 ], [ -122.09791, 37.60182 ], [ -122.09796, 37.60537 ], [ -122.1001, 37.60536 ], [ -122.10135, 37.60481 ], [ -122.10223, 37.60021 ], [ -122.104, 37.59815 ], [ -122.10667, 37.59813 ], [ -122.1098, 37.59856 ], [ -122.11005, 37.59777 ], [ -122.11058, 37.59757 ], [ -122.11246, 37.59811 ], [ -122.11279, 37.59864 ], [ -122.11263, 37.59989 ], [ -122.11209, 37.60013 ], [ -122.11131, 37.60001 ], [ -122.11089, 37.60057 ], [ -122.10965, 37.60121 ], [ -122.10932, 37.60184 ], [ -122.11098, 37.60279 ], [ -122.11251, 37.60434 ], [ -122.11342, 37.60453 ], [ -122.11474, 37.60433 ], [ -122.11509, 37.60415 ], [ -122.11562, 37.60244 ], [ -122.11707, 37.60217 ], [ -122.11822, 37.60245 ], [ -122.1204, 37.60097 ], [ -122.12158, 37.59959 ], [ -122.12207, 37.5984 ], [ -122.12095, 37.5964 ], [ -122.12314, 37.59275 ], [ -122.12504, 37.59219 ], [ -122.12644, 37.59226 ], [ -122.12741, 37.5939 ], [ -122.12712, 37.5962 ], [ -122.12748, 37.59672 ], [ -122.12827, 37.59686 ], [ -122.12958, 37.59659 ], [ -122.13045, 37.59584 ], [ -122.13027, 37.59351 ], [ -122.13063, 37.5925 ], [ -122.13127, 37.59205 ], [ -122.1324, 37.59205 ], [ -122.13407, 37.5952 ], [ -122.13367, 37.59685 ], [ -122.13454, 37.59823 ], [ -122.13523, 37.5983 ], [ -122.13701, 37.59753 ], [ -122.13872, 37.59729 ], [ -122.14024, 37.59794 ], [ -122.14146, 37.59974 ], [ -122.14157, 37.6022 ], [ -122.14121, 37.60269 ], [ -122.13973, 37.6035 ], [ -122.13575, 37.60482 ], [ -122.13481, 37.60581 ], [ -122.13478, 37.60625 ], [ -122.13581, 37.60609 ], [ -122.13715, 37.60631 ], [ -122.1402, 37.60806 ], [ -122.14101, 37.6083 ], [ -122.14154, 37.60813 ], [ -122.14241, 37.60562 ], [ -122.14535, 37.60269 ], [ -122.14614, 37.60246 ], [ -122.1465, 37.60289 ], [ -122.1464, 37.60416 ], [ -122.14766, 37.6051 ], [ -122.14747, 37.60598 ], [ -122.1478, 37.60655 ], [ -122.14728, 37.60681 ], [ -122.14806, 37.60745 ], [ -122.14755, 37.60825 ], [ -122.14865, 37.61034 ], [ -122.1486, 37.61279 ], [ -122.14956, 37.61548 ], [ -122.15042, 37.61644 ], [ -122.15111, 37.61657 ], [ -122.15158, 37.61705 ], [ -122.15496, 37.61622 ], [ -122.1557, 37.61616 ], [ -122.15622, 37.61653 ], [ -122.1562, 37.61692 ], [ -122.15482, 37.61797 ], [ -122.151, 37.61922 ], [ -122.15177, 37.62574 ], [ -122.15159, 37.62625 ], [ -122.15078, 37.62666 ], [ -122.15159, 37.62767 ], [ -122.15144, 37.6283 ], [ -122.15182, 37.6293 ], [ -122.15338, 37.62883 ], [ -122.154, 37.62917 ], [ -122.15335, 37.63014 ], [ -122.15309, 37.6341 ], [ -122.15394, 37.64023 ], [ -122.1545, 37.64127 ], [ -122.15414, 37.64198 ], [ -122.1527, 37.64206 ], [ -122.15275, 37.64558 ], [ -122.14795, 37.64663 ], [ -122.14763, 37.64572 ], [ -122.14354, 37.64574 ], [ -122.14318, 37.64548 ], [ -122.1375, 37.6456 ], [ -122.13704, 37.64282 ], [ -122.13329, 37.63934 ], [ -122.13281, 37.6382 ], [ -122.12482, 37.63857 ], [ -122.12446, 37.636 ], [ -122.11959, 37.63596 ], [ -122.11962, 37.63311 ], [ -122.12886, 37.63308 ], [ -122.12858, 37.6305 ], [ -122.12516, 37.62793 ], [ -122.12459, 37.62713 ] ], [ [ -122.15252, 37.61776 ], [ -122.15174, 37.618 ], [ -122.15136, 37.61813 ], [ -122.15252, 37.61776 ] ] ] } },
{ "type": "Feature", "properties": { "km": 2, "city": "Newark", "people": 55 }, "geometry": { "type": "Polygon", "coordinates": [ [ [ -122.06645, 37.51886 ], [ -122.05077, 37.52401 ], [ -122.0497, 37.52196 ], [ -122.05312, 37.52087 ], [ -122.05034, 37.51549 ], [ -122.04699, 37.51663 ], [ -122.04618, 37.51546 ], [ -122.0339, 37.51965 ], [ -122.03462, 37.52145 ], [ -122.03162, 37.52227 ], [ -122.02967, 37.52402 ], [ -122.01192, 37.51579 ], [ -122.01456, 37.50969 ], [ -122.01218, 37.50699 ], [ -122.01166, 37.504 ], [ -122.01232, 37.50338 ], [ -122.01349, 37.50322 ], [ -122.01463, 37.50228 ], [ -122.01518, 37.50133 ], [ -122.01456, 37.50023 ], [ -122.01296, 37.50023 ], [ -122.01227, 37.49983 ], [ -122.01277, 37.4981 ], [ -122.01225, 37.49704 ], [ -122.01134, 37.49693 ], [ -122.00968, 37.49784 ], [ -122.00817, 37.49773 ], [ -122.00718, 37.49714 ], [ -122.00568, 37.49492 ], [ -122.00586, 37.49446 ], [ -122.00682, 37.49398 ], [ -122.00931, 37.49348 ], [ -122.01043, 37.49277 ], [ -122.00947, 37.48894 ], [ -122.01172, 37.48558 ], [ -122.0136, 37.48149 ], [ -122.01445, 37.48119 ], [ -122.01806, 37.48367 ], [ -122.01989, 37.48437 ], [ -122.02302, 37.48448 ], [ -122.0246, 37.48313 ], [ -122.025, 37.48236 ], [ -122.02563, 37.47884 ], [ -122.02634, 37.47851 ], [ -122.02756, 37.47845 ], [ -122.03018, 37.48173 ], [ -122.03054, 37.48263 ], [ -122.03046, 37.48729 ], [ -122.03023, 37.48787 ], [ -122.02956, 37.48815 ], [ -122.03052, 37.48922 ], [ -122.03177, 37.48899 ], [ -122.0324, 37.48917 ], [ -122.03546, 37.49219 ], [ -122.0367, 37.4924 ], [ -122.0384, 37.49347 ], [ -122.04123, 37.49332 ], [ -122.05093, 37.49628 ], [ -122.05112, 37.49745 ], [ -122.05766, 37.49895 ], [ -122.05782, 37.5 ], [ -122.05641, 37.50177 ], [ -122.05533, 37.50413 ], [ -122.05432, 37.50843 ], [ -122.05488, 37.50977 ], [ -122.05536, 37.50972 ], [ -122.0556, 37.5102 ], [ -122.0553, 37.51054 ], [ -122.05601, 37.51402 ], [ -122.06048, 37.51457 ], [ -122.06083, 37.51389 ], [ -122.0642, 37.51275 ], [ -122.06467, 37.51282 ], [ -122.06766, 37.51823 ], [ -122.06645, 37.51886 ] ] ] } },
{ "type": "Feature", "properties": { "km": 2, "city": "Oakland", "people": 150 }, "geometry": { "type": "MultiPolygon", "coordinates": [ [ [ [ -122.22676, 37.74817 ], [ -122.22366, 37.74826 ], [ -122.22375, 37.75477 ], [ -122.21805, 37.75996 ], [ -122.21957, 37.75976 ], [ -122.22089, 37.75866 ], [ -122.22188, 37.75845 ], [ -122.22238, 37.75857 ], [ -122.22338, 37.76001 ], [ -122.22327, 37.76169 ], [ -122.22129, 37.76323 ], [ -122.22403, 37.76563 ], [ -122.21987, 37.76868 ], [ -122.21863, 37.76717 ], [ -122.21613, 37.76501 ], [ -122.2124, 37.76299 ], [ -122.20649, 37.75656 ], [ -122.2066, 37.75614 ], [ -122.2083, 37.75546 ], [ -122.20746, 37.75481 ], [ -122.20556, 37.75541 ], [ -122.20512, 37.75509 ], [ -122.20605, 37.75451 ], [ -122.20822, 37.75384 ], [ -122.21252, 37.75874 ], [ -122.21182, 37.75942 ], [ -122.21301, 37.76145 ], [ -122.214, 37.7617 ], [ -122.21742, 37.7596 ], [ -122.21678, 37.75791 ], [ -122.21568, 37.75738 ], [ -122.21654, 37.75637 ], [ -122.2157, 37.75625 ], [ -122.21519, 37.75548 ], [ -122.21429, 37.75535 ], [ -122.21409, 37.75472 ], [ -122.21339, 37.75498 ], [ -122.21231, 37.75485 ], [ -122.21163, 37.75351 ], [ -122.21098, 37.75308 ], [ -122.21092, 37.75174 ], [ -122.20829, 37.75319 ], [ -122.20773, 37.75287 ], [ -122.21174, 37.75039 ], [ -122.21166, 37.7497 ], [ -122.21217, 37.74936 ], [ -122.2072, 37.74365 ], [ -122.20846, 37.74255 ], [ -122.2094, 37.74212 ], [ -122.21091, 37.742 ], [ -122.21135, 37.74251 ], [ -122.21155, 37.74371 ], [ -122.21392, 37.74575 ], [ -122.21716, 37.74776 ], [ -122.21431, 37.74276 ], [ -122.21142, 37.74098 ], [ -122.21063, 37.73997 ], [ -122.21086, 37.73736 ], [ -122.21011, 37.73657 ], [ -122.20991, 37.73601 ], [ -122.21019, 37.73574 ], [ -122.20875, 37.73264 ], [ -122.20748, 37.73156 ], [ -122.20768, 37.73118 ], [ -122.20816, 37.73119 ], [ -122.20831, 37.73032 ], [ -122.2089, 37.73035 ], [ -122.21078, 37.73157 ], [ -122.21391, 37.73841 ], [ -122.21544, 37.74088 ], [ -122.21956, 37.74449 ], [ -122.22129, 37.74556 ], [ -122.22234, 37.74584 ], [ -122.22264, 37.74548 ], [ -122.2236, 37.74542 ], [ -122.22377, 37.74754 ], [ -122.22651, 37.74765 ], [ -122.22676, 37.74817 ] ], [ [ -122.21841, 37.76537 ], [ -122.21878, 37.76578 ], [ -122.21925, 37.76641 ], [ -122.21841, 37.76537 ] ] ], [ [ [ -122.20071, 37.75699 ], [ -122.19727, 37.75395 ], [ -122.19746, 37.75341 ], [ -122.19785, 37.75344 ], [ -122.20012, 37.7556 ], [ -122.20108, 37.75687 ], [ -122.20071, 37.75699 ] ] ], [ [ [ -122.26647, 37.78884 ], [ -122.26474, 37.79036 ], [ -122.26301, 37.79104 ], [ -122.25556, 37.78931 ], [ -122.2554, 37.78904 ], [ -122.25581, 37.78856 ], [ -122.25543, 37.788 ], [ -122.25302, 37.78884 ], [ -122.24752, 37.78708 ], [ -122.24328, 37.78464 ], [ -122.24269, 37.78454 ], [ -122.24236, 37.7792 ], [ -122.24359, 37.77901 ], [ -122.24409, 37.77928 ], [ -122.24396, 37.77998 ], [ -122.24352, 37.78018 ], [ -122.24421, 37.7802 ], [ -122.24434, 37.78068 ], [ -122.24351, 37.78096 ], [ -122.24409, 37.78121 ], [ -122.24421, 37.78232 ], [ -122.24353, 37.78274 ], [ -122.24364, 37.78352 ], [ -122.24464, 37.78351 ], [ -122.24545, 37.78458 ], [ -122.2477, 37.78621 ], [ -122.24814, 37.78593 ], [ -122.24922, 37.78664 ], [ -122.25258, 37.78758 ], [ -122.25468, 37.78726 ], [ -122.25481, 37.78689 ], [ -122.25841, 37.78555 ], [ -122.26162, 37.78689 ], [ -122.25904, 37.7892 ], [ -122.26158, 37.78753 ], [ -122.26259, 37.7874 ], [ -122.26339, 37.78781 ], [ -122.26365, 37.78949 ], [ -122.26532, 37.78833 ], [ -122.26576, 37.78872 ], [ -122.26461, 37.78959 ], [ -122.26596, 37.78863 ], [ -122.26647, 37.78884 ] ] ], [ [ [ -122.33409, 37.81016 ], [ -122.33414, 37.81045 ], [ -122.33308, 37.81126 ], [ -122.32779, 37.81073 ], [ -122.32754, 37.81051 ], [ -122.32636, 37.81066 ], [ -122.32311, 37.81035 ], [ -122.31349, 37.81942 ], [ -122.30892, 37.81906 ], [ -122.30868, 37.82091 ], [ -122.3125, 37.822 ], [ -122.31543, 37.82155 ], [ -122.31879, 37.81849 ], [ -122.31975, 37.81903 ], [ -122.31966, 37.8194 ], [ -122.32128, 37.82076 ], [ -122.32433, 37.82082 ], [ -122.33059, 37.82014 ], [ -122.33087, 37.82056 ], [ -122.33011, 37.8218 ], [ -122.3243, 37.82225 ], [ -122.30541, 37.8253 ], [ -122.30164, 37.82386 ], [ -122.30011, 37.82286 ], [ -122.30167, 37.82125 ], [ -122.30292, 37.8228 ], [ -122.30461, 37.82371 ], [ -122.30702, 37.82315 ], [ -122.30533, 37.82271 ], [ -122.3061, 37.82191 ], [ -122.307, 37.82154 ], [ -122.30657, 37.82082 ], [ -122.30694, 37.81879 ], [ -122.30501, 37.81861 ], [ -122.30482, 37.81833 ], [ -122.31494, 37.80866 ], [ -122.32042, 37.80909 ], [ -122.32348, 37.80782 ], [ -122.32783, 37.80743 ], [ -122.32868, 37.80814 ], [ -122.32896, 37.80965 ], [ -122.33409, 37.81016 ] ], [ [ -122.31067, 37.82269 ], [ -122.31089, 37.82266 ], [ -122.31082, 37.82266 ], [ -122.31067, 37.82269 ] ], [ [ -122.31682, 37.82197 ], [ -122.32037, 37.82144 ], [ -122.31919, 37.81994 ], [ -122.31682, 37.82197 ] ] ] ] } },
{ "type": "Feature", "properties": { "km": 2, "city": "San Leandro", "people": 1230 }, "geometry": { "type": "Polygon", "coordinates": [ [ [ -122.1889, 37.70877 ], [ -122.18375, 37.70096 ], [ -122.17865, 37.70289 ], [ -122.17649, 37.69958 ], [ -122.17737, 37.69901 ], [ -122.17619, 37.69917 ], [ -122.17482, 37.69696 ], [ -122.1774, 37.69594 ], [ -122.17791, 37.69673 ], [ -122.17731, 37.69709 ], [ -122.17808, 37.69823 ], [ -122.18038, 37.69726 ], [ -122.17947, 37.6958 ], [ -122.1805, 37.69531 ], [ -122.18202, 37.69735 ], [ -122.18248, 37.69716 ], [ -122.18155, 37.69569 ], [ -122.1817, 37.69518 ], [ -122.17958, 37.69179 ], [ -122.17918, 37.69179 ], [ -122.1789, 37.69227 ], [ -122.17333, 37.69223 ], [ -122.17275, 37.6908 ], [ -122.18449, 37.69079 ], [ -122.18582, 37.69005 ], [ -122.18699, 37.68986 ], [ -122.18847, 37.69045 ], [ -122.18918, 37.69104 ], [ -122.19031, 37.69304 ], [ -122.19163, 37.69364 ], [ -122.19199, 37.6943 ], [ -122.19044, 37.69504 ], [ -122.18939, 37.69492 ], [ -122.18934, 37.694 ], [ -122.18811, 37.69176 ], [ -122.18672, 37.69105 ], [ -122.18582, 37.69153 ], [ -122.18783, 37.69373 ], [ -122.18815, 37.69448 ], [ -122.18783, 37.69522 ], [ -122.1871, 37.69564 ], [ -122.18886, 37.69506 ], [ -122.18973, 37.69576 ], [ -122.19145, 37.69514 ], [ -122.19253, 37.69547 ], [ -122.19217, 37.69604 ], [ -122.18933, 37.69679 ], [ -122.18966, 37.69815 ], [ -122.19264, 37.69789 ], [ -122.19318, 37.69756 ], [ -122.19316, 37.6963 ], [ -122.1927, 37.6954 ], [ -122.1929, 37.69464 ], [ -122.19347, 37.69462 ], [ -122.19453, 37.69563 ], [ -122.1944, 37.69872 ], [ -122.19136, 37.69917 ], [ -122.19133, 37.70048 ], [ -122.19009, 37.70094 ], [ -122.19085, 37.70454 ], [ -122.19103, 37.70409 ], [ -122.19243, 37.70346 ], [ -122.19522, 37.70283 ], [ -122.1974, 37.70298 ], [ -122.19983, 37.70388 ], [ -122.20125, 37.705 ], [ -122.20227, 37.70655 ], [ -122.20253, 37.70847 ], [ -122.20187, 37.71073 ], [ -122.20235, 37.71168 ], [ -122.2034, 37.71157 ], [ -122.20358, 37.71212 ], [ -122.19644, 37.7138 ], [ -122.19636, 37.71424 ], [ -122.19815, 37.71406 ], [ -122.19716, 37.71582 ], [ -122.19658, 37.71515 ], [ -122.19345, 37.71458 ], [ -122.18695, 37.71641 ], [ -122.18399, 37.71095 ], [ -122.1889, 37.70877 ] ] ] } },
{ "type": "Feature", "properties": { "km": 2, "city": "San Lorenzo", "people": 12 }, "geometry": { "type": "Polygon", "coordinates": [ [ [ -122.16195, 37.66764 ], [ -122.16089, 37.66849 ], [ -122.15805, 37.66993 ], [ -122.15763, 37.66982 ], [ -122.15662, 37.6703 ], [ -122.15218, 37.67269 ], [ -122.14564, 37.66564 ], [ -122.14922, 37.66384 ], [ -122.1495, 37.66332 ], [ -122.15079, 37.66257 ], [ -122.15254, 37.66373 ], [ -122.16067, 37.66361 ], [ -122.1616, 37.66537 ], [ -122.16139, 37.66571 ], [ -122.16195, 37.66764 ] ], [ [ -122.15281, 37.66804 ], [ -122.15166, 37.66718 ], [ -122.15038, 37.66752 ], [ -122.15156, 37.66878 ], [ -122.15281, 37.66804 ] ] ] } },
{ "type": "Feature", "properties": { "km": 2, "city": "Union City", "people": 2959 }, "geometry": { "type": "MultiPolygon", "coordinates": [ [ [ [ -122.08539, 37.56717 ], [ -122.08446, 37.56784 ], [ -122.08392, 37.56966 ], [ -122.08582, 37.5734 ], [ -122.08314, 37.57467 ], [ -122.08334, 37.57544 ], [ -122.08162, 37.57618 ], [ -122.08126, 37.57607 ], [ -122.08106, 37.5753 ], [ -122.08047, 37.57528 ], [ -122.07838, 37.5759 ], [ -122.07742, 37.57652 ], [ -122.07522, 37.57534 ], [ -122.07407, 37.5764 ], [ -122.07277, 37.57477 ], [ -122.07221, 37.57524 ], [ -122.07131, 37.57478 ], [ -122.06957, 37.57645 ], [ -122.0681, 37.57574 ], [ -122.06877, 37.57455 ], [ -122.06843, 37.57446 ], [ -122.06761, 37.5756 ], [ -122.06647, 37.5754 ], [ -122.0641, 37.57793 ], [ -122.06312, 37.57735 ], [ -122.06382, 37.57639 ], [ -122.06322, 37.57593 ], [ -122.06447, 37.57444 ], [ -122.06276, 37.57349 ], [ -122.06192, 37.57434 ], [ -122.06112, 37.57397 ], [ -122.06301, 37.57155 ], [ -122.06258, 37.57104 ], [ -122.06641, 37.56642 ], [ -122.06954, 37.56348 ], [ -122.07127, 37.56281 ], [ -122.08086, 37.56119 ], [ -122.0809, 37.56212 ], [ -122.08402, 37.5624 ], [ -122.08408, 37.56525 ], [ -122.08379, 37.56542 ], [ -122.08015, 37.56505 ], [ -122.07941, 37.56619 ], [ -122.08474, 37.56613 ], [ -122.08496, 37.56643 ], [ -122.08429, 37.56693 ], [ -122.08539, 37.56717 ] ], [ [ -122.07043, 37.57375 ], [ -122.07169, 37.57226 ], [ -122.0706, 37.57186 ], [ -122.06959, 37.57236 ], [ -122.06997, 37.57358 ], [ -122.07043, 37.57375 ] ], [ [ -122.07266, 37.56795 ], [ -122.07365, 37.56644 ], [ -122.07451, 37.56643 ], [ -122.07628, 37.5673 ], [ -122.07703, 37.56643 ], [ -122.07605, 37.56615 ], [ -122.07343, 37.56613 ], [ -122.07341, 37.56673 ], [ -122.07298, 37.56686 ], [ -122.07149, 37.56619 ], [ -122.07077, 37.56618 ], [ -122.07063, 37.56683 ], [ -122.07266, 37.56795 ] ] ], [ [ [ -122.07141, 37.61341 ], [ -122.0663, 37.61326 ], [ -122.06769, 37.60838 ], [ -122.06808, 37.60847 ], [ -122.07141, 37.61341 ] ] ] ] } }
]
}
