{
"type": "FeatureCollection",
"name": "bay_2ft",
"crs": { "type": "name", "properties": { "name": "urn:ogc:def:crs:OGC:1.3:CRS84" } },
"xy_coordinate_resolution": 1e-05,
"features": [
{ "type": "Feature", "properties": { "n": "Saratoga Street", "h": "col" }, "geometry": { "type": "LineString", "coordinates": [ [ -122.30267, 37.7895 ], [ -122.30249, 37.7894 ], [ -122.30196, 37.78872 ] ] } },
{ "type": "Feature", "properties": { "n": "Navy Way", "h": "col" }, "geometry": { "type": "LineString", "coordinates": [ [ -122.3026, 37.78963 ], [ -122.30254, 37.78967 ], [ -122.30252, 37.78986 ], [ -122.30257, 37.78994 ] ] } },
{ "type": "Feature", "properties": { "n": "Main Street", "h": "col" }, "geometry": { "type": "LineString", "coordinates": [ [ -122.29299, 37.78885 ], [ -122.29331, 37.78914 ], [ -122.29374, 37.78939 ] ] } },
{ "type": "Feature", "properties": { "n": "Main Street", "h": "col" }, "geometry": { "type": "LineString", "coordinates": [ [ -122.29609, 37.78973 ], [ -122.29804, 37.78983 ] ] } },
{ "type": "Feature", "properties": { "n": "Main Street", "h": "col" }, "geometry": { "type": "LineString", "coordinates": [ [ -122.3007, 37.78998 ], [ -122.30091, 37.78999 ] ] } },
{ "type": "Feature", "properties": { "n": "Main Street", "h": "col" }, "geometry": { "type": "LineString", "coordinates": [ [ -122.30097, 37.79 ], [ -122.30229, 37.79015 ], [ -122.30248, 37.79008 ], [ -122.30257, 37.78994 ] ] } },
{ "type": "Feature", "properties": { "n": "Navy Way", "h": "col" }, "geometry": { "type": "LineString", "coordinates": [ [ -122.30257, 37.78994 ], [ -122.30265, 37.78968 ], [ -122.3026, 37.78963 ] ] } },
{ "type": "Feature", "properties": { "n": "Lexington Street", "h": "col" }, "geometry": { "type": "LineString", "coordinates": [ [ -122.30339, 37.78879 ], [ -122.30357, 37.78662 ] ] } },
{ "type": "Feature", "properties": { "n": "Saratoga Street", "h": "col" }, "geometry": { "type": "LineString", "coordinates": [ [ -122.30196, 37.78872 ], [ -122.30209, 37.78695 ] ] } },
{ "type": "Feature", "properties": { "n": "Main Street", "h": "col" }, "geometry": { "type": "LineString", "coordinates": [ [ -122.2914, 37.78554 ], [ -122.29143, 37.78621 ], [ -122.29163, 37.78687 ] ] } },
{ "type": "Feature", "properties": { "n": "I 880", "h": "fwy" }, "geometry": { "type": "LineString", "coordinates": [ [ -122.07162, 37.61345 ], [ -122.07135, 37.61307 ] ] } },
{ "type": "Feature", "properties": { "n": "Willie Stargell Avenue", "h": "col" }, "geometry": { "type": "LineString", "coordinates": [ [ -122.2914, 37.78489 ], [ -122.29092, 37.78485 ] ] } },
{ "type": "Feature", "properties": { "n": "Union City Boulevard", "h": "art" }, "geometry": { "type": "LineString", "coordinates": [ [ -122.08099, 37.5948 ], [ -122.081, 37.59407 ] ] } },
{ "type": "Feature", "properties": { "n": "Main Street", "h": "col" }, "geometry": { "type": "LineString", "coordinates": [ [ -122.29138, 37.78344 ], [ -122.2914, 37.78489 ] ] } },
{ "type": "Feature", "properties": { "n": "Lexington Street", "h": "col" }, "geometry": { "type": "LineString", "coordinates": [ [ -122.30267, 37.7895 ], [ -122.30339, 37.78879 ] ] } },
{ "type": "Feature", "properties": { "n": "Main Street", "h": "col" }, "geometry": { "type": "LineString", "coordinates": [ [ -122.29374, 37.78939 ], [ -122.2946, 37.78963 ] ] } },
{ "type": "Feature", "properties": { "n": "Main Street", "h": "col" }, "geometry": { "type": "LineString", "coordinates": [ [ -122.2914, 37.78489 ], [ -122.2914, 37.78554 ] ] } },
{ "type": "Feature", "properties": { "n": "Main Street", "h": "col" }, "geometry": { "type": "LineString", "coordinates": [ [ -122.29191, 37.78734 ], [ -122.29268, 37.78845 ] ] } },
{ "type": "Feature", "properties": { "n": "Main Street", "h": "col" }, "geometry": { "type": "LineString", "coordinates": [ [ -122.29286, 37.78869 ], [ -122.29299, 37.78885 ] ] } },
{ "type": "Feature", "properties": { "n": "Main Street", "h": "col" }, "geometry": { "type": "LineString", "coordinates": [ [ -122.29163, 37.78687 ], [ -122.29191, 37.78734 ] ] } },
{ "type": "Feature", "properties": { "n": "Main Street", "h": "col" }, "geometry": { "type": "LineString", "coordinates": [ [ -122.29529, 37.78969 ], [ -122.29609, 37.78973 ] ] } },
{ "type": "Feature", "properties": { "n": "Main Street", "h": "col" }, "geometry": { "type": "LineString", "coordinates": [ [ -122.2946, 37.78963 ], [ -122.29529, 37.78969 ] ] } },
{ "type": "Feature", "properties": { "n": "Lexington Street", "h": "col" }, "geometry": { "type": "LineString", "coordinates": [ [ -122.3026, 37.78963 ], [ -122.30267, 37.7895 ] ] } },
{ "type": "Feature", "properties": { "n": "I 880", "h": "fwy" }, "geometry": { "type": "LineString", "coordinates": [ [ -122.07101, 37.61307 ], [ -122.07134, 37.61353 ] ] } }
]
}
