{
"type": "FeatureCollection",
"name": "bay_1ft",
"crs": { "type": "name", "properties": { "name": "urn:ogc:def:crs:OGC:1.3:CRS84" } },
"xy_coordinate_resolution": 1e-05,
"features": [
{ "type": "Feature", "properties": { "n": "Navy Way", "h": "col" }, "geometry": { "type": "LineString", "coordinates": [ [ -122.30253, 37.78969 ], [ -122.30257, 37.78994 ] ] } },
{ "type": "Feature", "properties": { "n": "Main Street", "h": "col" }, "geometry": { "type": "LineString", "coordinates": [ [ -122.30221, 37.79015 ], [ -122.30248, 37.79008 ], [ -122.30257, 37.78994 ] ] } },
{ "type": "Feature", "properties": { "n": "Navy Way", "h": "col" }, "geometry": { "type": "LineString", "coordinates": [ [ -122.30257, 37.78994 ], [ -122.30263, 37.78987 ], [ -122.30261, 37.78965 ] ] } },
{ "type": "Feature", "properties": { "n": "Lexington Street", "h": "col" }, "geometry": { "type": "LineString", "coordinates": [ [ -122.30344, 37.78824 ], [ -122.30348, 37.78767 ] ] } }
]
}
