{
"type": "FeatureCollection",
"name": "bay_2.5ft",
"crs": { "type": "name", "properties": { "name": "urn:ogc:def:crs:OGC:1.3:CRS84" } },
"xy_coordinate_resolution": 1e-05,
"features": [
{ "type": "Feature", "properties": { "n": "West Midway Avenue", "h": "col" }, "geometry": { "type": "LineString", "coordinates": [ [ -122.2914, 37.78489 ], [ -122.29178, 37.7849 ] ] } },
{ "type": "Feature", "properties": { "n": "Mariner Square Drive", "h": "col" }, "geometry": { "type": "LineString", "coordinates": [ [ -122.27662, 37.78813 ], [ -122.27666, 37.78853 ] ] } },
{ "type": "Feature", "properties": { "n": "Embarcadero West", "h": "art" }, "geometry": { "type": "LineString", "coordinates": [ [ -122.26542, 37.79129 ], [ -122.26586, 37.7914 ] ] } },
{ "type": "Feature", "properties": { "n": "Harbor Bay Parkway", "h": "art" }, "geometry": { "type": "LineString", "coordinates": [ [ -122.22676, 37.74523 ], [ -122.22674, 37.74463 ] ] } },
{ "type": "Feature", "properties": { "n": "Doolittle Drive", "h": "art" }, "geometry": { "type": "LineString", "coordinates": [ [ -122.22373, 37.7455 ], [ -122.22282, 37.74554 ] ] } },
{ "type": "Feature", "properties": { "n": "Doolittle Drive", "h": "art" }, "geometry": { "type": "LineString", "coordinates": [ [ -122.22276, 37.74554 ], [ -122.22209, 37.74549 ] ] } },
{ "type": "Feature", "properties": { "n": "Doolittle Drive", "h": "art" }, "geometry": { "type": "LineString", "coordinates": [ [ -122.22197, 37.74547 ], [ -122.22136, 37.74534 ] ] } },
{ "type": "Feature", "properties": { "n": "Doolittle Drive", "h": "art" }, "geometry": { "type": "LineString", "coordinates": [ [ -122.22061, 37.74507 ], [ -122.21985, 37.74464 ] ] } },
{ "type": "Feature", "properties": { "n": "Maitland Drive", "h": "col" }, "geometry": { "type": "LineString", "coordinates": [ [ -122.23425, 37.73382 ], [ -122.23434, 37.73408 ], [ -122.23809, 37.73864 ], [ -122.23823, 37.7387 ] ] } },
{ "type": "Feature", "properties": { "n": "Saratoga Street", "h": "col" }, "geometry": { "type": "LineString", "coordinates": [ [ -122.30267, 37.7895 ], [ -122.30249, 37.7894 ], [ -122.30196, 37.78872 ] ] } },
{ "type": "Feature", "properties": { "n": "Navy Way", "h": "col" }, "geometry": { "type": "LineString", "coordinates": [ [ -122.3026, 37.78963 ], [ -122.30254, 37.78967 ], [ -122.30252, 37.78986 ], [ -122.30257, 37.78994 ] ] } },
{ "type": "Feature", "properties": { "n": "Lakeside Drive", "h": "col" }, "geometry": { "type": "LineString", "coordinates": [ [ -122.26279, 37.80603 ], [ -122.26288, 37.80616 ] ] } },
{ "type": "Feature", "properties": { "n": "Ron Cowan Parkway", "h": "art" }, "geometry": { "type": "LineString", "coordinates": [ [ -122.20685, 37.71957 ], [ -122.20754, 37.72011 ], [ -122.20871, 37.7208 ] ] } },
{ "type": "Feature", "properties": { "n": "Island Drive", "h": "art" }, "geometry": { "type": "LineString", "coordinates": [ [ -122.23772, 37.74317 ], [ -122.23787, 37.74249 ], [ -122.23781, 37.7415 ], [ -122.23818, 37.74004 ] ] } },
{ "type": "Feature", "properties": { "n": "Island Drive", "h": "art" }, "geometry": { "type": "LineString", "coordinates": [ [ -122.23986, 37.7356 ], [ -122.23957, 37.73578 ], [ -122.23937, 37.73604 ] ] } },
{ "type": "Feature", "properties": { "n": "Island Drive", "h": "art" }, "geometry": { "type": "LineString", "coordinates": [ [ -122.23896, 37.73654 ], [ -122.23871, 37.73693 ] ] } },
{ "type": "Feature", "properties": { "n": "Harbor Bay Parkway", "h": "art" }, "geometry": { "type": "LineString", "coordinates": [ [ -122.22664, 37.7441 ], [ -122.22664, 37.7435 ] ] } },
{ "type": "Feature", "properties": { "n": "Harbor Bay Parkway", "h": "art" }, "geometry": { "type": "LineString", "coordinates": [ [ -122.22663, 37.74307 ], [ -122.22665, 37.7343 ] ] } },
{ "type": "Feature", "properties": { "n": "Harbor Bay Parkway", "h": "art" }, "geometry": { "type": "LineString", "coordinates": [ [ -122.22664, 37.7441 ], [ -122.22659, 37.74488 ] ] } },
{ "type": "Feature", "properties": { "n": "Doolittle Drive", "h": "art" }, "geometry": { "type": "LineString", "coordinates": [ [ -122.22667, 37.74537 ], [ -122.22753, 37.74536 ] ] } },
{ "type": "Feature", "properties": { "n": "Ron Cowan Parkway", "h": "art" }, "geometry": { "type": "LineString", "coordinates": [ [ -122.22825, 37.72733 ], [ -122.22745, 37.72695 ] ] } },
{ "type": "Feature", "properties": { "n": "Mariner Square Drive", "h": "col" }, "geometry": { "type": "LineString", "coordinates": [ [ -122.27611, 37.78548 ], [ -122.27637, 37.78601 ], [ -122.27645, 37.78631 ], [ -122.2765, 37.78714 ], [ -122.27641, 37.78767 ] ] } },
{ "type": "Feature", "properties": { "n": "Mecartney Road", "h": "art" }, "geometry": { "type": "LineString", "coordinates": [ [ -122.23896, 37.73547 ], [ -122.23913, 37.73557 ], [ -122.23981, 37.73573 ] ] } },
{ "type": "Feature", "properties": { "n": "Mecartney Road", "h": "art" }, "geometry": { "type": "LineString", "coordinates": [ [ -122.23896, 37.73547 ], [ -122.23713, 37.73512 ], [ -122.23541, 37.73435 ] ] } },
{ "type": "Feature", "properties": { "n": "Mecartney Road", "h": "art" }, "geometry": { "type": "LineString", "coordinates": [ [ -122.24178, 37.73604 ], [ -122.24159, 37.736 ] ] } },
{ "type": "Feature", "properties": { "n": "Harbor Bay Parkway", "h": "art" }, "geometry": { "type": "LineString", "coordinates": [ [ -122.22665, 37.7343 ], [ -122.22703, 37.73335 ], [ -122.2293, 37.72915 ] ] } },
{ "type": "Feature", "properties": { "n": "Harbor Bay Parkway", "h": "art" }, "geometry": { "type": "LineString", "coordinates": [ [ -122.22912, 37.7291 ], [ -122.22685, 37.73329 ], [ -122.22668, 37.73375 ] ] } },
{ "type": "Feature", "properties": { "n": "Airport Drive", "h": "art" }, "geometry": { "type": "LineString", "coordinates": [ [ -122.20837, 37.71673 ], [ -122.20903, 37.71664 ] ] } },
{ "type": "Feature", "properties": { "n": "Maitland Drive", "h": "art" }, "geometry": { "type": "LineString", "coordinates": [ [ -122.2293, 37.72915 ], [ -122.23026, 37.72944 ], [ -122.23062, 37.72962 ], [ -122.23161, 37.73076 ] ] } },
{ "type": "Feature", "properties": { "n": "Main Street", "h": "col" }, "geometry": { "type": "LineString", "coordinates": [ [ -122.29299, 37.78885 ], [ -122.29331, 37.78914 ], [ -122.29374, 37.78939 ] ] } },
{ "type": "Feature", "properties": { "n": "Main Street", "h": "col" }, "geometry": { "type": "LineString", "coordinates": [ [ -122.29609, 37.78973 ], [ -122.29906, 37.78989 ] ] } },
{ "type": "Feature", "properties": { "n": "Main Street", "h": "col" }, "geometry": { "type": "LineString", "coordinates": [ [ -122.29933, 37.7899 ], [ -122.30089, 37.78999 ], [ -122.30229, 37.79015 ], [ -122.30248, 37.79008 ], [ -122.30257, 37.78994 ] ] } },
{ "type": "Feature", "properties": { "n": "Navy Way", "h": "col" }, "geometry": { "type": "LineString", "coordinates": [ [ -122.30257, 37.78994 ], [ -122.30265, 37.78968 ], [ -122.3026, 37.78963 ] ] } },
{ "type": "Feature", "properties": { "n": "Lexington Street", "h": "col" }, "geometry": { "type": "LineString", "coordinates": [ [ -122.30339, 37.78879 ], [ -122.30358, 37.78651 ] ] } },
{ "type": "Feature", "properties": { "n": "Saratoga Street", "h": "col" }, "geometry": { "type": "LineString", "coordinates": [ [ -122.30196, 37.78872 ], [ -122.3021, 37.78684 ] ] } },
{ "type": "Feature", "properties": { "n": "Marina Village Parkway", "h": "col" }, "geometry": { "type": "LineString", "coordinates": [ [ -122.27613, 37.788 ], [ -122.27561, 37.78781 ] ] } },
{ "type": "Feature", "properties": { "n": "Mariner Square Loop", "h": "col" }, "geometry": { "type": "LineString", "coordinates": [ [ -122.27727, 37.78821 ], [ -122.27695, 37.78807 ] ] } },
{ "type": "Feature", "properties": { "n": "Mariner Square Loop", "h": "col" }, "geometry": { "type": "LineString", "coordinates": [ [ -122.27662, 37.78813 ], [ -122.27703, 37.7882 ] ] } },
{ "type": "Feature", "properties": { "n": "Webster Street", "h": "art" }, "geometry": { "type": "LineString", "coordinates": [ [ -122.27652, 37.78403 ], [ -122.27655, 37.78464 ] ] } },
{ "type": "Feature", "properties": { "n": "Webster Street", "h": "art" }, "geometry": { "type": "LineString", "coordinates": [ [ -122.27656, 37.78471 ], [ -122.2766, 37.78554 ] ] } },
{ "type": "Feature", "properties": { "n": "Willie Stargell Avenue", "h": "col" }, "geometry": { "type": "LineString", "coordinates": [ [ -122.2765, 37.7834 ], [ -122.27701, 37.78344 ] ] } },
{ "type": "Feature", "properties": { "n": "Main Street", "h": "col" }, "geometry": { "type": "LineString", "coordinates": [ [ -122.2914, 37.78554 ], [ -122.29143, 37.78621 ], [ -122.29163, 37.78687 ] ] } },
{ "type": "Feature", "properties": { "n": "Marina Village Parkway", "h": "col" }, "geometry": { "type": "LineString", "coordinates": [ [ -122.27546, 37.78781 ], [ -122.27584, 37.78802 ] ] } },
{ "type": "Feature", "properties": { "n": "Webster Street", "h": "art" }, "geometry": { "type": "LineString", "coordinates": [ [ -122.27683, 37.78409 ], [ -122.27668, 37.78343 ] ] } },
{ "type": "Feature", "properties": { "n": "Webster Street", "h": "art" }, "geometry": { "type": "LineString", "coordinates": [ [ -122.2766, 37.78554 ], [ -122.27662, 37.78614 ] ] } },
{ "type": "Feature", "properties": { "n": "Airport Drive", "h": "art" }, "geometry": { "type": "LineString", "coordinates": [ [ -122.20763, 37.71422 ], [ -122.20803, 37.71513 ] ] } },
{ "type": "Feature", "properties": { "n": "Airport Drive", "h": "art" }, "geometry": { "type": "LineString", "coordinates": [ [ -122.21003, 37.71664 ], [ -122.21055, 37.71665 ] ] } },
{ "type": "Feature", "properties": { "n": "Ron Cowan Parkway", "h": "art" }, "geometry": { "type": "LineString", "coordinates": [ [ -122.21729, 37.72319 ], [ -122.2209, 37.72434 ] ] } },
{ "type": "Feature", "properties": { "n": "Ron Cowan Parkway", "h": "art" }, "geometry": { "type": "LineString", "coordinates": [ [ -122.22142, 37.7245 ], [ -122.22478, 37.72558 ], [ -122.22578, 37.72606 ] ] } },
{ "type": "Feature", "properties": { "n": "Ron Cowan Parkway", "h": "art" }, "geometry": { "type": "LineString", "coordinates": [ [ -122.21735, 37.72308 ], [ -122.21635, 37.72276 ] ] } },
{ "type": "Feature", "properties": { "n": "Ron Cowan Parkway", "h": "art" }, "geometry": { "type": "LineString", "coordinates": [ [ -122.21487, 37.72229 ], [ -122.21098, 37.72145 ], [ -122.20976, 37.72111 ], [ -122.20886, 37.72075 ], [ -122.2082, 37.72041 ], [ -122.20695, 37.71953 ] ] } },
{ "type": "Feature", "properties": { "n": "Ron Cowan Parkway", "h": "art" }, "geometry": { "type": "LineString", "coordinates": [ [ -122.22481, 37.72547 ], [ -122.21808, 37.72332 ] ] } },
{ "type": "Feature", "properties": { "n": "Airport Drive", "h": "art" }, "geometry": { "type": "LineString", "coordinates": [ [ -122.20813, 37.71608 ], [ -122.20802, 37.71631 ] ] } },
{ "type": "Feature", "properties": { "n": "Mecartney Road", "h": "art" }, "geometry": { "type": "LineString", "coordinates": [ [ -122.23986, 37.7356 ], [ -122.23917, 37.73546 ], [ -122.23896, 37.73547 ] ] } },
{ "type": "Feature", "properties": { "n": "Mariner Square Drive", "h": "col" }, "geometry": { "type": "LineString", "coordinates": [ [ -122.27649, 37.78782 ], [ -122.2766, 37.78804 ] ] } },
{ "type": "Feature", "properties": { "n": "Bessie Coleman Drive", "h": "art" }, "geometry": { "type": "LineString", "coordinates": [ [ -122.20194, 37.7199 ], [ -122.20272, 37.71914 ] ] } },
{ "type": "Feature", "properties": { "n": "I 880", "h": "fwy" }, "geometry": { "type": "LineString", "coordinates": [ [ -122.07164, 37.61347 ], [ -122.07133, 37.61304 ] ] } },
{ "type": "Feature", "properties": { "n": "Webster Street", "h": "art" }, "geometry": { "type": "LineString", "coordinates": [ [ -122.2765, 37.78283 ], [ -122.2765, 37.7834 ] ] } },
{ "type": "Feature", "properties": { "n": "Webster Street", "h": "art" }, "geometry": { "type": "LineString", "coordinates": [ [ -122.2765, 37.7834 ], [ -122.27651, 37.78362 ] ] } },
{ "type": "Feature", "properties": { "n": "Webster Street", "h": "art" }, "geometry": { "type": "LineString", "coordinates": [ [ -122.27668, 37.78336 ], [ -122.27663, 37.78166 ] ] } },
{ "type": "Feature", "properties": { "n": "Willie Stargell Avenue", "h": "col" }, "geometry": { "type": "LineString", "coordinates": [ [ -122.2914, 37.78489 ], [ -122.29092, 37.78485 ] ] } },
{ "type": "Feature", "properties": { "n": "Doolittle Drive", "h": "art" }, "geometry": { "type": "LineString", "coordinates": [ [ -122.22676, 37.74523 ], [ -122.22658, 37.74524 ] ] } },
{ "type": "Feature", "properties": { "n": "Doolittle Drive", "h": "art" }, "geometry": { "type": "LineString", "coordinates": [ [ -122.22616, 37.74539 ], [ -122.22667, 37.74537 ] ] } },
{ "type": "Feature", "properties": { "n": "Doolittle Drive", "h": "art" }, "geometry": { "type": "LineString", "coordinates": [ [ -122.22619, 37.74526 ], [ -122.22574, 37.74527 ] ] } },
{ "type": "Feature", "properties": { "n": "Doolittle Drive", "h": "art" }, "geometry": { "type": "LineString", "coordinates": [ [ -122.22724, 37.74522 ], [ -122.22676, 37.74523 ] ] } },
{ "type": "Feature", "properties": { "n": "Doolittle Drive", "h": "art" }, "geometry": { "type": "LineString", "coordinates": [ [ -122.22549, 37.74528 ], [ -122.22449, 37.7454 ] ] } },
{ "type": "Feature", "properties": { "n": "Doolittle Drive", "h": "art" }, "geometry": { "type": "LineString", "coordinates": [ [ -122.22753, 37.74523 ], [ -122.22724, 37.74522 ] ] } },
{ "type": "Feature", "properties": { "n": "Harbor Bay Parkway", "h": "art" }, "geometry": { "type": "LineString", "coordinates": [ [ -122.22659, 37.74488 ], [ -122.22658, 37.74524 ] ] } },
{ "type": "Feature", "properties": { "n": "Harbor Bay Parkway", "h": "art" }, "geometry": { "type": "LineString", "coordinates": [ [ -122.22658, 37.74524 ], [ -122.22667, 37.74537 ] ] } },
{ "type": "Feature", "properties": { "n": "Harbor Bay Parkway", "h": "art" }, "geometry": { "type": "LineString", "coordinates": [ [ -122.22667, 37.74537 ], [ -122.22676, 37.74523 ] ] } },
{ "type": "Feature", "properties": { "n": "Harbor Bay Parkway", "h": "art" }, "geometry": { "type": "LineString", "coordinates": [ [ -122.22674, 37.74463 ], [ -122.22664, 37.7441 ] ] } },
{ "type": "Feature", "properties": { "n": "Island Drive", "h": "art" }, "geometry": { "type": "LineString", "coordinates": [ [ -122.23981, 37.73573 ], [ -122.23986, 37.7356 ] ] } },
{ "type": "Feature", "properties": { "n": "Island Drive", "h": "art" }, "geometry": { "type": "LineString", "coordinates": [ [ -122.23943, 37.73624 ], [ -122.23981, 37.73573 ] ] } },
{ "type": "Feature", "properties": { "n": "Mecartney Road", "h": "art" }, "geometry": { "type": "LineString", "coordinates": [ [ -122.23981, 37.73573 ], [ -122.24106, 37.73602 ] ] } },
{ "type": "Feature", "properties": { "n": "Mecartney Road", "h": "art" }, "geometry": { "type": "LineString", "coordinates": [ [ -122.24159, 37.736 ], [ -122.24111, 37.73589 ] ] } },
{ "type": "Feature", "properties": { "n": "Mecartney Road", "h": "art" }, "geometry": { "type": "LineString", "coordinates": [ [ -122.24054, 37.73576 ], [ -122.23986, 37.7356 ] ] } },
{ "type": "Feature", "properties": { "n": "Mecartney Road", "h": "art" }, "geometry": { "type": "LineString", "coordinates": [ [ -122.24111, 37.73589 ], [ -122.24054, 37.73576 ] ] } },
{ "type": "Feature", "properties": { "n": "Harbor Bay Parkway", "h": "art" }, "geometry": { "type": "LineString", "coordinates": [ [ -122.22668, 37.73375 ], [ -122.22665, 37.7343 ] ] } },
{ "type": "Feature", "properties": { "n": "Harbor Bay Parkway", "h": "art" }, "geometry": { "type": "LineString", "coordinates": [ [ -122.22923, 37.72879 ], [ -122.22912, 37.7291 ] ] } },
{ "type": "Feature", "properties": { "n": "Ron Cowan Parkway", "h": "art" }, "geometry": { "type": "LineString", "coordinates": [ [ -122.21808, 37.72332 ], [ -122.21735, 37.72308 ] ] } },
{ "type": "Feature", "properties": { "n": "Ron Cowan Parkway", "h": "art" }, "geometry": { "type": "LineString", "coordinates": [ [ -122.22866, 37.72741 ], [ -122.22825, 37.72733 ] ] } },
{ "type": "Feature", "properties": { "n": "Airport Drive", "h": "art" }, "geometry": { "type": "LineString", "coordinates": [ [ -122.20803, 37.71513 ], [ -122.20817, 37.71561 ], [ -122.20813, 37.71608 ] ] } },
{ "type": "Feature", "properties": { "n": "John Glenn Drive", "h": "col" }, "geometry": { "type": "LineString", "coordinates": [ [ -122.20784, 37.71712 ], [ -122.20805, 37.71704 ] ] } },
{ "type": "Feature", "properties": { "n": "John Glenn Drive", "h": "col" }, "geometry": { "type": "LineString", "coordinates": [ [ -122.2059, 37.71784 ], [ -122.20784, 37.71712 ] ] } },
{ "type": "Feature", "properties": { "n": "Ron Cowan Parkway", "h": "art" }, "geometry": { "type": "LineString", "coordinates": [ [ -122.20572, 37.71836 ], [ -122.20608, 37.71881 ] ] } },
{ "type": "Feature", "properties": { "n": "Ron Cowan Parkway", "h": "art" }, "geometry": { "type": "LineString", "coordinates": [ [ -122.20611, 37.71884 ], [ -122.20624, 37.71899 ] ] } },
{ "type": "Feature", "properties": { "n": "Ron Cowan Parkway", "h": "art" }, "geometry": { "type": "LineString", "coordinates": [ [ -122.2058, 37.71819 ], [ -122.20562, 37.71795 ] ] } },
{ "type": "Feature", "properties": { "n": "Ron Cowan Parkway", "h": "art" }, "geometry": { "type": "LineString", "coordinates": [ [ -122.20525, 37.71747 ], [ -122.2055, 37.71799 ] ] } },
{ "type": "Feature", "properties": { "n": "Ron Cowan Parkway", "h": "art" }, "geometry": { "type": "LineString", "coordinates": [ [ -122.20557, 37.71787 ], [ -122.20525, 37.71747 ] ] } },
{ "type": "Feature", "properties": { "n": "Island Drive", "h": "art" }, "geometry": { "type": "LineString", "coordinates": [ [ -122.23808, 37.73929 ], [ -122.238, 37.73962 ] ] } },
{ "type": "Feature", "properties": { "n": "Island Drive", "h": "art" }, "geometry": { "type": "LineString", "coordinates": [ [ -122.2384, 37.73908 ], [ -122.23848, 37.73874 ] ] } },
{ "type": "Feature", "properties": { "n": "Island Drive", "h": "art" }, "geometry": { "type": "LineString", "coordinates": [ [ -122.23818, 37.74004 ], [ -122.23827, 37.73965 ] ] } },
{ "type": "Feature", "properties": { "n": "Island Drive", "h": "art" }, "geometry": { "type": "LineString", "coordinates": [ [ -122.23691, 37.74517 ], [ -122.23756, 37.74358 ] ] } },
{ "type": "Feature", "properties": { "n": "Island Drive", "h": "art" }, "geometry": { "type": "LineString", "coordinates": [ [ -122.23866, 37.73796 ], [ -122.23878, 37.73745 ] ] } },
{ "type": "Feature", "properties": { "n": "Island Drive", "h": "art" }, "geometry": { "type": "LineString", "coordinates": [ [ -122.23827, 37.73965 ], [ -122.2384, 37.73908 ] ] } },
{ "type": "Feature", "properties": { "n": "Island Drive", "h": "art" }, "geometry": { "type": "LineString", "coordinates": [ [ -122.23848, 37.73874 ], [ -122.23866, 37.73796 ] ] } },
{ "type": "Feature", "properties": { "n": "Island Drive", "h": "art" }, "geometry": { "type": "LineString", "coordinates": [ [ -122.23615, 37.74621 ], [ -122.23604, 37.74642 ] ] } },
{ "type": "Feature", "properties": { "n": "Island Drive", "h": "art" }, "geometry": { "type": "LineString", "coordinates": [ [ -122.23679, 37.74547 ], [ -122.23691, 37.74517 ] ] } },
{ "type": "Feature", "properties": { "n": "Island Drive", "h": "art" }, "geometry": { "type": "LineString", "coordinates": [ [ -122.23631, 37.74586 ], [ -122.23615, 37.74621 ] ] } },
{ "type": "Feature", "properties": { "n": "Island Drive", "h": "art" }, "geometry": { "type": "LineString", "coordinates": [ [ -122.23834, 37.73824 ], [ -122.23823, 37.7387 ] ] } },
{ "type": "Feature", "properties": { "n": "Island Drive", "h": "art" }, "geometry": { "type": "LineString", "coordinates": [ [ -122.23756, 37.74358 ], [ -122.23772, 37.74317 ] ] } },
{ "type": "Feature", "properties": { "n": "Island Drive", "h": "art" }, "geometry": { "type": "LineString", "coordinates": [ [ -122.23823, 37.7387 ], [ -122.23808, 37.73929 ] ] } },
{ "type": "Feature", "properties": { "n": "Island Drive", "h": "art" }, "geometry": { "type": "LineString", "coordinates": [ [ -122.23897, 37.73683 ], [ -122.23938, 37.73629 ] ] } },
{ "type": "Feature", "properties": { "n": "Island Drive", "h": "art" }, "geometry": { "type": "LineString", "coordinates": [ [ -122.23871, 37.73693 ], [ -122.23856, 37.73742 ] ] } },
{ "type": "Feature", "properties": { "n": "Island Drive", "h": "art" }, "geometry": { "type": "LineString", "coordinates": [ [ -122.23856, 37.73742 ], [ -122.23834, 37.73824 ] ] } },
{ "type": "Feature", "properties": { "n": "Island Drive", "h": "art" }, "geometry": { "type": "LineString", "coordinates": [ [ -122.23878, 37.73745 ], [ -122.23897, 37.73683 ] ] } },
{ "type": "Feature", "properties": { "n": "Island Drive", "h": "art" }, "geometry": { "type": "LineString", "coordinates": [ [ -122.23617, 37.74641 ], [ -122.23625, 37.74618 ], [ -122.23679, 37.74547 ] ] } },
{ "type": "Feature", "properties": { "n": "Island Drive", "h": "art" }, "geometry": { "type": "LineString", "coordinates": [ [ -122.23757, 37.74266 ], [ -122.23728, 37.74343 ] ] } },
{ "type": "Feature", "properties": { "n": "Island Drive", "h": "art" }, "geometry": { "type": "LineString", "coordinates": [ [ -122.238, 37.73962 ], [ -122.23756, 37.74155 ], [ -122.2376, 37.74241 ] ] } },
{ "type": "Feature", "properties": { "n": "Mecartney Road", "h": "art" }, "geometry": { "type": "LineString", "coordinates": [ [ -122.24106, 37.73602 ], [ -122.24142, 37.7361 ] ] } },
{ "type": "Feature", "properties": { "n": "Robert Davey Junior Drive", "h": "art" }, "geometry": { "type": "LineString", "coordinates": [ [ -122.23815, 37.74325 ], [ -122.23772, 37.74317 ] ] } },
{ "type": "Feature", "properties": { "n": "Willie Stargell Avenue", "h": "col" }, "geometry": { "type": "LineString", "coordinates": [ [ -122.27668, 37.78336 ], [ -122.2765, 37.7834 ] ] } },
{ "type": "Feature", "properties": { "n": "Willie Stargell Avenue", "h": "col" }, "geometry": { "type": "LineString", "coordinates": [ [ -122.27712, 37.78336 ], [ -122.27668, 37.78336 ] ] } },
{ "type": "Feature", "properties": { "n": "Marina Village Parkway", "h": "col" }, "geometry": { "type": "LineString", "coordinates": [ [ -122.27599, 37.78807 ], [ -122.27662, 37.78813 ] ] } },
{ "type": "Feature", "properties": { "n": "Mariner Square Drive", "h": "col" }, "geometry": { "type": "LineString", "coordinates": [ [ -122.27606, 37.78466 ], [ -122.27606, 37.78511 ] ] } },
{ "type": "Feature", "properties": { "n": "Mariner Square Drive", "h": "col" }, "geometry": { "type": "LineString", "coordinates": [ [ -122.27606, 37.78511 ], [ -122.27611, 37.78548 ] ] } },
{ "type": "Feature", "properties": { "n": "Embarcadero West", "h": "art" }, "geometry": { "type": "LineString", "coordinates": [ [ -122.2675, 37.79145 ], [ -122.26713, 37.79158 ] ] } },
{ "type": "Feature", "properties": { "n": "Embarcadero West", "h": "art" }, "geometry": { "type": "LineString", "coordinates": [ [ -122.26708, 37.79172 ], [ -122.26753, 37.79157 ] ] } },
{ "type": "Feature", "properties": { "n": "Embarcadero West", "h": "art" }, "geometry": { "type": "LineString", "coordinates": [ [ -122.26713, 37.79158 ], [ -122.2669, 37.79161 ], [ -122.26653, 37.79156 ] ] } },
{ "type": "Feature", "properties": { "n": "Embarcadero West", "h": "art" }, "geometry": { "type": "LineString", "coordinates": [ [ -122.26643, 37.79153 ], [ -122.26586, 37.7914 ] ] } },
{ "type": "Feature", "properties": { "n": "Mariner Square Loop", "h": "col" }, "geometry": { "type": "LineString", "coordinates": [ [ -122.27695, 37.78807 ], [ -122.2766, 37.78804 ] ] } },
{ "type": "Feature", "properties": { "n": "Ron Cowan Parkway", "h": "art" }, "geometry": { "type": "LineString", "coordinates": [ [ -122.21031, 37.72142 ], [ -122.21131, 37.72165 ] ] } },
{ "type": "Feature", "properties": { "n": "Ron Cowan Parkway", "h": "art" }, "geometry": { "type": "LineString", "coordinates": [ [ -122.20625, 37.71882 ], [ -122.20605, 37.71857 ] ] } },
{ "type": "Feature", "properties": { "n": "Ron Cowan Parkway", "h": "art" }, "geometry": { "type": "LineString", "coordinates": [ [ -122.21131, 37.72165 ], [ -122.21468, 37.72235 ] ] } },
{ "type": "Feature", "properties": { "n": "Union City Boulevard", "h": "art" }, "geometry": { "type": "LineString", "coordinates": [ [ -122.08099, 37.59507 ], [ -122.081, 37.5938 ] ] } },
{ "type": "Feature", "properties": { "n": "Mariner Square Drive", "h": "col" }, "geometry": { "type": "LineString", "coordinates": [ [ -122.27641, 37.78767 ], [ -122.27649, 37.78782 ] ] } },
{ "type": "Feature", "properties": { "n": "Main Street", "h": "col" }, "geometry": { "type": "LineString", "coordinates": [ [ -122.29137, 37.78309 ], [ -122.2914, 37.78489 ] ] } },
{ "type": "Feature", "properties": { "n": "Webster Street", "h": "art" }, "geometry": { "type": "LineString", "coordinates": [ [ -122.27662, 37.78614 ], [ -122.27664, 37.78744 ] ] } },
{ "type": "Feature", "properties": { "n": "Webster Street", "h": "art" }, "geometry": { "type": "LineString", "coordinates": [ [ -122.27651, 37.78362 ], [ -122.27652, 37.78403 ] ] } },
{ "type": "Feature", "properties": { "n": "Robert Davey Junior Drive", "h": "art" }, "geometry": { "type": "LineString", "coordinates": [ [ -122.23772, 37.74317 ], [ -122.23808, 37.74335 ] ] } },
{ "type": "Feature", "properties": { "n": "Mariner Square Drive", "h": "col" }, "geometry": { "type": "LineString", "coordinates": [ [ -122.27666, 37.78853 ], [ -122.27668, 37.78986 ] ] } },
{ "type": "Feature", "properties": { "n": "Lexington Street", "h": "col" }, "geometry": { "type": "LineString", "coordinates": [ [ -122.30267, 37.7895 ], [ -122.30339, 37.78879 ] ] } },
{ "type": "Feature", "properties": { "n": "Airport Drive", "h": "art" }, "geometry": { "type": "LineString", "coordinates": [ [ -122.20903, 37.71664 ], [ -122.21003, 37.71664 ] ] } },
{ "type": "Feature", "properties": { "n": "Harbor Bay Parkway", "h": "art" }, "geometry": { "type": "LineString", "coordinates": [ [ -122.2293, 37.72915 ], [ -122.2294, 37.72887 ] ] } },
{ "type": "Feature", "properties": { "n": "Maitland Drive", "h": "art" }, "geometry": { "type": "LineString", "coordinates": [ [ -122.22912, 37.7291 ], [ -122.2293, 37.72915 ] ] } },
{ "type": "Feature", "properties": { "n": "Island Drive", "h": "art" }, "geometry": { "type": "LineString", "coordinates": [ [ -122.23728, 37.74343 ], [ -122.23646, 37.74547 ] ] } },
{ "type": "Feature", "properties": { "n": "Maitland Drive", "h": "col" }, "geometry": { "type": "LineString", "coordinates": [ [ -122.23823, 37.7387 ], [ -122.23848, 37.73874 ] ] } },
{ "type": "Feature", "properties": { "n": "Island Drive", "h": "art" }, "geometry": { "type": "LineString", "coordinates": [ [ -122.23646, 37.74547 ], [ -122.23631, 37.74586 ] ] } },
{ "type": "Feature", "properties": { "n": "Island Drive", "h": "art" }, "geometry": { "type": "LineString", "coordinates": [ [ -122.23608, 37.74656 ], [ -122.23617, 37.74641 ] ] } },
{ "type": "Feature", "properties": { "n": "Ron Cowan Parkway", "h": "art" }, "geometry": { "type": "LineString", "coordinates": [ [ -122.2055, 37.71799 ], [ -122.20572, 37.71836 ] ] } },
{ "type": "Feature", "properties": { "n": "Main Street", "h": "col" }, "geometry": { "type": "LineString", "coordinates": [ [ -122.29374, 37.78939 ], [ -122.2946, 37.78963 ] ] } },
{ "type": "Feature", "properties": { "n": "Ron Cowan Parkway", "h": "art" }, "geometry": { "type": "LineString", "coordinates": [ [ -122.20871, 37.7208 ], [ -122.20953, 37.72117 ], [ -122.21031, 37.72142 ] ] } },
{ "type": "Feature", "properties": { "n": "I 80", "h": "fwy" }, "geometry": { "type": "LineString", "coordinates": [ [ -122.31738, 37.82424 ], [ -122.31781, 37.82419 ] ] } },
{ "type": "Feature", "properties": { "n": "Wilma Chan Way", "h": "art" }, "geometry": { "type": "LineString", "coordinates": [ [ -122.27548, 37.78315 ], [ -122.27583, 37.78368 ] ] } },
{ "type": "Feature", "properties": { "n": "Main Street", "h": "col" }, "geometry": { "type": "LineString", "coordinates": [ [ -122.2914, 37.78489 ], [ -122.2914, 37.78554 ] ] } },
{ "type": "Feature", "properties": { "n": "Main Street", "h": "col" }, "geometry": { "type": "LineString", "coordinates": [ [ -122.29191, 37.78734 ], [ -122.29274, 37.78854 ] ] } },
{ "type": "Feature", "properties": { "n": "Main Street", "h": "col" }, "geometry": { "type": "LineString", "coordinates": [ [ -122.29274, 37.78854 ], [ -122.29299, 37.78885 ] ] } },
{ "type": "Feature", "properties": { "n": "Main Street", "h": "col" }, "geometry": { "type": "LineString", "coordinates": [ [ -122.29163, 37.78687 ], [ -122.29191, 37.78734 ] ] } },
{ "type": "Feature", "properties": { "n": "Main Street", "h": "col" }, "geometry": { "type": "LineString", "coordinates": [ [ -122.29529, 37.78969 ], [ -122.29609, 37.78973 ] ] } },
{ "type": "Feature", "properties": { "n": "Main Street", "h": "col" }, "geometry": { "type": "LineString", "coordinates": [ [ -122.2946, 37.78963 ], [ -122.29529, 37.78969 ] ] } },
{ "type": "Feature", "properties": { "n": "Marina Village Parkway", "h": "col" }, "geometry": { "type": "LineString", "coordinates": [ [ -122.2766, 37.78804 ], [ -122.27613, 37.788 ] ] } },
{ "type": "Feature", "properties": { "n": "Mariner Square Loop", "h": "col" }, "geometry": { "type": "LineString", "coordinates": [ [ -122.27703, 37.7882 ], [ -122.27729, 37.78825 ] ] } },
{ "type": "Feature", "properties": { "n": "Airport Drive", "h": "art" }, "geometry": { "type": "LineString", "coordinates": [ [ -122.20765, 37.71334 ], [ -122.20755, 37.71387 ], [ -122.20763, 37.71422 ] ] } },
{ "type": "Feature", "properties": { "n": "Ron Cowan Parkway", "h": "art" }, "geometry": { "type": "LineString", "coordinates": [ [ -122.21645, 37.72291 ], [ -122.21729, 37.72319 ] ] } },
{ "type": "Feature", "properties": { "n": "Doolittle Drive", "h": "art" }, "geometry": { "type": "LineString", "coordinates": [ [ -122.22658, 37.74524 ], [ -122.22619, 37.74526 ] ] } },
{ "type": "Feature", "properties": { "n": "Doolittle Drive", "h": "art" }, "geometry": { "type": "LineString", "coordinates": [ [ -122.22574, 37.74527 ], [ -122.22549, 37.74528 ] ] } },
{ "type": "Feature", "properties": { "n": "Embarcadero West", "h": "art" }, "geometry": { "type": "LineString", "coordinates": [ [ -122.26586, 37.7914 ], [ -122.26614, 37.79151 ] ] } },
{ "type": "Feature", "properties": { "n": "Ron Cowan Parkway", "h": "art" }, "geometry": { "type": "LineString", "coordinates": [ [ -122.20605, 37.71857 ], [ -122.20587, 37.71831 ] ] } },
{ "type": "Feature", "properties": { "n": "Maitland Drive", "h": "art" }, "geometry": { "type": "LineString", "coordinates": [ [ -122.23161, 37.73076 ], [ -122.23402, 37.73368 ], [ -122.23425, 37.73382 ] ] } },
{ "type": "Feature", "properties": { "n": "Mecartney Road", "h": "art" }, "geometry": { "type": "LineString", "coordinates": [ [ -122.23541, 37.73435 ], [ -122.23501, 37.73416 ] ] } },
{ "type": "Feature", "properties": { "n": "Mecartney Road", "h": "art" }, "geometry": { "type": "LineString", "coordinates": [ [ -122.23501, 37.73416 ], [ -122.23425, 37.73382 ] ] } },
{ "type": "Feature", "properties": { "n": "Ron Cowan Parkway", "h": "art" }, "geometry": { "type": "LineString", "coordinates": [ [ -122.2058, 37.71819 ], [ -122.2057, 37.71791 ] ] } },
{ "type": "Feature", "properties": { "n": "John Glenn Drive", "h": "col" }, "geometry": { "type": "LineString", "coordinates": [ [ -122.2057, 37.71791 ], [ -122.2059, 37.71784 ] ] } },
{ "type": "Feature", "properties": { "n": "Ron Cowan Parkway", "h": "art" }, "geometry": { "type": "LineString", "coordinates": [ [ -122.2057, 37.71791 ], [ -122.2054, 37.71742 ] ] } },
{ "type": "Feature", "properties": { "n": "Lexington Street", "h": "col" }, "geometry": { "type": "LineString", "coordinates": [ [ -122.3026, 37.78963 ], [ -122.30267, 37.7895 ] ] } },
{ "type": "Feature", "properties": { "n": "Island Drive", "h": "art" }, "geometry": { "type": "LineString", "coordinates": [ [ -122.2376, 37.74241 ], [ -122.23758, 37.74264 ] ] } },
{ "type": "Feature", "properties": { "n": "I 880", "h": "fwy" }, "geometry": { "type": "LineString", "coordinates": [ [ -122.07099, 37.61304 ], [ -122.07134, 37.61353 ] ] } }
]
}
