{
"type": "FeatureCollection",
"name": "bay_3ft",
"crs": { "type": "name", "properties": { "name": "urn:ogc:def:crs:OGC:1.3:CRS84" } },
"xy_coordinate_resolution": 1e-05,
"features": [
{ "type": "Feature", "properties": { "n": "West Midway Avenue", "h": "col" }, "geometry": { "type": "LineString", "coordinates": [ [ -122.2914, 37.78489 ], [ -122.29186, 37.7849 ] ] } },
{ "type": "Feature", "properties": { "n": "Mariner Square Drive", "h": "col" }, "geometry": { "type": "LineString", "coordinates": [ [ -122.27662, 37.78813 ], [ -122.27666, 37.78853 ] ] } },
{ "type": "Feature", "properties": { "n": "Embarcadero West", "h": "art" }, "geometry": { "type": "LineString", "coordinates": [ [ -122.26534, 37.79127 ], [ -122.26586, 37.7914 ] ] } },
{ "type": "Feature", "properties": { "n": "Webster Street", "h": "art" }, "geometry": { "type": "LineString", "coordinates": [ [ -122.27645, 37.78059 ], [ -122.27646, 37.78107 ] ] } },
{ "type": "Feature", "properties": { "n": "Webster Street", "h": "art" }, "geometry": { "type": "LineString", "coordinates": [ [ -122.27646, 37.78112 ], [ -122.27647, 37.78129 ] ] } },
{ "type": "Feature", "properties": { "n": "Webster Street", "h": "art" }, "geometry": { "type": "LineString", "coordinates": [ [ -122.27647, 37.78137 ], [ -122.27647, 37.78161 ] ] } },
{ "type": "Feature", "properties": { "n": "Webster Street", "h": "art" }, "geometry": { "type": "LineString", "coordinates": [ [ -122.27649, 37.78223 ], [ -122.27649, 37.7824 ] ] } },
{ "type": "Feature", "properties": { "n": "Harbor Bay Parkway", "h": "art" }, "geometry": { "type": "LineString", "coordinates": [ [ -122.22676, 37.74523 ], [ -122.22674, 37.74463 ] ] } },
{ "type": "Feature", "properties": { "n": "Doolittle Drive", "h": "art" }, "geometry": { "type": "LineString", "coordinates": [ [ -122.22384, 37.74549 ], [ -122.22284, 37.74554 ], [ -122.22222, 37.7455 ], [ -122.22104, 37.74523 ] ] } },
{ "type": "Feature", "properties": { "n": "Doolittle Drive", "h": "art" }, "geometry": { "type": "LineString", "coordinates": [ [ -122.22094, 37.7452 ], [ -122.21986, 37.74464 ], [ -122.21918, 37.74403 ] ] } },
{ "type": "Feature", "properties": { "n": "Doolittle Drive", "h": "art" }, "geometry": { "type": "LineString", "coordinates": [ [ -122.21893, 37.74375 ], [ -122.21872, 37.74349 ] ] } },
{ "type": "Feature", "properties": { "n": "Doolittle Drive", "h": "art" }, "geometry": { "type": "LineString", "coordinates": [ [ -122.21851, 37.74323 ], [ -122.21813, 37.74276 ] ] } },
{ "type": "Feature", "properties": { "n": "Doolittle Drive", "h": "art" }, "geometry": { "type": "LineString", "coordinates": [ [ -122.21778, 37.74234 ], [ -122.21767, 37.74221 ] ] } },
{ "type": "Feature", "properties": { "n": "Maitland Drive", "h": "col" }, "geometry": { "type": "LineString", "coordinates": [ [ -122.23425, 37.73382 ], [ -122.23434, 37.73408 ], [ -122.23809, 37.73864 ], [ -122.23823, 37.7387 ] ] } },
{ "type": "Feature", "properties": { "n": "Willie Stargell Avenue", "h": "col" }, "geometry": { "type": "LineString", "coordinates": [ [ -122.29092, 37.78485 ], [ -122.29073, 37.78483 ] ] } },
{ "type": "Feature", "properties": { "n": "Saratoga Street", "h": "col" }, "geometry": { "type": "LineString", "coordinates": [ [ -122.30267, 37.7895 ], [ -122.30249, 37.7894 ], [ -122.30196, 37.78872 ] ] } },
{ "type": "Feature", "properties": { "n": "Navy Way", "h": "col" }, "geometry": { "type": "LineString", "coordinates": [ [ -122.3026, 37.78963 ], [ -122.30254, 37.78967 ], [ -122.30252, 37.78986 ], [ -122.30257, 37.78994 ] ] } },
{ "type": "Feature", "properties": { "n": "Fredi Street", "h": "col" }, "geometry": { "type": "LineString", "coordinates": [ [ -122.07742, 37.59352 ], [ -122.07771, 37.59296 ], [ -122.07783, 37.59256 ], [ -122.07784, 37.59227 ], [ -122.07768, 37.59178 ] ] } },
{ "type": "Feature", "properties": { "n": "Regents Boulevard", "h": "col" }, "geometry": { "type": "LineString", "coordinates": [ [ -122.07906, 37.58758 ], [ -122.07819, 37.58712 ] ] } },
{ "type": "Feature", "properties": { "n": "Lakeside Drive", "h": "col" }, "geometry": { "type": "LineString", "coordinates": [ [ -122.26243, 37.80547 ], [ -122.26313, 37.80654 ] ] } },
{ "type": "Feature", "properties": { "n": "Ron Cowan Parkway", "h": "art" }, "geometry": { "type": "LineString", "coordinates": [ [ -122.2067, 37.71944 ], [ -122.20754, 37.72011 ], [ -122.20871, 37.7208 ] ] } },
{ "type": "Feature", "properties": { "n": "Island Drive", "h": "art" }, "geometry": { "type": "LineString", "coordinates": [ [ -122.23772, 37.74317 ], [ -122.23787, 37.74249 ], [ -122.23781, 37.7415 ], [ -122.23818, 37.74004 ] ] } },
{ "type": "Feature", "properties": { "n": "Island Drive", "h": "art" }, "geometry": { "type": "LineString", "coordinates": [ [ -122.23986, 37.7356 ], [ -122.23957, 37.73578 ], [ -122.2389, 37.73662 ], [ -122.23871, 37.73693 ] ] } },
{ "type": "Feature", "properties": { "n": "Harbor Bay Parkway", "h": "art" }, "geometry": { "type": "LineString", "coordinates": [ [ -122.22664, 37.7441 ], [ -122.22665, 37.7343 ] ] } },
{ "type": "Feature", "properties": { "n": "Harbor Bay Parkway", "h": "art" }, "geometry": { "type": "LineString", "coordinates": [ [ -122.22664, 37.7441 ], [ -122.22659, 37.74488 ] ] } },
{ "type": "Feature", "properties": { "n": "Doolittle Drive", "h": "art" }, "geometry": { "type": "LineString", "coordinates": [ [ -122.22667, 37.74537 ], [ -122.22772, 37.74537 ] ] } },
{ "type": "Feature", "properties": { "n": "Doolittle Drive", "h": "art" }, "geometry": { "type": "LineString", "coordinates": [ [ -122.22975, 37.74574 ], [ -122.23007, 37.74581 ] ] } },
{ "type": "Feature", "properties": { "n": "Ron Cowan Parkway", "h": "art" }, "geometry": { "type": "LineString", "coordinates": [ [ -122.22825, 37.72733 ], [ -122.22793, 37.72722 ], [ -122.2274, 37.72692 ] ] } },
{ "type": "Feature", "properties": { "n": "Mariner Square Drive", "h": "col" }, "geometry": { "type": "LineString", "coordinates": [ [ -122.27611, 37.78548 ], [ -122.27637, 37.78601 ], [ -122.27645, 37.78631 ], [ -122.2765, 37.78714 ], [ -122.27641, 37.78767 ] ] } },
{ "type": "Feature", "properties": { "n": "Alvarado Boulevard", "h": "art" }, "geometry": { "type": "LineString", "coordinates": [ [ -122.07771, 37.59165 ], [ -122.07718, 37.59181 ], [ -122.07644, 37.59215 ] ] } },
{ "type": "Feature", "properties": { "n": "Alvarado Boulevard", "h": "art" }, "geometry": { "type": "LineString", "coordinates": [ [ -122.07643, 37.59216 ], [ -122.07602, 37.59234 ], [ -122.0753, 37.59242 ] ] } },
{ "type": "Feature", "properties": { "n": "I 80", "h": "fwy" }, "geometry": { "type": "LineString", "coordinates": [ [ -122.31748, 37.82391 ], [ -122.31789, 37.82383 ] ] } },
{ "type": "Feature", "properties": { "n": "Mecartney Road", "h": "art" }, "geometry": { "type": "LineString", "coordinates": [ [ -122.23896, 37.73547 ], [ -122.23913, 37.73557 ], [ -122.23981, 37.73573 ] ] } },
{ "type": "Feature", "properties": { "n": "Mecartney Road", "h": "art" }, "geometry": { "type": "LineString", "coordinates": [ [ -122.23896, 37.73547 ], [ -122.23713, 37.73512 ], [ -122.23541, 37.73435 ] ] } },
{ "type": "Feature", "properties": { "n": "Mecartney Road", "h": "art" }, "geometry": { "type": "LineString", "coordinates": [ [ -122.24189, 37.73607 ], [ -122.24159, 37.736 ] ] } },
{ "type": "Feature", "properties": { "n": "Alvarado Boulevard", "h": "art" }, "geometry": { "type": "LineString", "coordinates": [ [ -122.0753, 37.59255 ], [ -122.07605, 37.59244 ], [ -122.07696, 37.59204 ] ] } },
{ "type": "Feature", "properties": { "n": "Harbor Bay Parkway", "h": "art" }, "geometry": { "type": "LineString", "coordinates": [ [ -122.22665, 37.7343 ], [ -122.22703, 37.73335 ], [ -122.2293, 37.72915 ] ] } },
{ "type": "Feature", "properties": { "n": "Harbor Bay Parkway", "h": "art" }, "geometry": { "type": "LineString", "coordinates": [ [ -122.22912, 37.7291 ], [ -122.22685, 37.73329 ], [ -122.22668, 37.73375 ] ] } },
{ "type": "Feature", "properties": { "n": "Airport Drive", "h": "art" }, "geometry": { "type": "LineString", "coordinates": [ [ -122.20829, 37.71675 ], [ -122.20903, 37.71664 ] ] } },
{ "type": "Feature", "properties": { "n": "Island Drive", "h": "art" }, "geometry": { "type": "LineString", "coordinates": [ [ -122.23604, 37.74642 ], [ -122.23598, 37.74658 ] ] } },
{ "type": "Feature", "properties": { "n": "Maitland Drive", "h": "art" }, "geometry": { "type": "LineString", "coordinates": [ [ -122.2293, 37.72915 ], [ -122.23026, 37.72944 ], [ -122.23062, 37.72962 ], [ -122.23161, 37.73076 ] ] } },
{ "type": "Feature", "properties": { "n": "Main Street", "h": "col" }, "geometry": { "type": "LineString", "coordinates": [ [ -122.29299, 37.78885 ], [ -122.29331, 37.78914 ], [ -122.29374, 37.78939 ] ] } },
{ "type": "Feature", "properties": { "n": "Main Street", "h": "col" }, "geometry": { "type": "LineString", "coordinates": [ [ -122.29609, 37.78973 ], [ -122.30089, 37.78999 ], [ -122.30216, 37.79015 ], [ -122.30239, 37.79013 ], [ -122.30257, 37.78994 ] ] } },
{ "type": "Feature", "properties": { "n": "Navy Way", "h": "col" }, "geometry": { "type": "LineString", "coordinates": [ [ -122.30257, 37.78994 ], [ -122.30265, 37.78968 ], [ -122.3026, 37.78963 ] ] } },
{ "type": "Feature", "properties": { "n": "Lexington Street", "h": "col" }, "geometry": { "type": "LineString", "coordinates": [ [ -122.30339, 37.78879 ], [ -122.30359, 37.78641 ] ] } },
{ "type": "Feature", "properties": { "n": "Saratoga Street", "h": "col" }, "geometry": { "type": "LineString", "coordinates": [ [ -122.30196, 37.78872 ], [ -122.30211, 37.78673 ] ] } },
{ "type": "Feature", "properties": { "n": "Marina Village Parkway", "h": "col" }, "geometry": { "type": "LineString", "coordinates": [ [ -122.27613, 37.788 ], [ -122.27561, 37.78781 ] ] } },
{ "type": "Feature", "properties": { "n": "Mariner Square Loop", "h": "col" }, "geometry": { "type": "LineString", "coordinates": [ [ -122.27729, 37.78825 ], [ -122.27719, 37.78816 ], [ -122.27695, 37.78807 ] ] } },
{ "type": "Feature", "properties": { "n": "Mariner Square Loop", "h": "col" }, "geometry": { "type": "LineString", "coordinates": [ [ -122.27662, 37.78813 ], [ -122.27703, 37.7882 ] ] } },
{ "type": "Feature", "properties": { "n": "I 580", "h": "fwy" }, "geometry": { "type": "LineString", "coordinates": [ [ -122.3118, 37.89722 ], [ -122.3117, 37.89709 ] ] } },
{ "type": "Feature", "properties": { "n": "Mariner Square Loop", "h": "col" }, "geometry": { "type": "LineString", "coordinates": [ [ -122.27779, 37.78854 ], [ -122.27729, 37.78825 ] ] } },
{ "type": "Feature", "properties": { "n": "Webster Street", "h": "art" }, "geometry": { "type": "LineString", "coordinates": [ [ -122.27663, 37.78164 ], [ -122.27658, 37.7805 ] ] } },
{ "type": "Feature", "properties": { "n": "Webster Street", "h": "art" }, "geometry": { "type": "LineString", "coordinates": [ [ -122.27652, 37.78403 ], [ -122.2766, 37.78554 ] ] } },
{ "type": "Feature", "properties": { "n": "Willie Stargell Avenue", "h": "col" }, "geometry": { "type": "LineString", "coordinates": [ [ -122.2765, 37.7834 ], [ -122.27715, 37.78345 ] ] } },
{ "type": "Feature", "properties": { "n": "Main Street", "h": "col" }, "geometry": { "type": "LineString", "coordinates": [ [ -122.2914, 37.78554 ], [ -122.29143, 37.78621 ], [ -122.29163, 37.78687 ] ] } },
{ "type": "Feature", "properties": { "n": "Marina Village Parkway", "h": "col" }, "geometry": { "type": "LineString", "coordinates": [ [ -122.27542, 37.78778 ], [ -122.27584, 37.78802 ] ] } },
{ "type": "Feature", "properties": { "n": "Webster Street", "h": "art" }, "geometry": { "type": "LineString", "coordinates": [ [ -122.27685, 37.78414 ], [ -122.27668, 37.78343 ] ] } },
{ "type": "Feature", "properties": { "n": "Webster Street", "h": "art" }, "geometry": { "type": "LineString", "coordinates": [ [ -122.2766, 37.78554 ], [ -122.27662, 37.78614 ] ] } },
{ "type": "Feature", "properties": { "n": "Airport Drive", "h": "art" }, "geometry": { "type": "LineString", "coordinates": [ [ -122.20763, 37.71422 ], [ -122.20803, 37.71513 ] ] } },
{ "type": "Feature", "properties": { "n": "Airport Drive", "h": "art" }, "geometry": { "type": "LineString", "coordinates": [ [ -122.21219, 37.71593 ], [ -122.21246, 37.71574 ] ] } },
{ "type": "Feature", "properties": { "n": "Airport Drive", "h": "art" }, "geometry": { "type": "LineString", "coordinates": [ [ -122.20779, 37.71308 ], [ -122.20766, 37.7133 ] ] } },
{ "type": "Feature", "properties": { "n": "Airport Drive", "h": "art" }, "geometry": { "type": "LineString", "coordinates": [ [ -122.21003, 37.71664 ], [ -122.21074, 37.71664 ] ] } },
{ "type": "Feature", "properties": { "n": "Ron Cowan Parkway", "h": "art" }, "geometry": { "type": "LineString", "coordinates": [ [ -122.21729, 37.72319 ], [ -122.22438, 37.72545 ], [ -122.22511, 37.72572 ], [ -122.226, 37.7262 ] ] } },
{ "type": "Feature", "properties": { "n": "Ron Cowan Parkway", "h": "art" }, "geometry": { "type": "LineString", "coordinates": [ [ -122.21735, 37.72308 ], [ -122.21592, 37.72262 ] ] } },
{ "type": "Feature", "properties": { "n": "Ron Cowan Parkway", "h": "art" }, "geometry": { "type": "LineString", "coordinates": [ [ -122.21506, 37.72234 ], [ -122.21427, 37.72212 ], [ -122.21056, 37.72135 ], [ -122.20976, 37.72111 ], [ -122.20886, 37.72075 ], [ -122.2082, 37.72041 ], [ -122.20695, 37.71953 ] ] } },
{ "type": "Feature", "properties": { "n": "Ron Cowan Parkway", "h": "art" }, "geometry": { "type": "LineString", "coordinates": [ [ -122.22505, 37.72557 ], [ -122.21808, 37.72332 ] ] } },
{ "type": "Feature", "properties": { "n": "Airport Drive", "h": "art" }, "geometry": { "type": "LineString", "coordinates": [ [ -122.20813, 37.71608 ], [ -122.20793, 37.71645 ] ] } },
{ "type": "Feature", "properties": { "n": "Robert Davey Junior Drive", "h": "art" }, "geometry": { "type": "LineString", "coordinates": [ [ -122.24129, 37.7448 ], [ -122.24209, 37.74473 ] ] } },
{ "type": "Feature", "properties": { "n": "Mecartney Road", "h": "art" }, "geometry": { "type": "LineString", "coordinates": [ [ -122.23986, 37.7356 ], [ -122.23917, 37.73546 ], [ -122.23896, 37.73547 ] ] } },
{ "type": "Feature", "properties": { "n": "Mariner Square Drive", "h": "col" }, "geometry": { "type": "LineString", "coordinates": [ [ -122.27649, 37.78782 ], [ -122.2766, 37.78804 ] ] } },
{ "type": "Feature", "properties": { "n": "Lakeshore Avenue", "h": "art" }, "geometry": { "type": "LineString", "coordinates": [ [ -122.25459, 37.80045 ], [ -122.25499, 37.80012 ] ] } },
{ "type": "Feature", "properties": { "n": "Bessie Coleman Drive", "h": "art" }, "geometry": { "type": "LineString", "coordinates": [ [ -122.20194, 37.7199 ], [ -122.20279, 37.71909 ] ] } },
{ "type": "Feature", "properties": { "n": "I 880", "h": "fwy" }, "geometry": { "type": "LineString", "coordinates": [ [ -121.92527, 37.46115 ], [ -121.92457, 37.45963 ] ] } },
{ "type": "Feature", "properties": { "n": "I 880", "h": "fwy" }, "geometry": { "type": "LineString", "coordinates": [ [ -122.07164, 37.61347 ], [ -122.07133, 37.61304 ] ] } },
{ "type": "Feature", "properties": { "n": "I 580", "h": "fwy" }, "geometry": { "type": "LineString", "coordinates": [ [ -122.31156, 37.89716 ], [ -122.31166, 37.89728 ] ] } },
{ "type": "Feature", "properties": { "n": "Alvarado Boulevard", "h": "art" }, "geometry": { "type": "LineString", "coordinates": [ [ -122.07828, 37.59159 ], [ -122.07771, 37.59165 ] ] } },
{ "type": "Feature", "properties": { "n": "Alvarado Boulevard", "h": "art" }, "geometry": { "type": "LineString", "coordinates": [ [ -122.07696, 37.59204 ], [ -122.07755, 37.59181 ] ] } },
{ "type": "Feature", "properties": { "n": "Alvarado Boulevard", "h": "art" }, "geometry": { "type": "LineString", "coordinates": [ [ -122.0812, 37.59161 ], [ -122.08073, 37.59159 ] ] } },
{ "type": "Feature", "properties": { "n": "Alvarado Boulevard", "h": "art" }, "geometry": { "type": "LineString", "coordinates": [ [ -122.07768, 37.59178 ], [ -122.07824, 37.59171 ], [ -122.08011, 37.5917 ] ] } },
{ "type": "Feature", "properties": { "n": "Bessie Coleman Drive", "h": "art" }, "geometry": { "type": "LineString", "coordinates": [ [ -122.20183, 37.72003 ], [ -122.20194, 37.7199 ] ] } },
{ "type": "Feature", "properties": { "n": "Bessie Coleman Drive", "h": "art" }, "geometry": { "type": "LineString", "coordinates": [ [ -122.20139, 37.72066 ], [ -122.20183, 37.72003 ] ] } },
{ "type": "Feature", "properties": { "n": "Hegenberger Road", "h": "art" }, "geometry": { "type": "LineString", "coordinates": [ [ -122.20082, 37.72324 ], [ -122.2008, 37.72307 ] ] } },
{ "type": "Feature", "properties": { "n": "Webster Street", "h": "art" }, "geometry": { "type": "LineString", "coordinates": [ [ -122.2765, 37.78283 ], [ -122.2765, 37.7834 ] ] } },
{ "type": "Feature", "properties": { "n": "Webster Street", "h": "art" }, "geometry": { "type": "LineString", "coordinates": [ [ -122.2765, 37.7834 ], [ -122.27651, 37.78362 ] ] } },
{ "type": "Feature", "properties": { "n": "Webster Street", "h": "art" }, "geometry": { "type": "LineString", "coordinates": [ [ -122.27649, 37.7824 ], [ -122.2765, 37.78283 ] ] } },
{ "type": "Feature", "properties": { "n": "Webster Street", "h": "art" }, "geometry": { "type": "LineString", "coordinates": [ [ -122.27668, 37.78336 ], [ -122.27663, 37.78164 ] ] } },
{ "type": "Feature", "properties": { "n": "Willie Stargell Avenue", "h": "col" }, "geometry": { "type": "LineString", "coordinates": [ [ -122.2914, 37.78489 ], [ -122.29092, 37.78485 ] ] } },
{ "type": "Feature", "properties": { "n": "Doolittle Drive", "h": "art" }, "geometry": { "type": "LineString", "coordinates": [ [ -122.22676, 37.74523 ], [ -122.22658, 37.74524 ] ] } },
{ "type": "Feature", "properties": { "n": "Doolittle Drive", "h": "art" }, "geometry": { "type": "LineString", "coordinates": [ [ -122.22552, 37.74542 ], [ -122.22667, 37.74537 ] ] } },
{ "type": "Feature", "properties": { "n": "Doolittle Drive", "h": "art" }, "geometry": { "type": "LineString", "coordinates": [ [ -122.22619, 37.74526 ], [ -122.22574, 37.74527 ] ] } },
{ "type": "Feature", "properties": { "n": "Doolittle Drive", "h": "art" }, "geometry": { "type": "LineString", "coordinates": [ [ -122.22724, 37.74522 ], [ -122.22676, 37.74523 ] ] } },
{ "type": "Feature", "properties": { "n": "Doolittle Drive", "h": "art" }, "geometry": { "type": "LineString", "coordinates": [ [ -122.21767, 37.74221 ], [ -122.21743, 37.74191 ] ] } },
{ "type": "Feature", "properties": { "n": "Doolittle Drive", "h": "art" }, "geometry": { "type": "LineString", "coordinates": [ [ -122.22549, 37.74528 ], [ -122.22384, 37.74549 ] ] } },
{ "type": "Feature", "properties": { "n": "Doolittle Drive", "h": "art" }, "geometry": { "type": "LineString", "coordinates": [ [ -122.22384, 37.74549 ], [ -122.22434, 37.74547 ] ] } },
{ "type": "Feature", "properties": { "n": "Doolittle Drive", "h": "art" }, "geometry": { "type": "LineString", "coordinates": [ [ -122.22443, 37.74547 ], [ -122.22498, 37.74544 ] ] } },
{ "type": "Feature", "properties": { "n": "Doolittle Drive", "h": "art" }, "geometry": { "type": "LineString", "coordinates": [ [ -122.22774, 37.74525 ], [ -122.22724, 37.74522 ] ] } },
{ "type": "Feature", "properties": { "n": "Harbor Bay Parkway", "h": "art" }, "geometry": { "type": "LineString", "coordinates": [ [ -122.22659, 37.74488 ], [ -122.22658, 37.74524 ] ] } },
{ "type": "Feature", "properties": { "n": "Harbor Bay Parkway", "h": "art" }, "geometry": { "type": "LineString", "coordinates": [ [ -122.22658, 37.74524 ], [ -122.22667, 37.74537 ] ] } },
{ "type": "Feature", "properties": { "n": "Harbor Bay Parkway", "h": "art" }, "geometry": { "type": "LineString", "coordinates": [ [ -122.22667, 37.74537 ], [ -122.22676, 37.74523 ] ] } },
{ "type": "Feature", "properties": { "n": "Harbor Bay Parkway", "h": "art" }, "geometry": { "type": "LineString", "coordinates": [ [ -122.22674, 37.74463 ], [ -122.22664, 37.7441 ] ] } },
{ "type": "Feature", "properties": { "n": "Island Drive", "h": "art" }, "geometry": { "type": "LineString", "coordinates": [ [ -122.23981, 37.73573 ], [ -122.23986, 37.7356 ] ] } },
{ "type": "Feature", "properties": { "n": "Island Drive", "h": "art" }, "geometry": { "type": "LineString", "coordinates": [ [ -122.23943, 37.73624 ], [ -122.23981, 37.73573 ] ] } },
{ "type": "Feature", "properties": { "n": "Mecartney Road", "h": "art" }, "geometry": { "type": "LineString", "coordinates": [ [ -122.23981, 37.73573 ], [ -122.24106, 37.73602 ] ] } },
{ "type": "Feature", "properties": { "n": "Mecartney Road", "h": "art" }, "geometry": { "type": "LineString", "coordinates": [ [ -122.24159, 37.736 ], [ -122.24111, 37.73589 ] ] } },
{ "type": "Feature", "properties": { "n": "Mecartney Road", "h": "art" }, "geometry": { "type": "LineString", "coordinates": [ [ -122.24054, 37.73576 ], [ -122.23986, 37.7356 ] ] } },
{ "type": "Feature", "properties": { "n": "Mecartney Road", "h": "art" }, "geometry": { "type": "LineString", "coordinates": [ [ -122.24111, 37.73589 ], [ -122.24054, 37.73576 ] ] } },
{ "type": "Feature", "properties": { "n": "Harbor Bay Parkway", "h": "art" }, "geometry": { "type": "LineString", "coordinates": [ [ -122.22668, 37.73375 ], [ -122.22665, 37.7343 ] ] } },
{ "type": "Feature", "properties": { "n": "Harbor Bay Parkway", "h": "art" }, "geometry": { "type": "LineString", "coordinates": [ [ -122.22925, 37.72873 ], [ -122.22912, 37.7291 ] ] } },
{ "type": "Feature", "properties": { "n": "Ron Cowan Parkway", "h": "art" }, "geometry": { "type": "LineString", "coordinates": [ [ -122.21808, 37.72332 ], [ -122.21735, 37.72308 ] ] } },
{ "type": "Feature", "properties": { "n": "Ron Cowan Parkway", "h": "art" }, "geometry": { "type": "LineString", "coordinates": [ [ -122.22866, 37.72741 ], [ -122.22825, 37.72733 ] ] } },
{ "type": "Feature", "properties": { "n": "Airport Drive", "h": "art" }, "geometry": { "type": "LineString", "coordinates": [ [ -122.20803, 37.71513 ], [ -122.20817, 37.71561 ], [ -122.20813, 37.71608 ] ] } },
{ "type": "Feature", "properties": { "n": "John Glenn Drive", "h": "col" }, "geometry": { "type": "LineString", "coordinates": [ [ -122.20784, 37.71712 ], [ -122.20812, 37.71701 ] ] } },
{ "type": "Feature", "properties": { "n": "John Glenn Drive", "h": "col" }, "geometry": { "type": "LineString", "coordinates": [ [ -122.2059, 37.71784 ], [ -122.20784, 37.71712 ] ] } },
{ "type": "Feature", "properties": { "n": "Ron Cowan Parkway", "h": "art" }, "geometry": { "type": "LineString", "coordinates": [ [ -122.20572, 37.71836 ], [ -122.20624, 37.71899 ] ] } },
{ "type": "Feature", "properties": { "n": "Ron Cowan Parkway", "h": "art" }, "geometry": { "type": "LineString", "coordinates": [ [ -122.2058, 37.71819 ], [ -122.20562, 37.71795 ] ] } },
{ "type": "Feature", "properties": { "n": "Ron Cowan Parkway", "h": "art" }, "geometry": { "type": "LineString", "coordinates": [ [ -122.20525, 37.71747 ], [ -122.2055, 37.71799 ] ] } },
{ "type": "Feature", "properties": { "n": "Ron Cowan Parkway", "h": "art" }, "geometry": { "type": "LineString", "coordinates": [ [ -122.20557, 37.71787 ], [ -122.20525, 37.71747 ] ] } },
{ "type": "Feature", "properties": { "n": "Island Drive", "h": "art" }, "geometry": { "type": "LineString", "coordinates": [ [ -122.23808, 37.73929 ], [ -122.238, 37.73962 ] ] } },
{ "type": "Feature", "properties": { "n": "Island Drive", "h": "art" }, "geometry": { "type": "LineString", "coordinates": [ [ -122.2384, 37.73908 ], [ -122.23848, 37.73874 ] ] } },
{ "type": "Feature", "properties": { "n": "Island Drive", "h": "art" }, "geometry": { "type": "LineString", "coordinates": [ [ -122.23818, 37.74004 ], [ -122.23827, 37.73965 ] ] } },
{ "type": "Feature", "properties": { "n": "Island Drive", "h": "art" }, "geometry": { "type": "LineString", "coordinates": [ [ -122.23691, 37.74517 ], [ -122.23756, 37.74358 ] ] } },
{ "type": "Feature", "properties": { "n": "Island Drive", "h": "art" }, "geometry": { "type": "LineString", "coordinates": [ [ -122.23866, 37.73796 ], [ -122.23878, 37.73745 ] ] } },
{ "type": "Feature", "properties": { "n": "Island Drive", "h": "art" }, "geometry": { "type": "LineString", "coordinates": [ [ -122.23827, 37.73965 ], [ -122.2384, 37.73908 ] ] } },
{ "type": "Feature", "properties": { "n": "Island Drive", "h": "art" }, "geometry": { "type": "LineString", "coordinates": [ [ -122.23848, 37.73874 ], [ -122.23866, 37.73796 ] ] } },
{ "type": "Feature", "properties": { "n": "Island Drive", "h": "art" }, "geometry": { "type": "LineString", "coordinates": [ [ -122.23615, 37.74621 ], [ -122.23604, 37.74642 ] ] } },
{ "type": "Feature", "properties": { "n": "Island Drive", "h": "art" }, "geometry": { "type": "LineString", "coordinates": [ [ -122.23679, 37.74547 ], [ -122.23691, 37.74517 ] ] } },
{ "type": "Feature", "properties": { "n": "Island Drive", "h": "art" }, "geometry": { "type": "LineString", "coordinates": [ [ -122.23631, 37.74586 ], [ -122.23615, 37.74621 ] ] } },
{ "type": "Feature", "properties": { "n": "Island Drive", "h": "art" }, "geometry": { "type": "LineString", "coordinates": [ [ -122.23834, 37.73824 ], [ -122.23823, 37.7387 ] ] } },
{ "type": "Feature", "properties": { "n": "Island Drive", "h": "art" }, "geometry": { "type": "LineString", "coordinates": [ [ -122.23756, 37.74358 ], [ -122.23772, 37.74317 ] ] } },
{ "type": "Feature", "properties": { "n": "Island Drive", "h": "art" }, "geometry": { "type": "LineString", "coordinates": [ [ -122.23823, 37.7387 ], [ -122.23808, 37.73929 ] ] } },
{ "type": "Feature", "properties": { "n": "Island Drive", "h": "art" }, "geometry": { "type": "LineString", "coordinates": [ [ -122.23897, 37.73683 ], [ -122.23938, 37.73629 ] ] } },
{ "type": "Feature", "properties": { "n": "Island Drive", "h": "art" }, "geometry": { "type": "LineString", "coordinates": [ [ -122.23871, 37.73693 ], [ -122.23856, 37.73742 ] ] } },
{ "type": "Feature", "properties": { "n": "Island Drive", "h": "art" }, "geometry": { "type": "LineString", "coordinates": [ [ -122.23856, 37.73742 ], [ -122.23834, 37.73824 ] ] } },
{ "type": "Feature", "properties": { "n": "Island Drive", "h": "art" }, "geometry": { "type": "LineString", "coordinates": [ [ -122.23878, 37.73745 ], [ -122.23897, 37.73683 ] ] } },
{ "type": "Feature", "properties": { "n": "Island Drive", "h": "art" }, "geometry": { "type": "LineString", "coordinates": [ [ -122.23617, 37.74641 ], [ -122.23625, 37.74618 ], [ -122.23679, 37.74547 ] ] } },
{ "type": "Feature", "properties": { "n": "Island Drive", "h": "art" }, "geometry": { "type": "LineString", "coordinates": [ [ -122.23757, 37.74266 ], [ -122.23728, 37.74343 ] ] } },
{ "type": "Feature", "properties": { "n": "Island Drive", "h": "art" }, "geometry": { "type": "LineString", "coordinates": [ [ -122.238, 37.73962 ], [ -122.23756, 37.74155 ], [ -122.2376, 37.74241 ] ] } },
{ "type": "Feature", "properties": { "n": "Mecartney Road", "h": "art" }, "geometry": { "type": "LineString", "coordinates": [ [ -122.24106, 37.73602 ], [ -122.24142, 37.7361 ] ] } },
{ "type": "Feature", "properties": { "n": "Robert Davey Junior Drive", "h": "art" }, "geometry": { "type": "LineString", "coordinates": [ [ -122.23979, 37.74419 ], [ -122.23947, 37.74395 ] ] } },
{ "type": "Feature", "properties": { "n": "Robert Davey Junior Drive", "h": "art" }, "geometry": { "type": "LineString", "coordinates": [ [ -122.2391, 37.74383 ], [ -122.23937, 37.74405 ] ] } },
{ "type": "Feature", "properties": { "n": "Robert Davey Junior Drive", "h": "art" }, "geometry": { "type": "LineString", "coordinates": [ [ -122.23815, 37.74325 ], [ -122.23772, 37.74317 ] ] } },
{ "type": "Feature", "properties": { "n": "Robert Davey Junior Drive", "h": "art" }, "geometry": { "type": "LineString", "coordinates": [ [ -122.23808, 37.74335 ], [ -122.23831, 37.74342 ] ] } },
{ "type": "Feature", "properties": { "n": "Robert Davey Junior Drive", "h": "art" }, "geometry": { "type": "LineString", "coordinates": [ [ -122.23938, 37.74389 ], [ -122.23918, 37.74372 ] ] } },
{ "type": "Feature", "properties": { "n": "Willie Stargell Avenue", "h": "col" }, "geometry": { "type": "LineString", "coordinates": [ [ -122.27668, 37.78336 ], [ -122.2765, 37.7834 ] ] } },
{ "type": "Feature", "properties": { "n": "Willie Stargell Avenue", "h": "col" }, "geometry": { "type": "LineString", "coordinates": [ [ -122.27712, 37.78336 ], [ -122.27668, 37.78336 ] ] } },
{ "type": "Feature", "properties": { "n": "Marina Village Parkway", "h": "col" }, "geometry": { "type": "LineString", "coordinates": [ [ -122.27389, 37.78628 ], [ -122.2737, 37.78621 ] ] } },
{ "type": "Feature", "properties": { "n": "Marina Village Parkway", "h": "col" }, "geometry": { "type": "LineString", "coordinates": [ [ -122.27561, 37.78781 ], [ -122.27548, 37.78771 ] ] } },
{ "type": "Feature", "properties": { "n": "Marina Village Parkway", "h": "col" }, "geometry": { "type": "LineString", "coordinates": [ [ -122.27443, 37.78665 ], [ -122.27461, 37.78682 ] ] } },
{ "type": "Feature", "properties": { "n": "Marina Village Parkway", "h": "col" }, "geometry": { "type": "LineString", "coordinates": [ [ -122.27599, 37.78807 ], [ -122.27662, 37.78813 ] ] } },
{ "type": "Feature", "properties": { "n": "Marina Village Parkway", "h": "col" }, "geometry": { "type": "LineString", "coordinates": [ [ -122.27469, 37.78678 ], [ -122.27437, 37.78649 ] ] } },
{ "type": "Feature", "properties": { "n": "Marina Village Parkway", "h": "col" }, "geometry": { "type": "LineString", "coordinates": [ [ -122.27432, 37.78646 ], [ -122.27402, 37.78633 ] ] } },
{ "type": "Feature", "properties": { "n": "Mariner Square Drive", "h": "col" }, "geometry": { "type": "LineString", "coordinates": [ [ -122.27606, 37.78466 ], [ -122.27606, 37.78511 ] ] } },
{ "type": "Feature", "properties": { "n": "Mariner Square Drive", "h": "col" }, "geometry": { "type": "LineString", "coordinates": [ [ -122.27606, 37.78511 ], [ -122.27611, 37.78548 ] ] } },
{ "type": "Feature", "properties": { "n": "Embarcadero West", "h": "art" }, "geometry": { "type": "LineString", "coordinates": [ [ -122.2675, 37.79145 ], [ -122.26713, 37.79158 ] ] } },
{ "type": "Feature", "properties": { "n": "Embarcadero West", "h": "art" }, "geometry": { "type": "LineString", "coordinates": [ [ -122.26698, 37.79173 ], [ -122.26753, 37.79157 ] ] } },
{ "type": "Feature", "properties": { "n": "Embarcadero West", "h": "art" }, "geometry": { "type": "LineString", "coordinates": [ [ -122.26614, 37.79151 ], [ -122.26645, 37.79163 ] ] } },
{ "type": "Feature", "properties": { "n": "Embarcadero West", "h": "art" }, "geometry": { "type": "LineString", "coordinates": [ [ -122.26713, 37.79158 ], [ -122.26678, 37.79161 ], [ -122.26586, 37.7914 ] ] } },
{ "type": "Feature", "properties": { "n": "Mariner Square Loop", "h": "col" }, "geometry": { "type": "LineString", "coordinates": [ [ -122.27695, 37.78807 ], [ -122.2766, 37.78804 ] ] } },
{ "type": "Feature", "properties": { "n": "Ron Cowan Parkway", "h": "art" }, "geometry": { "type": "LineString", "coordinates": [ [ -122.20695, 37.71953 ], [ -122.20667, 37.71927 ] ] } },
{ "type": "Feature", "properties": { "n": "Ron Cowan Parkway", "h": "art" }, "geometry": { "type": "LineString", "coordinates": [ [ -122.21031, 37.72142 ], [ -122.21131, 37.72165 ] ] } },
{ "type": "Feature", "properties": { "n": "Ron Cowan Parkway", "h": "art" }, "geometry": { "type": "LineString", "coordinates": [ [ -122.20636, 37.71894 ], [ -122.20605, 37.71857 ] ] } },
{ "type": "Feature", "properties": { "n": "Ron Cowan Parkway", "h": "art" }, "geometry": { "type": "LineString", "coordinates": [ [ -122.21131, 37.72165 ], [ -122.2138, 37.72214 ], [ -122.21492, 37.72242 ] ] } },
{ "type": "Feature", "properties": { "n": "Alvarado Boulevard", "h": "art" }, "geometry": { "type": "LineString", "coordinates": [ [ -122.08096, 37.5917 ], [ -122.08119, 37.5917 ] ] } },
{ "type": "Feature", "properties": { "n": "Alvarado Boulevard", "h": "art" }, "geometry": { "type": "LineString", "coordinates": [ [ -122.08011, 37.5917 ], [ -122.08096, 37.5917 ] ] } },
{ "type": "Feature", "properties": { "n": "Union City Boulevard", "h": "art" }, "geometry": { "type": "LineString", "coordinates": [ [ -122.08099, 37.59585 ], [ -122.08099, 37.59549 ] ] } },
{ "type": "Feature", "properties": { "n": "Union City Boulevard", "h": "art" }, "geometry": { "type": "LineString", "coordinates": [ [ -122.08105, 37.59246 ], [ -122.08111, 37.59213 ] ] } },
{ "type": "Feature", "properties": { "n": "Union City Boulevard", "h": "art" }, "geometry": { "type": "LineString", "coordinates": [ [ -122.08121, 37.58837 ], [ -122.08122, 37.58766 ] ] } },
{ "type": "Feature", "properties": { "n": "Union City Boulevard", "h": "art" }, "geometry": { "type": "LineString", "coordinates": [ [ -122.08083, 37.595 ], [ -122.08081, 37.59542 ] ] } },
{ "type": "Feature", "properties": { "n": "Union City Boulevard", "h": "art" }, "geometry": { "type": "LineString", "coordinates": [ [ -122.08084, 37.59364 ], [ -122.08083, 37.595 ] ] } },
{ "type": "Feature", "properties": { "n": "Union City Boulevard", "h": "art" }, "geometry": { "type": "LineString", "coordinates": [ [ -122.08095, 37.58687 ], [ -122.08101, 37.58756 ] ] } },
{ "type": "Feature", "properties": { "n": "Union City Boulevard", "h": "art" }, "geometry": { "type": "LineString", "coordinates": [ [ -122.08098, 37.59092 ], [ -122.08097, 37.59159 ] ] } },
{ "type": "Feature", "properties": { "n": "Union City Boulevard", "h": "art" }, "geometry": { "type": "LineString", "coordinates": [ [ -122.08084, 37.59255 ], [ -122.08084, 37.59364 ] ] } },
{ "type": "Feature", "properties": { "n": "Union City Boulevard", "h": "art" }, "geometry": { "type": "LineString", "coordinates": [ [ -122.08096, 37.5917 ], [ -122.08091, 37.59202 ] ] } },
{ "type": "Feature", "properties": { "n": "Union City Boulevard", "h": "art" }, "geometry": { "type": "LineString", "coordinates": [ [ -122.08099, 37.59549 ], [ -122.081, 37.59331 ] ] } },
{ "type": "Feature", "properties": { "n": "Union City Boulevard", "h": "art" }, "geometry": { "type": "LineString", "coordinates": [ [ -122.08101, 37.59283 ], [ -122.08105, 37.59246 ] ] } },
{ "type": "Feature", "properties": { "n": "Union City Boulevard", "h": "art" }, "geometry": { "type": "LineString", "coordinates": [ [ -122.0812, 37.59161 ], [ -122.08122, 37.59061 ] ] } },
{ "type": "Feature", "properties": { "n": "Union City Boulevard", "h": "art" }, "geometry": { "type": "LineString", "coordinates": [ [ -122.08087, 37.58547 ], [ -122.08095, 37.58687 ] ] } },
{ "type": "Feature", "properties": { "n": "Union City Boulevard", "h": "art" }, "geometry": { "type": "LineString", "coordinates": [ [ -122.08122, 37.58756 ], [ -122.08108, 37.58616 ], [ -122.08107, 37.58528 ] ] } },
{ "type": "Feature", "properties": { "n": "Mariner Square Drive", "h": "col" }, "geometry": { "type": "LineString", "coordinates": [ [ -122.27641, 37.78767 ], [ -122.27649, 37.78782 ] ] } },
{ "type": "Feature", "properties": { "n": "Regents Boulevard", "h": "col" }, "geometry": { "type": "LineString", "coordinates": [ [ -122.07906, 37.58758 ], [ -122.07929, 37.58766 ], [ -122.08074, 37.58766 ] ] } },
{ "type": "Feature", "properties": { "n": "Regents Boulevard", "h": "col" }, "geometry": { "type": "LineString", "coordinates": [ [ -122.08122, 37.58756 ], [ -122.07906, 37.58758 ] ] } },
{ "type": "Feature", "properties": { "n": "Main Street", "h": "col" }, "geometry": { "type": "LineString", "coordinates": [ [ -122.29136, 37.78234 ], [ -122.2914, 37.78489 ] ] } },
{ "type": "Feature", "properties": { "n": "Webster Street", "h": "art" }, "geometry": { "type": "LineString", "coordinates": [ [ -122.27662, 37.78614 ], [ -122.27664, 37.78744 ] ] } },
{ "type": "Feature", "properties": { "n": "Webster Street", "h": "art" }, "geometry": { "type": "LineString", "coordinates": [ [ -122.27651, 37.78362 ], [ -122.27652, 37.78403 ] ] } },
{ "type": "Feature", "properties": { "n": "Union City Boulevard", "h": "art" }, "geometry": { "type": "LineString", "coordinates": [ [ -122.08111, 37.59213 ], [ -122.08119, 37.5917 ] ] } },
{ "type": "Feature", "properties": { "n": "Robert Davey Junior Drive", "h": "art" }, "geometry": { "type": "LineString", "coordinates": [ [ -122.23772, 37.74317 ], [ -122.23808, 37.74335 ] ] } },
{ "type": "Feature", "properties": { "n": "I 80", "h": "fwy" }, "geometry": { "type": "LineString", "coordinates": [ [ -122.3173, 37.82413 ], [ -122.31805, 37.82397 ] ] } },
{ "type": "Feature", "properties": { "n": "Mariner Square Drive", "h": "col" }, "geometry": { "type": "LineString", "coordinates": [ [ -122.27666, 37.78853 ], [ -122.27668, 37.79002 ] ] } },
{ "type": "Feature", "properties": { "n": "Mariner Square Drive", "h": "col" }, "geometry": { "type": "LineString", "coordinates": [ [ -122.27669, 37.79053 ], [ -122.27668, 37.7907 ] ] } },
{ "type": "Feature", "properties": { "n": "Lexington Street", "h": "col" }, "geometry": { "type": "LineString", "coordinates": [ [ -122.30267, 37.7895 ], [ -122.30339, 37.78879 ] ] } },
{ "type": "Feature", "properties": { "n": "Airport Drive", "h": "art" }, "geometry": { "type": "LineString", "coordinates": [ [ -122.20903, 37.71664 ], [ -122.21003, 37.71664 ] ] } },
{ "type": "Feature", "properties": { "n": "Harbor Bay Parkway", "h": "art" }, "geometry": { "type": "LineString", "coordinates": [ [ -122.2293, 37.72915 ], [ -122.22942, 37.72879 ] ] } },
{ "type": "Feature", "properties": { "n": "Maitland Drive", "h": "art" }, "geometry": { "type": "LineString", "coordinates": [ [ -122.22912, 37.7291 ], [ -122.2293, 37.72915 ] ] } },
{ "type": "Feature", "properties": { "n": "Island Drive", "h": "art" }, "geometry": { "type": "LineString", "coordinates": [ [ -122.23728, 37.74343 ], [ -122.23646, 37.74547 ] ] } },
{ "type": "Feature", "properties": { "n": "Arden Road", "h": "col" }, "geometry": { "type": "LineString", "coordinates": [ [ -122.11831, 37.62321 ], [ -122.11895, 37.62325 ] ] } },
{ "type": "Feature", "properties": { "n": "Maitland Drive", "h": "col" }, "geometry": { "type": "LineString", "coordinates": [ [ -122.23823, 37.7387 ], [ -122.23848, 37.73874 ] ] } },
{ "type": "Feature", "properties": { "n": "Union City Boulevard", "h": "art" }, "geometry": { "type": "LineString", "coordinates": [ [ -122.08122, 37.59061 ], [ -122.08121, 37.58837 ] ] } },
{ "type": "Feature", "properties": { "n": "Regents Boulevard", "h": "col" }, "geometry": { "type": "LineString", "coordinates": [ [ -122.08074, 37.58766 ], [ -122.08101, 37.58766 ] ] } },
{ "type": "Feature", "properties": { "n": "Alvarado Boulevard", "h": "art" }, "geometry": { "type": "LineString", "coordinates": [ [ -122.08073, 37.59159 ], [ -122.07828, 37.59159 ] ] } },
{ "type": "Feature", "properties": { "n": "Island Drive", "h": "art" }, "geometry": { "type": "LineString", "coordinates": [ [ -122.23646, 37.74547 ], [ -122.23631, 37.74586 ] ] } },
{ "type": "Feature", "properties": { "n": "Robert Davey Junior Drive", "h": "art" }, "geometry": { "type": "LineString", "coordinates": [ [ -122.23937, 37.74405 ], [ -122.23964, 37.74424 ] ] } },
{ "type": "Feature", "properties": { "n": "Union City Boulevard", "h": "art" }, "geometry": { "type": "LineString", "coordinates": [ [ -122.08101, 37.58766 ], [ -122.08099, 37.59062 ] ] } },
{ "type": "Feature", "properties": { "n": "Regents Boulevard", "h": "col" }, "geometry": { "type": "LineString", "coordinates": [ [ -122.08101, 37.58766 ], [ -122.08122, 37.58766 ] ] } },
{ "type": "Feature", "properties": { "n": "Island Drive", "h": "art" }, "geometry": { "type": "LineString", "coordinates": [ [ -122.23605, 37.7466 ], [ -122.23617, 37.74641 ] ] } },
{ "type": "Feature", "properties": { "n": "Lakeside Drive", "h": "col" }, "geometry": { "type": "LineString", "coordinates": [ [ -122.26351, 37.80705 ], [ -122.2632, 37.80665 ] ] } },
{ "type": "Feature", "properties": { "n": "Ron Cowan Parkway", "h": "art" }, "geometry": { "type": "LineString", "coordinates": [ [ -122.2055, 37.71799 ], [ -122.20572, 37.71836 ] ] } },
{ "type": "Feature", "properties": { "n": "Main Street", "h": "col" }, "geometry": { "type": "LineString", "coordinates": [ [ -122.29374, 37.78939 ], [ -122.2946, 37.78963 ] ] } },
{ "type": "Feature", "properties": { "n": "Ron Cowan Parkway", "h": "art" }, "geometry": { "type": "LineString", "coordinates": [ [ -122.20871, 37.7208 ], [ -122.20953, 37.72117 ], [ -122.21031, 37.72142 ] ] } },
{ "type": "Feature", "properties": { "n": "I 80", "h": "fwy" }, "geometry": { "type": "LineString", "coordinates": [ [ -122.31632, 37.82411 ], [ -122.31748, 37.82391 ] ] } },
{ "type": "Feature", "properties": { "n": "I 80", "h": "fwy" }, "geometry": { "type": "LineString", "coordinates": [ [ -122.31714, 37.82428 ], [ -122.31805, 37.82397 ] ] } },
{ "type": "Feature", "properties": { "n": "I 80", "h": "fwy" }, "geometry": { "type": "LineString", "coordinates": [ [ -122.31714, 37.82428 ], [ -122.31811, 37.82413 ] ] } },
{ "type": "Feature", "properties": { "n": "I 80", "h": "fwy" }, "geometry": { "type": "LineString", "coordinates": [ [ -122.31676, 37.82435 ], [ -122.31714, 37.82428 ] ] } },
{ "type": "Feature", "properties": { "n": "I 80", "h": "fwy" }, "geometry": { "type": "LineString", "coordinates": [ [ -122.31722, 37.82402 ], [ -122.31746, 37.82398 ] ] } },
{ "type": "Feature", "properties": { "n": "I 80", "h": "fwy" }, "geometry": { "type": "LineString", "coordinates": [ [ -122.31811, 37.82413 ], [ -122.3184, 37.82404 ] ] } },
{ "type": "Feature", "properties": { "n": "Wilma Chan Way", "h": "art" }, "geometry": { "type": "LineString", "coordinates": [ [ -122.27546, 37.78309 ], [ -122.27586, 37.78373 ] ] } },
{ "type": "Feature", "properties": { "n": "Main Street", "h": "col" }, "geometry": { "type": "LineString", "coordinates": [ [ -122.2914, 37.78489 ], [ -122.2914, 37.78554 ] ] } },
{ "type": "Feature", "properties": { "n": "Main Street", "h": "col" }, "geometry": { "type": "LineString", "coordinates": [ [ -122.29191, 37.78734 ], [ -122.29274, 37.78854 ] ] } },
{ "type": "Feature", "properties": { "n": "Main Street", "h": "col" }, "geometry": { "type": "LineString", "coordinates": [ [ -122.29274, 37.78854 ], [ -122.29299, 37.78885 ] ] } },
{ "type": "Feature", "properties": { "n": "Main Street", "h": "col" }, "geometry": { "type": "LineString", "coordinates": [ [ -122.29163, 37.78687 ], [ -122.29191, 37.78734 ] ] } },
{ "type": "Feature", "properties": { "n": "Main Street", "h": "col" }, "geometry": { "type": "LineString", "coordinates": [ [ -122.29529, 37.78969 ], [ -122.29609, 37.78973 ] ] } },
{ "type": "Feature", "properties": { "n": "Main Street", "h": "col" }, "geometry": { "type": "LineString", "coordinates": [ [ -122.2946, 37.78963 ], [ -122.29529, 37.78969 ] ] } },
{ "type": "Feature", "properties": { "n": "Marina Village Parkway", "h": "col" }, "geometry": { "type": "LineString", "coordinates": [ [ -122.2766, 37.78804 ], [ -122.27613, 37.788 ] ] } },
{ "type": "Feature", "properties": { "n": "Mariner Square Loop", "h": "col" }, "geometry": { "type": "LineString", "coordinates": [ [ -122.27703, 37.7882 ], [ -122.27729, 37.78825 ] ] } },
{ "type": "Feature", "properties": { "n": "Airport Drive", "h": "art" }, "geometry": { "type": "LineString", "coordinates": [ [ -122.20765, 37.71334 ], [ -122.20755, 37.71387 ], [ -122.20763, 37.71422 ] ] } },
{ "type": "Feature", "properties": { "n": "Ron Cowan Parkway", "h": "art" }, "geometry": { "type": "LineString", "coordinates": [ [ -122.21612, 37.72281 ], [ -122.21729, 37.72319 ] ] } },
{ "type": "Feature", "properties": { "n": "Doolittle Drive", "h": "art" }, "geometry": { "type": "LineString", "coordinates": [ [ -122.22658, 37.74524 ], [ -122.22619, 37.74526 ] ] } },
{ "type": "Feature", "properties": { "n": "Doolittle Drive", "h": "art" }, "geometry": { "type": "LineString", "coordinates": [ [ -122.22574, 37.74527 ], [ -122.22549, 37.74528 ] ] } },
{ "type": "Feature", "properties": { "n": "Doolittle Drive", "h": "art" }, "geometry": { "type": "LineString", "coordinates": [ [ -122.22519, 37.74543 ], [ -122.22552, 37.74542 ] ] } },
{ "type": "Feature", "properties": { "n": "Embarcadero West", "h": "art" }, "geometry": { "type": "LineString", "coordinates": [ [ -122.26586, 37.7914 ], [ -122.26614, 37.79151 ] ] } },
{ "type": "Feature", "properties": { "n": "I 80", "h": "fwy" }, "geometry": { "type": "LineString", "coordinates": [ [ -122.31746, 37.82398 ], [ -122.31788, 37.82389 ] ] } },
{ "type": "Feature", "properties": { "n": "Ron Cowan Parkway", "h": "art" }, "geometry": { "type": "LineString", "coordinates": [ [ -122.20605, 37.71857 ], [ -122.20587, 37.71831 ] ] } },
{ "type": "Feature", "properties": { "n": "Maitland Drive", "h": "art" }, "geometry": { "type": "LineString", "coordinates": [ [ -122.23161, 37.73076 ], [ -122.23402, 37.73368 ], [ -122.23425, 37.73382 ] ] } },
{ "type": "Feature", "properties": { "n": "Mecartney Road", "h": "art" }, "geometry": { "type": "LineString", "coordinates": [ [ -122.23541, 37.73435 ], [ -122.23501, 37.73416 ] ] } },
{ "type": "Feature", "properties": { "n": "Mecartney Road", "h": "art" }, "geometry": { "type": "LineString", "coordinates": [ [ -122.23501, 37.73416 ], [ -122.23425, 37.73382 ] ] } },
{ "type": "Feature", "properties": { "n": "Ron Cowan Parkway", "h": "art" }, "geometry": { "type": "LineString", "coordinates": [ [ -122.2058, 37.71819 ], [ -122.2057, 37.71791 ] ] } },
{ "type": "Feature", "properties": { "n": "John Glenn Drive", "h": "col" }, "geometry": { "type": "LineString", "coordinates": [ [ -122.2057, 37.71791 ], [ -122.2059, 37.71784 ] ] } },
{ "type": "Feature", "properties": { "n": "Ron Cowan Parkway", "h": "art" }, "geometry": { "type": "LineString", "coordinates": [ [ -122.2057, 37.71791 ], [ -122.2054, 37.71742 ] ] } },
{ "type": "Feature", "properties": { "n": "I 880", "h": "fwy" }, "geometry": { "type": "LineString", "coordinates": [ [ -121.92435, 37.45913 ], [ -121.92416, 37.4587 ] ] } },
{ "type": "Feature", "properties": { "n": "Lexington Street", "h": "col" }, "geometry": { "type": "LineString", "coordinates": [ [ -122.3026, 37.78963 ], [ -122.30267, 37.7895 ] ] } },
{ "type": "Feature", "properties": { "n": "Island Drive", "h": "art" }, "geometry": { "type": "LineString", "coordinates": [ [ -122.2376, 37.74241 ], [ -122.23758, 37.74264 ] ] } },
{ "type": "Feature", "properties": { "n": "Robert Davey Junior Drive", "h": "art" }, "geometry": { "type": "LineString", "coordinates": [ [ -122.23839, 37.74331 ], [ -122.23815, 37.74325 ] ] } },
{ "type": "Feature", "properties": { "n": "Mecartney Road", "h": "art" }, "geometry": { "type": "LineString", "coordinates": [ [ -122.24142, 37.7361 ], [ -122.24174, 37.73617 ] ] } },
{ "type": "Feature", "properties": { "n": "I 880", "h": "fwy" }, "geometry": { "type": "LineString", "coordinates": [ [ -122.07099, 37.61304 ], [ -122.07134, 37.61353 ] ] } }
]
}
