{
"type": "FeatureCollection",
"name": "low_2ft",
"crs": { "type": "name", "properties": { "name": "urn:ogc:def:crs:OGC:1.3:CRS84" } },
"xy_coordinate_resolution": 1e-05,
"features": [
{ "type": "Feature", "properties": { "n": "Coliseum Way", "h": "art" }, "geometry": { "type": "LineString", "coordinates": [ [ -122.2206, 37.76943 ], [ -122.22078, 37.76969 ] ] } },
{ "type": "Feature", "properties": { "n": "Mariner Square Drive", "h": "col" }, "geometry": { "type": "LineString", "coordinates": [ [ -122.27662, 37.78813 ], [ -122.27666, 37.78853 ] ] } },
{ "type": "Feature", "properties": { "n": "Embarcadero West", "h": "art" }, "geometry": { "type": "LineString", "coordinates": [ [ -122.26561, 37.79134 ], [ -122.26586, 37.7914 ] ] } },
{ "type": "Feature", "properties": { "n": "Harbor Bay Parkway", "h": "art" }, "geometry": { "type": "LineString", "coordinates": [ [ -122.22676, 37.74523 ], [ -122.22674, 37.74463 ] ] } },
{ "type": "Feature", "properties": { "n": "Wicks Boulevard", "h": "col" }, "geometry": { "type": "LineString", "coordinates": [ [ -122.16424, 37.69613 ], [ -122.16375, 37.69543 ] ] } },
{ "type": "Feature", "properties": { "n": "Wicks Boulevard", "h": "col" }, "geometry": { "type": "LineString", "coordinates": [ [ -122.16374, 37.69541 ], [ -122.16364, 37.69526 ] ] } },
{ "type": "Feature", "properties": { "n": "Maitland Drive", "h": "col" }, "geometry": { "type": "LineString", "coordinates": [ [ -122.23425, 37.73382 ], [ -122.23434, 37.73408 ], [ -122.23809, 37.73864 ], [ -122.23823, 37.7387 ] ] } },
{ "type": "Feature", "properties": { "n": "Rocklin Drive", "h": "col" }, "geometry": { "type": "LineString", "coordinates": [ [ -122.06842, 37.5727 ], [ -122.06863, 37.57259 ] ] } },
{ "type": "Feature", "properties": { "n": "Rocklin Drive", "h": "col" }, "geometry": { "type": "LineString", "coordinates": [ [ -122.06894, 37.57244 ], [ -122.07041, 37.57168 ], [ -122.07108, 37.5712 ], [ -122.07155, 37.57058 ], [ -122.07191, 37.56963 ] ] } },
{ "type": "Feature", "properties": { "n": "Rocklin Drive", "h": "col" }, "geometry": { "type": "LineString", "coordinates": [ [ -122.07192, 37.5696 ], [ -122.07212, 37.56903 ] ] } },
{ "type": "Feature", "properties": { "n": "Rocklin Drive", "h": "col" }, "geometry": { "type": "LineString", "coordinates": [ [ -122.07213, 37.56901 ], [ -122.07235, 37.56863 ] ] } },
{ "type": "Feature", "properties": { "n": "Fredi Street", "h": "col" }, "geometry": { "type": "LineString", "coordinates": [ [ -122.07766, 37.59307 ], [ -122.07784, 37.59245 ] ] } },
{ "type": "Feature", "properties": { "n": "Fredi Street", "h": "col" }, "geometry": { "type": "LineString", "coordinates": [ [ -122.07775, 37.59197 ], [ -122.07768, 37.59178 ] ] } },
{ "type": "Feature", "properties": { "n": "Jean Drive", "h": "col" }, "geometry": { "type": "LineString", "coordinates": [ [ -122.07269, 37.57549 ], [ -122.073, 37.57617 ], [ -122.07328, 37.5765 ], [ -122.07521, 37.57776 ], [ -122.07649, 37.57892 ], [ -122.07699, 37.57927 ], [ -122.07807, 37.57986 ] ] } },
{ "type": "Feature", "properties": { "n": "Jean Drive", "h": "col" }, "geometry": { "type": "LineString", "coordinates": [ [ -122.0786, 37.58019 ], [ -122.08041, 37.58134 ] ] } },
{ "type": "Feature", "properties": { "n": "Regents Boulevard", "h": "col" }, "geometry": { "type": "LineString", "coordinates": [ [ -122.07683, 37.58636 ], [ -122.07505, 37.58537 ], [ -122.07466, 37.58498 ] ] } },
{ "type": "Feature", "properties": { "n": "Delores Drive", "h": "col" }, "geometry": { "type": "LineString", "coordinates": [ [ -122.07666, 37.57112 ], [ -122.07694, 37.57092 ] ] } },
{ "type": "Feature", "properties": { "n": "CA 77", "h": "fwy" }, "geometry": { "type": "LineString", "coordinates": [ [ -122.21872, 37.7711 ], [ -122.21814, 37.7715 ] ] } },
{ "type": "Feature", "properties": { "n": "Ron Cowan Parkway", "h": "art" }, "geometry": { "type": "LineString", "coordinates": [ [ -122.20694, 37.71965 ], [ -122.20754, 37.72011 ], [ -122.20871, 37.7208 ] ] } },
{ "type": "Feature", "properties": { "n": "Island Drive", "h": "art" }, "geometry": { "type": "LineString", "coordinates": [ [ -122.23772, 37.74317 ], [ -122.23787, 37.74249 ], [ -122.23781, 37.7415 ], [ -122.23814, 37.74019 ] ] } },
{ "type": "Feature", "properties": { "n": "Harbor Bay Parkway", "h": "art" }, "geometry": { "type": "LineString", "coordinates": [ [ -122.22664, 37.7441 ], [ -122.22664, 37.74364 ] ] } },
{ "type": "Feature", "properties": { "n": "Harbor Bay Parkway", "h": "art" }, "geometry": { "type": "LineString", "coordinates": [ [ -122.22663, 37.74296 ], [ -122.22665, 37.7343 ] ] } },
{ "type": "Feature", "properties": { "n": "Harbor Bay Parkway", "h": "art" }, "geometry": { "type": "LineString", "coordinates": [ [ -122.22664, 37.7441 ], [ -122.22659, 37.74488 ] ] } },
{ "type": "Feature", "properties": { "n": "Otis Drive", "h": "art" }, "geometry": { "type": "LineString", "coordinates": [ [ -122.24095, 37.75328 ], [ -122.24201, 37.75401 ] ] } },
{ "type": "Feature", "properties": { "n": "Ron Cowan Parkway", "h": "art" }, "geometry": { "type": "LineString", "coordinates": [ [ -122.22825, 37.72733 ], [ -122.22753, 37.727 ] ] } },
{ "type": "Feature", "properties": { "n": "98th Avenue", "h": "art" }, "geometry": { "type": "LineString", "coordinates": [ [ -122.20076, 37.72429 ], [ -122.20091, 37.7253 ], [ -122.20079, 37.72592 ], [ -122.20047, 37.72645 ], [ -122.1998, 37.72702 ] ] } },
{ "type": "Feature", "properties": { "n": "Mariner Square Drive", "h": "col" }, "geometry": { "type": "LineString", "coordinates": [ [ -122.27611, 37.78548 ], [ -122.27637, 37.78601 ], [ -122.27645, 37.78631 ], [ -122.2765, 37.78714 ], [ -122.27641, 37.78767 ] ] } },
{ "type": "Feature", "properties": { "n": "Regents Boulevard", "h": "col" }, "geometry": { "type": "LineString", "coordinates": [ [ -122.06842, 37.5727 ], [ -122.06794, 37.5724 ] ] } },
{ "type": "Feature", "properties": { "n": "Regents Boulevard", "h": "col" }, "geometry": { "type": "LineString", "coordinates": [ [ -122.06758, 37.57221 ], [ -122.06711, 37.57204 ], [ -122.06664, 37.572 ] ] } },
{ "type": "Feature", "properties": { "n": "CA 77", "h": "fwy" }, "geometry": { "type": "LineString", "coordinates": [ [ -122.22093, 37.76958 ], [ -122.22078, 37.76969 ] ] } },
{ "type": "Feature", "properties": { "n": "Alvarado Boulevard", "h": "art" }, "geometry": { "type": "LineString", "coordinates": [ [ -122.07771, 37.59165 ], [ -122.07737, 37.59175 ] ] } },
{ "type": "Feature", "properties": { "n": "7th Street", "h": "art" }, "geometry": { "type": "LineString", "coordinates": [ [ -122.30834, 37.80826 ], [ -122.30722, 37.80805 ], [ -122.30606, 37.80802 ] ] } },
{ "type": "Feature", "properties": { "n": "Mecartney Road", "h": "art" }, "geometry": { "type": "LineString", "coordinates": [ [ -122.23896, 37.73547 ], [ -122.23913, 37.73557 ], [ -122.23963, 37.73569 ] ] } },
{ "type": "Feature", "properties": { "n": "Mecartney Road", "h": "art" }, "geometry": { "type": "LineString", "coordinates": [ [ -122.23893, 37.73547 ], [ -122.23713, 37.73512 ], [ -122.23541, 37.73435 ] ] } },
{ "type": "Feature", "properties": { "n": "Regents Boulevard", "h": "col" }, "geometry": { "type": "LineString", "coordinates": [ [ -122.06755, 37.57523 ], [ -122.06778, 37.57476 ], [ -122.06824, 37.57431 ] ] } },
{ "type": "Feature", "properties": { "n": "Harbor Bay Parkway", "h": "art" }, "geometry": { "type": "LineString", "coordinates": [ [ -122.22665, 37.7343 ], [ -122.22703, 37.73335 ], [ -122.2293, 37.72915 ] ] } },
{ "type": "Feature", "properties": { "n": "Harbor Bay Parkway", "h": "art" }, "geometry": { "type": "LineString", "coordinates": [ [ -122.22912, 37.7291 ], [ -122.22685, 37.73329 ], [ -122.22668, 37.73375 ] ] } },
{ "type": "Feature", "properties": { "n": "Airport Drive", "h": "art" }, "geometry": { "type": "LineString", "coordinates": [ [ -122.20848, 37.71671 ], [ -122.20903, 37.71664 ] ] } },
{ "type": "Feature", "properties": { "n": "Maitland Drive", "h": "art" }, "geometry": { "type": "LineString", "coordinates": [ [ -122.2293, 37.72915 ], [ -122.23026, 37.72944 ], [ -122.23062, 37.72962 ], [ -122.23161, 37.73076 ] ] } },
{ "type": "Feature", "properties": { "n": "Marina Village Parkway", "h": "col" }, "geometry": { "type": "LineString", "coordinates": [ [ -122.27613, 37.788 ], [ -122.27561, 37.78781 ] ] } },
{ "type": "Feature", "properties": { "n": "Mariner Square Loop", "h": "col" }, "geometry": { "type": "LineString", "coordinates": [ [ -122.27662, 37.78813 ], [ -122.27703, 37.7882 ] ] } },
{ "type": "Feature", "properties": { "n": "Fremont Boulevard", "h": "art" }, "geometry": { "type": "LineString", "coordinates": [ [ -121.93705, 37.46957 ], [ -121.93656, 37.46911 ] ] } },
{ "type": "Feature", "properties": { "n": "Fremont Boulevard", "h": "art" }, "geometry": { "type": "LineString", "coordinates": [ [ -121.93653, 37.46908 ], [ -121.93484, 37.46748 ] ] } },
{ "type": "Feature", "properties": { "n": "Fremont Boulevard", "h": "art" }, "geometry": { "type": "LineString", "coordinates": [ [ -121.93308, 37.46615 ], [ -121.93244, 37.46576 ] ] } },
{ "type": "Feature", "properties": { "n": "7th Street", "h": "art" }, "geometry": { "type": "LineString", "coordinates": [ [ -122.30522, 37.80788 ], [ -122.30404, 37.80763 ] ] } },
{ "type": "Feature", "properties": { "n": "Webster Street", "h": "art" }, "geometry": { "type": "LineString", "coordinates": [ [ -122.27652, 37.78403 ], [ -122.27653, 37.7843 ] ] } },
{ "type": "Feature", "properties": { "n": "Webster Street", "h": "art" }, "geometry": { "type": "LineString", "coordinates": [ [ -122.27658, 37.78498 ], [ -122.2766, 37.78554 ] ] } },
{ "type": "Feature", "properties": { "n": "Willie Stargell Avenue", "h": "col" }, "geometry": { "type": "LineString", "coordinates": [ [ -122.2765, 37.7834 ], [ -122.2769, 37.78344 ] ] } },
{ "type": "Feature", "properties": { "n": "7th Street", "h": "art" }, "geometry": { "type": "LineString", "coordinates": [ [ -122.30404, 37.80763 ], [ -122.30323, 37.80741 ] ] } },
{ "type": "Feature", "properties": { "n": "Marina Village Parkway", "h": "col" }, "geometry": { "type": "LineString", "coordinates": [ [ -122.27546, 37.78781 ], [ -122.27584, 37.78802 ] ] } },
{ "type": "Feature", "properties": { "n": "Webster Street", "h": "art" }, "geometry": { "type": "LineString", "coordinates": [ [ -122.27681, 37.78404 ], [ -122.27668, 37.78343 ] ] } },
{ "type": "Feature", "properties": { "n": "Webster Street", "h": "art" }, "geometry": { "type": "LineString", "coordinates": [ [ -122.2766, 37.78554 ], [ -122.27661, 37.78584 ] ] } },
{ "type": "Feature", "properties": { "n": "CA 77", "h": "fwy" }, "geometry": { "type": "LineString", "coordinates": [ [ -122.22047, 37.77006 ], [ -122.22086, 37.7698 ] ] } },
{ "type": "Feature", "properties": { "n": "Airport Drive", "h": "art" }, "geometry": { "type": "LineString", "coordinates": [ [ -122.20763, 37.71422 ], [ -122.20803, 37.71513 ] ] } },
{ "type": "Feature", "properties": { "n": "98th Avenue", "h": "art" }, "geometry": { "type": "LineString", "coordinates": [ [ -122.1998, 37.72702 ], [ -122.19922, 37.72731 ] ] } },
{ "type": "Feature", "properties": { "n": "Ron Cowan Parkway", "h": "art" }, "geometry": { "type": "LineString", "coordinates": [ [ -122.21729, 37.72319 ], [ -122.22055, 37.72423 ] ] } },
{ "type": "Feature", "properties": { "n": "Ron Cowan Parkway", "h": "art" }, "geometry": { "type": "LineString", "coordinates": [ [ -122.22193, 37.72467 ], [ -122.22478, 37.72558 ], [ -122.22554, 37.72593 ] ] } },
{ "type": "Feature", "properties": { "n": "Ron Cowan Parkway", "h": "art" }, "geometry": { "type": "LineString", "coordinates": [ [ -122.21735, 37.72308 ], [ -122.21675, 37.72289 ] ] } },
{ "type": "Feature", "properties": { "n": "Ron Cowan Parkway", "h": "art" }, "geometry": { "type": "LineString", "coordinates": [ [ -122.21462, 37.72221 ], [ -122.21098, 37.72145 ], [ -122.20976, 37.72111 ], [ -122.20886, 37.72075 ], [ -122.2082, 37.72041 ], [ -122.20697, 37.71954 ] ] } },
{ "type": "Feature", "properties": { "n": "Ron Cowan Parkway", "h": "art" }, "geometry": { "type": "LineString", "coordinates": [ [ -122.2247, 37.72543 ], [ -122.2208, 37.72418 ] ] } },
{ "type": "Feature", "properties": { "n": "Ron Cowan Parkway", "h": "art" }, "geometry": { "type": "LineString", "coordinates": [ [ -122.22079, 37.72418 ], [ -122.21808, 37.72332 ] ] } },
{ "type": "Feature", "properties": { "n": "Mecartney Road", "h": "art" }, "geometry": { "type": "LineString", "coordinates": [ [ -122.24722, 37.73726 ], [ -122.24775, 37.73727 ] ] } },
{ "type": "Feature", "properties": { "n": "Mecartney Road", "h": "art" }, "geometry": { "type": "LineString", "coordinates": [ [ -122.23986, 37.7356 ], [ -122.23926, 37.73548 ] ] } },
{ "type": "Feature", "properties": { "n": "Mariner Square Drive", "h": "col" }, "geometry": { "type": "LineString", "coordinates": [ [ -122.27649, 37.78782 ], [ -122.2766, 37.78804 ] ] } },
{ "type": "Feature", "properties": { "n": "Marina Boulevard", "h": "col" }, "geometry": { "type": "LineString", "coordinates": [ [ -122.18894, 37.70111 ], [ -122.18872, 37.70129 ] ] } },
{ "type": "Feature", "properties": { "n": "Marina Boulevard", "h": "col" }, "geometry": { "type": "LineString", "coordinates": [ [ -122.18884, 37.70127 ], [ -122.18904, 37.70115 ] ] } },
{ "type": "Feature", "properties": { "n": "Monarch Bay Drive", "h": "col" }, "geometry": { "type": "LineString", "coordinates": [ [ -122.18904, 37.70115 ], [ -122.18933, 37.70091 ], [ -122.18948, 37.70057 ] ] } },
{ "type": "Feature", "properties": { "n": "Monarch Bay Drive", "h": "col" }, "geometry": { "type": "LineString", "coordinates": [ [ -122.18932, 37.70068 ], [ -122.18894, 37.70111 ] ] } },
{ "type": "Feature", "properties": { "n": "Bessie Coleman Drive", "h": "art" }, "geometry": { "type": "LineString", "coordinates": [ [ -122.20223, 37.71959 ], [ -122.20256, 37.71928 ] ] } },
{ "type": "Feature", "properties": { "n": "7th Street", "h": "art" }, "geometry": { "type": "LineString", "coordinates": [ [ -122.30606, 37.80802 ], [ -122.3057, 37.80798 ] ] } },
{ "type": "Feature", "properties": { "n": "7th Street", "h": "art" }, "geometry": { "type": "LineString", "coordinates": [ [ -122.3057, 37.80798 ], [ -122.30522, 37.80788 ] ] } },
{ "type": "Feature", "properties": { "n": "Frontage Road", "h": "art" }, "geometry": { "type": "LineString", "coordinates": [ [ -122.3041, 37.80782 ], [ -122.30404, 37.80763 ] ] } },
{ "type": "Feature", "properties": { "n": "Frontage Road", "h": "art" }, "geometry": { "type": "LineString", "coordinates": [ [ -122.30416, 37.8084 ], [ -122.3041, 37.80782 ] ] } },
{ "type": "Feature", "properties": { "n": "CA 77", "h": "fwy" }, "geometry": { "type": "LineString", "coordinates": [ [ -122.22078, 37.76969 ], [ -122.22041, 37.76994 ] ] } },
{ "type": "Feature", "properties": { "n": "Alvarado Boulevard", "h": "art" }, "geometry": { "type": "LineString", "coordinates": [ [ -122.07813, 37.5916 ], [ -122.07771, 37.59165 ] ] } },
{ "type": "Feature", "properties": { "n": "Alvarado Boulevard", "h": "art" }, "geometry": { "type": "LineString", "coordinates": [ [ -122.07732, 37.59188 ], [ -122.07755, 37.59181 ] ] } },
{ "type": "Feature", "properties": { "n": "Alvarado Boulevard", "h": "art" }, "geometry": { "type": "LineString", "coordinates": [ [ -122.07768, 37.59178 ], [ -122.07824, 37.59171 ], [ -122.08011, 37.5917 ] ] } },
{ "type": "Feature", "properties": { "n": "Webster Street", "h": "art" }, "geometry": { "type": "LineString", "coordinates": [ [ -122.2765, 37.78298 ], [ -122.2765, 37.7834 ] ] } },
{ "type": "Feature", "properties": { "n": "Webster Street", "h": "art" }, "geometry": { "type": "LineString", "coordinates": [ [ -122.2765, 37.7834 ], [ -122.27651, 37.78362 ] ] } },
{ "type": "Feature", "properties": { "n": "Webster Street", "h": "art" }, "geometry": { "type": "LineString", "coordinates": [ [ -122.27668, 37.78336 ], [ -122.27666, 37.78277 ] ] } },
{ "type": "Feature", "properties": { "n": "Doolittle Drive", "h": "art" }, "geometry": { "type": "LineString", "coordinates": [ [ -122.22619, 37.74526 ], [ -122.22574, 37.74527 ] ] } },
{ "type": "Feature", "properties": { "n": "Doolittle Drive", "h": "art" }, "geometry": { "type": "LineString", "coordinates": [ [ -122.22724, 37.74522 ], [ -122.22676, 37.74523 ] ] } },
{ "type": "Feature", "properties": { "n": "Doolittle Drive", "h": "art" }, "geometry": { "type": "LineString", "coordinates": [ [ -122.22549, 37.74528 ], [ -122.22454, 37.74539 ] ] } },
{ "type": "Feature", "properties": { "n": "Doolittle Drive", "h": "art" }, "geometry": { "type": "LineString", "coordinates": [ [ -122.22744, 37.74523 ], [ -122.22724, 37.74522 ] ] } },
{ "type": "Feature", "properties": { "n": "Harbor Bay Parkway", "h": "art" }, "geometry": { "type": "LineString", "coordinates": [ [ -122.22659, 37.74488 ], [ -122.22658, 37.74524 ] ] } },
{ "type": "Feature", "properties": { "n": "Harbor Bay Parkway", "h": "art" }, "geometry": { "type": "LineString", "coordinates": [ [ -122.22674, 37.74463 ], [ -122.22664, 37.7441 ] ] } },
{ "type": "Feature", "properties": { "n": "Broadway", "h": "col" }, "geometry": { "type": "LineString", "coordinates": [ [ -122.24585, 37.75431 ], [ -122.24505, 37.75528 ] ] } },
{ "type": "Feature", "properties": { "n": "Island Drive", "h": "art" }, "geometry": { "type": "LineString", "coordinates": [ [ -122.23971, 37.7359 ], [ -122.23981, 37.73574 ] ] } },
{ "type": "Feature", "properties": { "n": "Mecartney Road", "h": "art" }, "geometry": { "type": "LineString", "coordinates": [ [ -122.23982, 37.73573 ], [ -122.24106, 37.73602 ] ] } },
{ "type": "Feature", "properties": { "n": "Mecartney Road", "h": "art" }, "geometry": { "type": "LineString", "coordinates": [ [ -122.24142, 37.73596 ], [ -122.24111, 37.73589 ] ] } },
{ "type": "Feature", "properties": { "n": "Mecartney Road", "h": "art" }, "geometry": { "type": "LineString", "coordinates": [ [ -122.24034, 37.73571 ], [ -122.23986, 37.7356 ] ] } },
{ "type": "Feature", "properties": { "n": "Mecartney Road", "h": "art" }, "geometry": { "type": "LineString", "coordinates": [ [ -122.24111, 37.73589 ], [ -122.24093, 37.73585 ] ] } },
{ "type": "Feature", "properties": { "n": "Mecartney Road", "h": "art" }, "geometry": { "type": "LineString", "coordinates": [ [ -122.24092, 37.73585 ], [ -122.2406, 37.73578 ] ] } },
{ "type": "Feature", "properties": { "n": "Harbor Bay Parkway", "h": "art" }, "geometry": { "type": "LineString", "coordinates": [ [ -122.22668, 37.73375 ], [ -122.22665, 37.7343 ] ] } },
{ "type": "Feature", "properties": { "n": "Harbor Bay Parkway", "h": "art" }, "geometry": { "type": "LineString", "coordinates": [ [ -122.22919, 37.7289 ], [ -122.22912, 37.7291 ] ] } },
{ "type": "Feature", "properties": { "n": "Ron Cowan Parkway", "h": "art" }, "geometry": { "type": "LineString", "coordinates": [ [ -122.21808, 37.72332 ], [ -122.21735, 37.72308 ] ] } },
{ "type": "Feature", "properties": { "n": "Ron Cowan Parkway", "h": "art" }, "geometry": { "type": "LineString", "coordinates": [ [ -122.22866, 37.72741 ], [ -122.22825, 37.72733 ] ] } },
{ "type": "Feature", "properties": { "n": "Airport Drive", "h": "art" }, "geometry": { "type": "LineString", "coordinates": [ [ -122.20803, 37.71513 ], [ -122.20817, 37.71561 ], [ -122.20814, 37.71604 ] ] } },
{ "type": "Feature", "properties": { "n": "John Glenn Drive", "h": "col" }, "geometry": { "type": "LineString", "coordinates": [ [ -122.2059, 37.71784 ], [ -122.20754, 37.71723 ] ] } },
{ "type": "Feature", "properties": { "n": "Ron Cowan Parkway", "h": "art" }, "geometry": { "type": "LineString", "coordinates": [ [ -122.20572, 37.71836 ], [ -122.20584, 37.71852 ] ] } },
{ "type": "Feature", "properties": { "n": "Ron Cowan Parkway", "h": "art" }, "geometry": { "type": "LineString", "coordinates": [ [ -122.2058, 37.71819 ], [ -122.20562, 37.71795 ] ] } },
{ "type": "Feature", "properties": { "n": "Ron Cowan Parkway", "h": "art" }, "geometry": { "type": "LineString", "coordinates": [ [ -122.20531, 37.71766 ], [ -122.2055, 37.71799 ] ] } },
{ "type": "Feature", "properties": { "n": "Ron Cowan Parkway", "h": "art" }, "geometry": { "type": "LineString", "coordinates": [ [ -122.20557, 37.71787 ], [ -122.20541, 37.71761 ] ] } },
{ "type": "Feature", "properties": { "n": "Island Drive", "h": "art" }, "geometry": { "type": "LineString", "coordinates": [ [ -122.23808, 37.73929 ], [ -122.238, 37.73962 ] ] } },
{ "type": "Feature", "properties": { "n": "Island Drive", "h": "art" }, "geometry": { "type": "LineString", "coordinates": [ [ -122.2384, 37.73908 ], [ -122.23848, 37.73874 ] ] } },
{ "type": "Feature", "properties": { "n": "Island Drive", "h": "art" }, "geometry": { "type": "LineString", "coordinates": [ [ -122.23818, 37.74004 ], [ -122.23827, 37.73965 ] ] } },
{ "type": "Feature", "properties": { "n": "Island Drive", "h": "art" }, "geometry": { "type": "LineString", "coordinates": [ [ -122.23691, 37.74517 ], [ -122.23756, 37.74358 ] ] } },
{ "type": "Feature", "properties": { "n": "Island Drive", "h": "art" }, "geometry": { "type": "LineString", "coordinates": [ [ -122.23869, 37.73783 ], [ -122.23878, 37.73745 ] ] } },
{ "type": "Feature", "properties": { "n": "Island Drive", "h": "art" }, "geometry": { "type": "LineString", "coordinates": [ [ -122.23827, 37.73965 ], [ -122.2384, 37.73908 ] ] } },
{ "type": "Feature", "properties": { "n": "Island Drive", "h": "art" }, "geometry": { "type": "LineString", "coordinates": [ [ -122.23848, 37.73874 ], [ -122.23866, 37.73798 ] ] } },
{ "type": "Feature", "properties": { "n": "Island Drive", "h": "art" }, "geometry": { "type": "LineString", "coordinates": [ [ -122.23615, 37.74621 ], [ -122.23604, 37.74642 ] ] } },
{ "type": "Feature", "properties": { "n": "Island Drive", "h": "art" }, "geometry": { "type": "LineString", "coordinates": [ [ -122.23679, 37.74547 ], [ -122.23691, 37.74517 ] ] } },
{ "type": "Feature", "properties": { "n": "Island Drive", "h": "art" }, "geometry": { "type": "LineString", "coordinates": [ [ -122.23631, 37.74586 ], [ -122.23615, 37.74621 ] ] } },
{ "type": "Feature", "properties": { "n": "Island Drive", "h": "art" }, "geometry": { "type": "LineString", "coordinates": [ [ -122.23834, 37.73824 ], [ -122.23823, 37.7387 ] ] } },
{ "type": "Feature", "properties": { "n": "Island Drive", "h": "art" }, "geometry": { "type": "LineString", "coordinates": [ [ -122.23756, 37.74358 ], [ -122.23772, 37.74317 ] ] } },
{ "type": "Feature", "properties": { "n": "Island Drive", "h": "art" }, "geometry": { "type": "LineString", "coordinates": [ [ -122.23823, 37.7387 ], [ -122.23808, 37.73929 ] ] } },
{ "type": "Feature", "properties": { "n": "Island Drive", "h": "art" }, "geometry": { "type": "LineString", "coordinates": [ [ -122.23897, 37.73683 ], [ -122.23931, 37.73639 ] ] } },
{ "type": "Feature", "properties": { "n": "Island Drive", "h": "art" }, "geometry": { "type": "LineString", "coordinates": [ [ -122.23866, 37.73706 ], [ -122.23856, 37.73742 ] ] } },
{ "type": "Feature", "properties": { "n": "Island Drive", "h": "art" }, "geometry": { "type": "LineString", "coordinates": [ [ -122.23856, 37.73742 ], [ -122.23834, 37.73824 ] ] } },
{ "type": "Feature", "properties": { "n": "Island Drive", "h": "art" }, "geometry": { "type": "LineString", "coordinates": [ [ -122.23878, 37.73745 ], [ -122.23897, 37.73683 ] ] } },
{ "type": "Feature", "properties": { "n": "Island Drive", "h": "art" }, "geometry": { "type": "LineString", "coordinates": [ [ -122.23617, 37.74641 ], [ -122.23625, 37.74618 ], [ -122.23679, 37.74547 ] ] } },
{ "type": "Feature", "properties": { "n": "Island Drive", "h": "art" }, "geometry": { "type": "LineString", "coordinates": [ [ -122.23757, 37.74266 ], [ -122.23728, 37.74343 ] ] } },
{ "type": "Feature", "properties": { "n": "Island Drive", "h": "art" }, "geometry": { "type": "LineString", "coordinates": [ [ -122.238, 37.73962 ], [ -122.23756, 37.74155 ], [ -122.2376, 37.74241 ] ] } },
{ "type": "Feature", "properties": { "n": "Mecartney Road", "h": "art" }, "geometry": { "type": "LineString", "coordinates": [ [ -122.2468, 37.73725 ], [ -122.24722, 37.73726 ] ] } },
{ "type": "Feature", "properties": { "n": "Mecartney Road", "h": "art" }, "geometry": { "type": "LineString", "coordinates": [ [ -122.24761, 37.73714 ], [ -122.24721, 37.73713 ] ] } },
{ "type": "Feature", "properties": { "n": "Mecartney Road", "h": "art" }, "geometry": { "type": "LineString", "coordinates": [ [ -122.24782, 37.73714 ], [ -122.24761, 37.73714 ] ] } },
{ "type": "Feature", "properties": { "n": "Mecartney Road", "h": "art" }, "geometry": { "type": "LineString", "coordinates": [ [ -122.24721, 37.73713 ], [ -122.2468, 37.7371 ] ] } },
{ "type": "Feature", "properties": { "n": "Robert Davey Junior Drive", "h": "art" }, "geometry": { "type": "LineString", "coordinates": [ [ -122.23802, 37.74321 ], [ -122.23772, 37.74317 ] ] } },
{ "type": "Feature", "properties": { "n": "Willie Stargell Avenue", "h": "col" }, "geometry": { "type": "LineString", "coordinates": [ [ -122.27668, 37.78336 ], [ -122.2765, 37.7834 ] ] } },
{ "type": "Feature", "properties": { "n": "Willie Stargell Avenue", "h": "col" }, "geometry": { "type": "LineString", "coordinates": [ [ -122.27707, 37.78336 ], [ -122.27668, 37.78336 ] ] } },
{ "type": "Feature", "properties": { "n": "Marina Village Parkway", "h": "col" }, "geometry": { "type": "LineString", "coordinates": [ [ -122.27599, 37.78807 ], [ -122.27662, 37.78813 ] ] } },
{ "type": "Feature", "properties": { "n": "Mariner Square Drive", "h": "col" }, "geometry": { "type": "LineString", "coordinates": [ [ -122.27606, 37.78466 ], [ -122.27606, 37.78511 ] ] } },
{ "type": "Feature", "properties": { "n": "Mariner Square Drive", "h": "col" }, "geometry": { "type": "LineString", "coordinates": [ [ -122.27606, 37.78511 ], [ -122.27611, 37.78548 ] ] } },
{ "type": "Feature", "properties": { "n": "Embarcadero West", "h": "art" }, "geometry": { "type": "LineString", "coordinates": [ [ -122.26612, 37.79145 ], [ -122.26586, 37.7914 ] ] } },
{ "type": "Feature", "properties": { "n": "Mariner Square Loop", "h": "col" }, "geometry": { "type": "LineString", "coordinates": [ [ -122.27695, 37.78807 ], [ -122.2766, 37.78804 ] ] } },
{ "type": "Feature", "properties": { "n": "Ron Cowan Parkway", "h": "art" }, "geometry": { "type": "LineString", "coordinates": [ [ -122.21031, 37.72142 ], [ -122.21131, 37.72165 ] ] } },
{ "type": "Feature", "properties": { "n": "Ron Cowan Parkway", "h": "art" }, "geometry": { "type": "LineString", "coordinates": [ [ -122.21131, 37.72165 ], [ -122.21225, 37.72184 ] ] } },
{ "type": "Feature", "properties": { "n": "Ron Cowan Parkway", "h": "art" }, "geometry": { "type": "LineString", "coordinates": [ [ -122.21225, 37.72184 ], [ -122.21454, 37.72231 ] ] } },
{ "type": "Feature", "properties": { "n": "Alvarado Boulevard", "h": "art" }, "geometry": { "type": "LineString", "coordinates": [ [ -122.08011, 37.5917 ], [ -122.08077, 37.5917 ] ] } },
{ "type": "Feature", "properties": { "n": "Kato Road", "h": "col" }, "geometry": { "type": "LineString", "coordinates": [ [ -121.91991, 37.46191 ], [ -121.91829, 37.46243 ] ] } },
{ "type": "Feature", "properties": { "n": "Mariner Square Drive", "h": "col" }, "geometry": { "type": "LineString", "coordinates": [ [ -122.27641, 37.78767 ], [ -122.27649, 37.78782 ] ] } },
{ "type": "Feature", "properties": { "n": "Regents Boulevard", "h": "col" }, "geometry": { "type": "LineString", "coordinates": [ [ -122.07925, 37.58765 ], [ -122.08058, 37.58766 ] ] } },
{ "type": "Feature", "properties": { "n": "Regents Boulevard", "h": "col" }, "geometry": { "type": "LineString", "coordinates": [ [ -122.08058, 37.58756 ], [ -122.07931, 37.58757 ] ] } },
{ "type": "Feature", "properties": { "n": "Gateway Boulevard", "h": "col" }, "geometry": { "type": "LineString", "coordinates": [ [ -121.94141, 37.47371 ], [ -121.9417, 37.4735 ] ] } },
{ "type": "Feature", "properties": { "n": "Gateway Boulevard", "h": "col" }, "geometry": { "type": "LineString", "coordinates": [ [ -121.94163, 37.47342 ], [ -121.94132, 37.47363 ] ] } },
{ "type": "Feature", "properties": { "n": "Fremont Boulevard", "h": "art" }, "geometry": { "type": "LineString", "coordinates": [ [ -121.93741, 37.4699 ], [ -121.93705, 37.46957 ] ] } },
{ "type": "Feature", "properties": { "n": "Fremont Boulevard", "h": "art" }, "geometry": { "type": "LineString", "coordinates": [ [ -121.94543, 37.47927 ], [ -121.94556, 37.47851 ] ] } },
{ "type": "Feature", "properties": { "n": "Fremont Boulevard", "h": "art" }, "geometry": { "type": "LineString", "coordinates": [ [ -121.94544, 37.47794 ], [ -121.94502, 37.47716 ] ] } },
{ "type": "Feature", "properties": { "n": "Fremont Boulevard", "h": "art" }, "geometry": { "type": "LineString", "coordinates": [ [ -121.94488, 37.47692 ], [ -121.94473, 37.47666 ] ] } },
{ "type": "Feature", "properties": { "n": "Fremont Boulevard", "h": "art" }, "geometry": { "type": "LineString", "coordinates": [ [ -121.94472, 37.47665 ], [ -121.94443, 37.47616 ] ] } },
{ "type": "Feature", "properties": { "n": "Fremont Boulevard", "h": "art" }, "geometry": { "type": "LineString", "coordinates": [ [ -121.9443, 37.47598 ], [ -121.94381, 37.47538 ] ] } },
{ "type": "Feature", "properties": { "n": "Fremont Boulevard", "h": "art" }, "geometry": { "type": "LineString", "coordinates": [ [ -121.94317, 37.47476 ], [ -121.94257, 37.4742 ] ] } },
{ "type": "Feature", "properties": { "n": "Webster Street", "h": "art" }, "geometry": { "type": "LineString", "coordinates": [ [ -122.27662, 37.78616 ], [ -122.27664, 37.78744 ] ] } },
{ "type": "Feature", "properties": { "n": "CA 77", "h": "fwy" }, "geometry": { "type": "LineString", "coordinates": [ [ -122.21821, 37.77159 ], [ -122.22008, 37.77031 ] ] } },
{ "type": "Feature", "properties": { "n": "Delores Drive", "h": "col" }, "geometry": { "type": "LineString", "coordinates": [ [ -122.06822, 37.5796 ], [ -122.0689, 37.57881 ] ] } },
{ "type": "Feature", "properties": { "n": "Delores Drive", "h": "col" }, "geometry": { "type": "LineString", "coordinates": [ [ -122.06912, 37.57856 ], [ -122.07038, 37.57714 ] ] } },
{ "type": "Feature", "properties": { "n": "Delores Drive", "h": "col" }, "geometry": { "type": "LineString", "coordinates": [ [ -122.07044, 37.57707 ], [ -122.07118, 37.57631 ] ] } },
{ "type": "Feature", "properties": { "n": "Delores Drive", "h": "col" }, "geometry": { "type": "LineString", "coordinates": [ [ -122.07147, 37.57609 ], [ -122.07179, 37.57587 ] ] } },
{ "type": "Feature", "properties": { "n": "Delores Drive", "h": "col" }, "geometry": { "type": "LineString", "coordinates": [ [ -122.07209, 37.57574 ], [ -122.07269, 37.57549 ] ] } },
{ "type": "Feature", "properties": { "n": "Jean Drive", "h": "col" }, "geometry": { "type": "LineString", "coordinates": [ [ -122.06926, 37.57366 ], [ -122.07012, 37.57386 ] ] } },
{ "type": "Feature", "properties": { "n": "Webster Street", "h": "art" }, "geometry": { "type": "LineString", "coordinates": [ [ -122.27651, 37.78362 ], [ -122.27652, 37.78403 ] ] } },
{ "type": "Feature", "properties": { "n": "Monarch Bay Drive", "h": "col" }, "geometry": { "type": "LineString", "coordinates": [ [ -122.18838, 37.69812 ], [ -122.18811, 37.69758 ] ] } },
{ "type": "Feature", "properties": { "n": "Fairway Drive", "h": "col" }, "geometry": { "type": "LineString", "coordinates": [ [ -122.18294, 37.69733 ], [ -122.18318, 37.69723 ] ] } },
{ "type": "Feature", "properties": { "n": "Farallon Drive", "h": "col" }, "geometry": { "type": "LineString", "coordinates": [ [ -122.16621, 37.69261 ], [ -122.16646, 37.69255 ] ] } },
{ "type": "Feature", "properties": { "n": "Farallon Drive", "h": "col" }, "geometry": { "type": "LineString", "coordinates": [ [ -122.16592, 37.69268 ], [ -122.16621, 37.69261 ] ] } },
{ "type": "Feature", "properties": { "n": "Farallon Drive", "h": "col" }, "geometry": { "type": "LineString", "coordinates": [ [ -122.16564, 37.69275 ], [ -122.16592, 37.69268 ] ] } },
{ "type": "Feature", "properties": { "n": "Fairway Drive", "h": "col" }, "geometry": { "type": "LineString", "coordinates": [ [ -122.18229, 37.6975 ], [ -122.18192, 37.69766 ] ] } },
{ "type": "Feature", "properties": { "n": "Fairway Drive", "h": "col" }, "geometry": { "type": "LineString", "coordinates": [ [ -122.18289, 37.69725 ], [ -122.18229, 37.6975 ] ] } },
{ "type": "Feature", "properties": { "n": "Fairway Drive", "h": "col" }, "geometry": { "type": "LineString", "coordinates": [ [ -122.18192, 37.69766 ], [ -122.18016, 37.69839 ] ] } },
{ "type": "Feature", "properties": { "n": "Fairway Drive", "h": "col" }, "geometry": { "type": "LineString", "coordinates": [ [ -122.1825, 37.69751 ], [ -122.18294, 37.69733 ] ] } },
{ "type": "Feature", "properties": { "n": "Fairway Drive", "h": "col" }, "geometry": { "type": "LineString", "coordinates": [ [ -122.18197, 37.69774 ], [ -122.1825, 37.69751 ] ] } },
{ "type": "Feature", "properties": { "n": "Robert Davey Junior Drive", "h": "art" }, "geometry": { "type": "LineString", "coordinates": [ [ -122.23772, 37.74317 ], [ -122.23804, 37.74333 ] ] } },
{ "type": "Feature", "properties": { "n": "CA 77", "h": "fwy" }, "geometry": { "type": "LineString", "coordinates": [ [ -122.21997, 37.77023 ], [ -122.21872, 37.7711 ] ] } },
{ "type": "Feature", "properties": { "n": "Fremont Boulevard", "h": "art" }, "geometry": { "type": "LineString", "coordinates": [ [ -121.94199, 37.47365 ], [ -121.94184, 37.47352 ] ] } },
{ "type": "Feature", "properties": { "n": "Fremont Boulevard", "h": "art" }, "geometry": { "type": "LineString", "coordinates": [ [ -121.94168, 37.47336 ], [ -121.94141, 37.47311 ] ] } },
{ "type": "Feature", "properties": { "n": "Fremont Boulevard", "h": "art" }, "geometry": { "type": "LineString", "coordinates": [ [ -121.94093, 37.47266 ], [ -121.94022, 37.47211 ] ] } },
{ "type": "Feature", "properties": { "n": "Fremont Boulevard", "h": "art" }, "geometry": { "type": "LineString", "coordinates": [ [ -121.93963, 37.47166 ], [ -121.93936, 37.47147 ] ] } },
{ "type": "Feature", "properties": { "n": "Fremont Boulevard", "h": "art" }, "geometry": { "type": "LineString", "coordinates": [ [ -121.93919, 37.47134 ], [ -121.93893, 37.47115 ] ] } },
{ "type": "Feature", "properties": { "n": "Fremont Boulevard", "h": "art" }, "geometry": { "type": "LineString", "coordinates": [ [ -121.93865, 37.47094 ], [ -121.93741, 37.4699 ] ] } },
{ "type": "Feature", "properties": { "n": "Mariner Square Drive", "h": "col" }, "geometry": { "type": "LineString", "coordinates": [ [ -122.27666, 37.78853 ], [ -122.27668, 37.78961 ] ] } },
{ "type": "Feature", "properties": { "n": "Airport Drive", "h": "art" }, "geometry": { "type": "LineString", "coordinates": [ [ -122.20903, 37.71664 ], [ -122.21003, 37.71664 ] ] } },
{ "type": "Feature", "properties": { "n": "Harbor Bay Parkway", "h": "art" }, "geometry": { "type": "LineString", "coordinates": [ [ -122.2293, 37.72915 ], [ -122.22936, 37.72898 ] ] } },
{ "type": "Feature", "properties": { "n": "Maitland Drive", "h": "art" }, "geometry": { "type": "LineString", "coordinates": [ [ -122.22912, 37.7291 ], [ -122.2293, 37.72915 ] ] } },
{ "type": "Feature", "properties": { "n": "Island Drive", "h": "art" }, "geometry": { "type": "LineString", "coordinates": [ [ -122.23728, 37.74343 ], [ -122.23646, 37.74547 ] ] } },
{ "type": "Feature", "properties": { "n": "Fairway Drive", "h": "col" }, "geometry": { "type": "LineString", "coordinates": [ [ -122.18016, 37.69849 ], [ -122.18197, 37.69774 ] ] } },
{ "type": "Feature", "properties": { "n": "Marina Boulevard", "h": "col" }, "geometry": { "type": "LineString", "coordinates": [ [ -122.18766, 37.70173 ], [ -122.18836, 37.70144 ] ] } },
{ "type": "Feature", "properties": { "n": "Maitland Drive", "h": "col" }, "geometry": { "type": "LineString", "coordinates": [ [ -122.23823, 37.7387 ], [ -122.23848, 37.73874 ] ] } },
{ "type": "Feature", "properties": { "n": "Regents Boulevard", "h": "col" }, "geometry": { "type": "LineString", "coordinates": [ [ -122.07311, 37.58302 ], [ -122.07287, 37.58271 ] ] } },
{ "type": "Feature", "properties": { "n": "Regents Boulevard", "h": "col" }, "geometry": { "type": "LineString", "coordinates": [ [ -122.07212, 37.58221 ], [ -122.07001, 37.58104 ] ] } },
{ "type": "Feature", "properties": { "n": "Regents Boulevard", "h": "col" }, "geometry": { "type": "LineString", "coordinates": [ [ -122.06999, 37.58102 ], [ -122.06902, 37.58048 ] ] } },
{ "type": "Feature", "properties": { "n": "Regents Boulevard", "h": "col" }, "geometry": { "type": "LineString", "coordinates": [ [ -122.06859, 37.58024 ], [ -122.06797, 37.5799 ] ] } },
{ "type": "Feature", "properties": { "n": "Farallon Drive", "h": "col" }, "geometry": { "type": "LineString", "coordinates": [ [ -122.16403, 37.69315 ], [ -122.16564, 37.69275 ] ] } },
{ "type": "Feature", "properties": { "n": "Farallon Drive", "h": "col" }, "geometry": { "type": "LineString", "coordinates": [ [ -122.16781, 37.69335 ], [ -122.16803, 37.69364 ], [ -122.16839, 37.69386 ] ] } },
{ "type": "Feature", "properties": { "n": "Farallon Drive", "h": "col" }, "geometry": { "type": "LineString", "coordinates": [ [ -122.16646, 37.69255 ], [ -122.16699, 37.69258 ], [ -122.16729, 37.69271 ], [ -122.16747, 37.69287 ] ] } },
{ "type": "Feature", "properties": { "n": "Marina Boulevard", "h": "col" }, "geometry": { "type": "LineString", "coordinates": [ [ -122.18836, 37.70144 ], [ -122.18872, 37.70129 ] ] } },
{ "type": "Feature", "properties": { "n": "Delores Drive", "h": "col" }, "geometry": { "type": "LineString", "coordinates": [ [ -122.07249, 37.57469 ], [ -122.07362, 37.57342 ] ] } },
{ "type": "Feature", "properties": { "n": "Delores Drive", "h": "col" }, "geometry": { "type": "LineString", "coordinates": [ [ -122.07381, 37.57321 ], [ -122.07483, 37.57218 ], [ -122.07666, 37.57112 ] ] } },
{ "type": "Feature", "properties": { "n": "Dyer Street", "h": "art" }, "geometry": { "type": "LineString", "coordinates": [ [ -122.07206, 37.58701 ], [ -122.07218, 37.58687 ] ] } },
{ "type": "Feature", "properties": { "n": "Regents Boulevard", "h": "col" }, "geometry": { "type": "LineString", "coordinates": [ [ -122.07466, 37.58498 ], [ -122.07422, 37.5847 ] ] } },
{ "type": "Feature", "properties": { "n": "Alvarado Boulevard", "h": "art" }, "geometry": { "type": "LineString", "coordinates": [ [ -122.08073, 37.59159 ], [ -122.07885, 37.59159 ] ] } },
{ "type": "Feature", "properties": { "n": "Regents Boulevard", "h": "col" }, "geometry": { "type": "LineString", "coordinates": [ [ -122.0687, 37.57302 ], [ -122.06842, 37.5727 ] ] } },
{ "type": "Feature", "properties": { "n": "Jean Drive", "h": "col" }, "geometry": { "type": "LineString", "coordinates": [ [ -122.07246, 37.57523 ], [ -122.07269, 37.57549 ] ] } },
{ "type": "Feature", "properties": { "n": "Island Drive", "h": "art" }, "geometry": { "type": "LineString", "coordinates": [ [ -122.23646, 37.74547 ], [ -122.23631, 37.74586 ] ] } },
{ "type": "Feature", "properties": { "n": "Island Drive", "h": "art" }, "geometry": { "type": "LineString", "coordinates": [ [ -122.23608, 37.74655 ], [ -122.23617, 37.74641 ] ] } },
{ "type": "Feature", "properties": { "n": "Dyer Street", "h": "art" }, "geometry": { "type": "LineString", "coordinates": [ [ -122.07187, 37.58723 ], [ -122.07206, 37.58701 ] ] } },
{ "type": "Feature", "properties": { "n": "Ron Cowan Parkway", "h": "art" }, "geometry": { "type": "LineString", "coordinates": [ [ -122.2055, 37.71799 ], [ -122.20572, 37.71836 ] ] } },
{ "type": "Feature", "properties": { "n": "7th Street", "h": "art" }, "geometry": { "type": "LineString", "coordinates": [ [ -122.30315, 37.80751 ], [ -122.3041, 37.80782 ] ] } },
{ "type": "Feature", "properties": { "n": "7th Street", "h": "art" }, "geometry": { "type": "LineString", "coordinates": [ [ -122.3041, 37.80782 ], [ -122.30496, 37.80802 ] ] } },
{ "type": "Feature", "properties": { "n": "Ron Cowan Parkway", "h": "art" }, "geometry": { "type": "LineString", "coordinates": [ [ -122.20871, 37.7208 ], [ -122.20953, 37.72117 ], [ -122.21031, 37.72142 ] ] } },
{ "type": "Feature", "properties": { "n": "98th Avenue", "h": "art" }, "geometry": { "type": "LineString", "coordinates": [ [ -122.1995, 37.72733 ], [ -122.19993, 37.72713 ], [ -122.20041, 37.72678 ], [ -122.20086, 37.72619 ], [ -122.20103, 37.72576 ], [ -122.20108, 37.72528 ], [ -122.20094, 37.72434 ] ] } },
{ "type": "Feature", "properties": { "n": "Marina Village Parkway", "h": "col" }, "geometry": { "type": "LineString", "coordinates": [ [ -122.2766, 37.78804 ], [ -122.27613, 37.788 ] ] } },
{ "type": "Feature", "properties": { "n": "Mariner Square Loop", "h": "col" }, "geometry": { "type": "LineString", "coordinates": [ [ -122.27703, 37.7882 ], [ -122.2772, 37.78825 ] ] } },
{ "type": "Feature", "properties": { "n": "7th Street", "h": "art" }, "geometry": { "type": "LineString", "coordinates": [ [ -122.30894, 37.80849 ], [ -122.30984, 37.80869 ] ] } },
{ "type": "Feature", "properties": { "n": "7th Street", "h": "art" }, "geometry": { "type": "LineString", "coordinates": [ [ -122.30986, 37.8086 ], [ -122.30902, 37.8084 ] ] } },
{ "type": "Feature", "properties": { "n": "Frontage Road", "h": "art" }, "geometry": { "type": "LineString", "coordinates": [ [ -122.30419, 37.80923 ], [ -122.30416, 37.8084 ] ] } },
{ "type": "Feature", "properties": { "n": "7th Street", "h": "art" }, "geometry": { "type": "LineString", "coordinates": [ [ -122.30624, 37.80813 ], [ -122.30728, 37.80816 ], [ -122.30833, 37.80836 ] ] } },
{ "type": "Feature", "properties": { "n": "Airport Drive", "h": "art" }, "geometry": { "type": "LineString", "coordinates": [ [ -122.20765, 37.71334 ], [ -122.20755, 37.71387 ], [ -122.20763, 37.71422 ] ] } },
{ "type": "Feature", "properties": { "n": "Ron Cowan Parkway", "h": "art" }, "geometry": { "type": "LineString", "coordinates": [ [ -122.21678, 37.72302 ], [ -122.21729, 37.72319 ] ] } },
{ "type": "Feature", "properties": { "n": "Doolittle Drive", "h": "art" }, "geometry": { "type": "LineString", "coordinates": [ [ -122.22658, 37.74524 ], [ -122.22619, 37.74526 ] ] } },
{ "type": "Feature", "properties": { "n": "Doolittle Drive", "h": "art" }, "geometry": { "type": "LineString", "coordinates": [ [ -122.22574, 37.74527 ], [ -122.22549, 37.74528 ] ] } },
{ "type": "Feature", "properties": { "n": "Embarcadero West", "h": "art" }, "geometry": { "type": "LineString", "coordinates": [ [ -122.26586, 37.7914 ], [ -122.26607, 37.79149 ] ] } },
{ "type": "Feature", "properties": { "n": "Ron Cowan Parkway", "h": "art" }, "geometry": { "type": "LineString", "coordinates": [ [ -122.20605, 37.71857 ], [ -122.20587, 37.71831 ] ] } },
{ "type": "Feature", "properties": { "n": "Maitland Drive", "h": "art" }, "geometry": { "type": "LineString", "coordinates": [ [ -122.23161, 37.73076 ], [ -122.23402, 37.73368 ], [ -122.23425, 37.73382 ] ] } },
{ "type": "Feature", "properties": { "n": "Mecartney Road", "h": "art" }, "geometry": { "type": "LineString", "coordinates": [ [ -122.23541, 37.73435 ], [ -122.23501, 37.73416 ] ] } },
{ "type": "Feature", "properties": { "n": "Mecartney Road", "h": "art" }, "geometry": { "type": "LineString", "coordinates": [ [ -122.23501, 37.73416 ], [ -122.23425, 37.73382 ] ] } },
{ "type": "Feature", "properties": { "n": "Ron Cowan Parkway", "h": "art" }, "geometry": { "type": "LineString", "coordinates": [ [ -122.2058, 37.71819 ], [ -122.2057, 37.71791 ] ] } },
{ "type": "Feature", "properties": { "n": "John Glenn Drive", "h": "col" }, "geometry": { "type": "LineString", "coordinates": [ [ -122.2057, 37.71791 ], [ -122.2059, 37.71784 ] ] } },
{ "type": "Feature", "properties": { "n": "Ron Cowan Parkway", "h": "art" }, "geometry": { "type": "LineString", "coordinates": [ [ -122.2057, 37.71791 ], [ -122.20545, 37.7175 ] ] } },
{ "type": "Feature", "properties": { "n": "7th Street", "h": "art" }, "geometry": { "type": "LineString", "coordinates": [ [ -122.30496, 37.80802 ], [ -122.30545, 37.8081 ], [ -122.30624, 37.80813 ] ] } },
{ "type": "Feature", "properties": { "n": "Island Drive", "h": "art" }, "geometry": { "type": "LineString", "coordinates": [ [ -122.2376, 37.74241 ], [ -122.23758, 37.74264 ] ] } },
{ "type": "Feature", "properties": { "n": "Regents Boulevard", "h": "col" }, "geometry": { "type": "LineString", "coordinates": [ [ -122.074, 37.58457 ], [ -122.0737, 37.58435 ], [ -122.0735, 37.58411 ], [ -122.07332, 37.58372 ] ] } },
{ "type": "Feature", "properties": { "n": "Regents Boulevard", "h": "col" }, "geometry": { "type": "LineString", "coordinates": [ [ -122.07325, 37.58337 ], [ -122.07318, 37.58318 ] ] } }
]
}
