{
"type": "FeatureCollection",
"name": "low_3ft",
"crs": { "type": "name", "properties": { "name": "urn:ogc:def:crs:OGC:1.3:CRS84" } },
"xy_coordinate_resolution": 1e-05,
"features": [
{ "type": "Feature", "properties": { "n": "Coliseum Way", "h": "art" }, "geometry": { "type": "LineString", "coordinates": [ [ -122.22054, 37.76935 ], [ -122.22078, 37.76969 ] ] } },
{ "type": "Feature", "properties": { "n": "Bay Edge Road", "h": "art" }, "geometry": { "type": "LineString", "coordinates": [ [ -122.25211, 37.73515 ], [ -122.2515, 37.73546 ] ] } },
{ "type": "Feature", "properties": { "n": "High Street", "h": "art" }, "geometry": { "type": "LineString", "coordinates": [ [ -122.23766, 37.7531 ], [ -122.23753, 37.75321 ] ] } },
{ "type": "Feature", "properties": { "n": "Wicks Boulevard", "h": "col" }, "geometry": { "type": "LineString", "coordinates": [ [ -122.16464, 37.69672 ], [ -122.16365, 37.69527 ], [ -122.16348, 37.69483 ], [ -122.16342, 37.69437 ] ] } },
{ "type": "Feature", "properties": { "n": "Rocklin Drive", "h": "col" }, "geometry": { "type": "LineString", "coordinates": [ [ -122.06842, 37.5727 ], [ -122.07041, 37.57168 ], [ -122.07108, 37.5712 ], [ -122.07164, 37.5704 ], [ -122.07205, 37.56919 ], [ -122.07245, 37.5685 ] ] } },
{ "type": "Feature", "properties": { "n": "Mandela Parkway", "h": "col" }, "geometry": { "type": "LineString", "coordinates": [ [ -122.29439, 37.80301 ], [ -122.29424, 37.80344 ] ] } },
{ "type": "Feature", "properties": { "n": "Jean Drive", "h": "col" }, "geometry": { "type": "LineString", "coordinates": [ [ -122.07269, 37.57549 ], [ -122.073, 37.57617 ], [ -122.07328, 37.5765 ], [ -122.07521, 37.57776 ], [ -122.07649, 37.57892 ], [ -122.07699, 37.57927 ], [ -122.07821, 37.57994 ] ] } },
{ "type": "Feature", "properties": { "n": "Jean Drive", "h": "col" }, "geometry": { "type": "LineString", "coordinates": [ [ -122.07823, 37.57995 ], [ -122.08041, 37.58134 ] ] } },
{ "type": "Feature", "properties": { "n": "Regents Boulevard", "h": "col" }, "geometry": { "type": "LineString", "coordinates": [ [ -122.07751, 37.58674 ], [ -122.07505, 37.58537 ], [ -122.07466, 37.58498 ] ] } },
{ "type": "Feature", "properties": { "n": "Delores Drive", "h": "col" }, "geometry": { "type": "LineString", "coordinates": [ [ -122.07666, 37.57112 ], [ -122.07699, 37.57088 ] ] } },
{ "type": "Feature", "properties": { "n": "CA 77", "h": "fwy" }, "geometry": { "type": "LineString", "coordinates": [ [ -122.21872, 37.7711 ], [ -122.21767, 37.77183 ] ] } },
{ "type": "Feature", "properties": { "n": "Otis Drive", "h": "art" }, "geometry": { "type": "LineString", "coordinates": [ [ -122.23942, 37.7522 ], [ -122.24039, 37.75288 ] ] } },
{ "type": "Feature", "properties": { "n": "Otis Drive", "h": "art" }, "geometry": { "type": "LineString", "coordinates": [ [ -122.24052, 37.75298 ], [ -122.24242, 37.7543 ], [ -122.24343, 37.75484 ] ] } },
{ "type": "Feature", "properties": { "n": "Otis Drive", "h": "art" }, "geometry": { "type": "LineString", "coordinates": [ [ -122.24349, 37.75487 ], [ -122.24437, 37.75533 ] ] } },
{ "type": "Feature", "properties": { "n": "Encinal Avenue", "h": "col" }, "geometry": { "type": "LineString", "coordinates": [ [ -122.23084, 37.75407 ], [ -122.23117, 37.75431 ] ] } },
{ "type": "Feature", "properties": { "n": "Middle Harbor Road", "h": "art" }, "geometry": { "type": "LineString", "coordinates": [ [ -122.29262, 37.79901 ], [ -122.29352, 37.79886 ] ] } },
{ "type": "Feature", "properties": { "n": "3rd Street", "h": "col" }, "geometry": { "type": "LineString", "coordinates": [ [ -122.2931, 37.802 ], [ -122.29291, 37.80196 ] ] } },
{ "type": "Feature", "properties": { "n": "3rd Street", "h": "col" }, "geometry": { "type": "LineString", "coordinates": [ [ -122.29205, 37.80176 ], [ -122.29141, 37.80159 ] ] } },
{ "type": "Feature", "properties": { "n": "98th Avenue", "h": "art" }, "geometry": { "type": "LineString", "coordinates": [ [ -122.20074, 37.72415 ], [ -122.20091, 37.7253 ], [ -122.20079, 37.72592 ], [ -122.20047, 37.72645 ], [ -122.1998, 37.72702 ] ] } },
{ "type": "Feature", "properties": { "n": "Regents Boulevard", "h": "col" }, "geometry": { "type": "LineString", "coordinates": [ [ -122.06842, 37.5727 ], [ -122.06767, 37.57226 ], [ -122.06711, 37.57204 ], [ -122.06677, 37.572 ], [ -122.06535, 37.57206 ] ] } },
{ "type": "Feature", "properties": { "n": "CA 77", "h": "fwy" }, "geometry": { "type": "LineString", "coordinates": [ [ -122.22104, 37.76951 ], [ -122.22078, 37.76969 ] ] } },
{ "type": "Feature", "properties": { "n": "Middle Harbor Road", "h": "art" }, "geometry": { "type": "LineString", "coordinates": [ [ -122.29345, 37.79878 ], [ -122.29256, 37.79893 ] ] } },
{ "type": "Feature", "properties": { "n": "7th Street", "h": "art" }, "geometry": { "type": "LineString", "coordinates": [ [ -122.30834, 37.80826 ], [ -122.30722, 37.80805 ], [ -122.30606, 37.80802 ] ] } },
{ "type": "Feature", "properties": { "n": "Regents Boulevard", "h": "col" }, "geometry": { "type": "LineString", "coordinates": [ [ -122.06727, 37.57604 ], [ -122.06747, 37.57538 ], [ -122.06778, 37.57476 ], [ -122.06867, 37.57386 ], [ -122.06876, 37.57357 ] ] } },
{ "type": "Feature", "properties": { "n": "Bay Edge Road", "h": "art" }, "geometry": { "type": "LineString", "coordinates": [ [ -122.25155, 37.73551 ], [ -122.25203, 37.73527 ] ] } },
{ "type": "Feature", "properties": { "n": "Gateway Boulevard", "h": "col" }, "geometry": { "type": "LineString", "coordinates": [ [ -121.93702, 37.47652 ], [ -121.93647, 37.47688 ] ] } },
{ "type": "Feature", "properties": { "n": "Marina Drive", "h": "col" }, "geometry": { "type": "LineString", "coordinates": [ [ -122.09013, 37.61432 ], [ -122.0914, 37.61456 ] ] } },
{ "type": "Feature", "properties": { "n": "Fremont Boulevard", "h": "art" }, "geometry": { "type": "LineString", "coordinates": [ [ -121.93705, 37.46957 ], [ -121.93401, 37.46673 ], [ -121.93176, 37.46535 ] ] } },
{ "type": "Feature", "properties": { "n": "Bayside Parkway", "h": "col" }, "geometry": { "type": "LineString", "coordinates": [ [ -121.94116, 37.48123 ], [ -121.94065, 37.48031 ] ] } },
{ "type": "Feature", "properties": { "n": "Gateway Boulevard", "h": "col" }, "geometry": { "type": "LineString", "coordinates": [ [ -121.93634, 37.47719 ], [ -121.93711, 37.47665 ] ] } },
{ "type": "Feature", "properties": { "n": "I 80", "h": "fwy" }, "geometry": { "type": "LineString", "coordinates": [ [ -122.29521, 37.82745 ], [ -122.29448, 37.82798 ], [ -122.29396, 37.82867 ] ] } },
{ "type": "Feature", "properties": { "n": "I 80", "h": "fwy" }, "geometry": { "type": "LineString", "coordinates": [ [ -122.29396, 37.82867 ], [ -122.29375, 37.82908 ] ] } },
{ "type": "Feature", "properties": { "n": "Eden Shores Boulevard", "h": "col" }, "geometry": { "type": "LineString", "coordinates": [ [ -122.08806, 37.61371 ], [ -122.08839, 37.61363 ] ] } },
{ "type": "Feature", "properties": { "n": "West Warren Avenue", "h": "art" }, "geometry": { "type": "LineString", "coordinates": [ [ -121.94384, 37.48137 ], [ -121.94278, 37.48169 ] ] } },
{ "type": "Feature", "properties": { "n": "7th Street", "h": "art" }, "geometry": { "type": "LineString", "coordinates": [ [ -122.30522, 37.80788 ], [ -122.30404, 37.80763 ] ] } },
{ "type": "Feature", "properties": { "n": "Central Avenue", "h": "col" }, "geometry": { "type": "LineString", "coordinates": [ [ -122.2295, 37.7565 ], [ -122.22813, 37.75554 ] ] } },
{ "type": "Feature", "properties": { "n": "Lowry Road", "h": "col" }, "geometry": { "type": "LineString", "coordinates": [ [ -122.06713, 37.56795 ], [ -122.06872, 37.56792 ], [ -122.0694, 37.56766 ], [ -122.06999, 37.56717 ] ] } },
{ "type": "Feature", "properties": { "n": "7th Street", "h": "art" }, "geometry": { "type": "LineString", "coordinates": [ [ -122.30404, 37.80763 ], [ -122.30315, 37.80739 ] ] } },
{ "type": "Feature", "properties": { "n": "CA 77", "h": "fwy" }, "geometry": { "type": "LineString", "coordinates": [ [ -122.22047, 37.77006 ], [ -122.22086, 37.7698 ] ] } },
{ "type": "Feature", "properties": { "n": "98th Avenue", "h": "art" }, "geometry": { "type": "LineString", "coordinates": [ [ -122.1998, 37.72702 ], [ -122.19913, 37.72734 ] ] } },
{ "type": "Feature", "properties": { "n": "Mecartney Road", "h": "art" }, "geometry": { "type": "LineString", "coordinates": [ [ -122.24722, 37.73726 ], [ -122.24791, 37.73727 ], [ -122.24855, 37.73736 ] ] } },
{ "type": "Feature", "properties": { "n": "Marina Boulevard", "h": "col" }, "geometry": { "type": "LineString", "coordinates": [ [ -122.18894, 37.70111 ], [ -122.18872, 37.70129 ] ] } },
{ "type": "Feature", "properties": { "n": "Marina Boulevard", "h": "col" }, "geometry": { "type": "LineString", "coordinates": [ [ -122.18884, 37.70127 ], [ -122.18904, 37.70115 ] ] } },
{ "type": "Feature", "properties": { "n": "Monarch Bay Drive", "h": "col" }, "geometry": { "type": "LineString", "coordinates": [ [ -122.18904, 37.70115 ], [ -122.18938, 37.70084 ], [ -122.18949, 37.70062 ], [ -122.18947, 37.70051 ] ] } },
{ "type": "Feature", "properties": { "n": "Monarch Bay Drive", "h": "col" }, "geometry": { "type": "LineString", "coordinates": [ [ -122.18947, 37.70051 ], [ -122.18894, 37.70111 ] ] } },
{ "type": "Feature", "properties": { "n": "West Warren Avenue", "h": "art" }, "geometry": { "type": "LineString", "coordinates": [ [ -121.94276, 37.4818 ], [ -121.94355, 37.48152 ], [ -121.94413, 37.4814 ] ] } },
{ "type": "Feature", "properties": { "n": "7th Street", "h": "art" }, "geometry": { "type": "LineString", "coordinates": [ [ -122.30606, 37.80802 ], [ -122.3057, 37.80798 ] ] } },
{ "type": "Feature", "properties": { "n": "7th Street", "h": "art" }, "geometry": { "type": "LineString", "coordinates": [ [ -122.3057, 37.80798 ], [ -122.30522, 37.80788 ] ] } },
{ "type": "Feature", "properties": { "n": "Frontage Road", "h": "art" }, "geometry": { "type": "LineString", "coordinates": [ [ -122.3041, 37.80782 ], [ -122.30404, 37.80763 ] ] } },
{ "type": "Feature", "properties": { "n": "Frontage Road", "h": "art" }, "geometry": { "type": "LineString", "coordinates": [ [ -122.30416, 37.8084 ], [ -122.3041, 37.80782 ] ] } },
{ "type": "Feature", "properties": { "n": "I 880", "h": "fwy" }, "geometry": { "type": "LineString", "coordinates": [ [ -121.92454, 37.46029 ], [ -121.92551, 37.46222 ] ] } },
{ "type": "Feature", "properties": { "n": "CA 77", "h": "fwy" }, "geometry": { "type": "LineString", "coordinates": [ [ -122.22078, 37.76969 ], [ -122.22041, 37.76994 ] ] } },
{ "type": "Feature", "properties": { "n": "CA 77", "h": "fwy" }, "geometry": { "type": "LineString", "coordinates": [ [ -122.22086, 37.7698 ], [ -122.22114, 37.76959 ] ] } },
{ "type": "Feature", "properties": { "n": "Dyer Street", "h": "art" }, "geometry": { "type": "LineString", "coordinates": [ [ -122.07419, 37.58468 ], [ -122.07431, 37.58455 ], [ -122.0743, 37.58446 ] ] } },
{ "type": "Feature", "properties": { "n": "Dyer Street", "h": "art" }, "geometry": { "type": "LineString", "coordinates": [ [ -122.07443, 37.5843 ], [ -122.07582, 37.58272 ] ] } },
{ "type": "Feature", "properties": { "n": "Hegenberger Road", "h": "art" }, "geometry": { "type": "LineString", "coordinates": [ [ -122.20147, 37.72537 ], [ -122.20124, 37.72477 ] ] } },
{ "type": "Feature", "properties": { "n": "Hegenberger Road", "h": "art" }, "geometry": { "type": "LineString", "coordinates": [ [ -122.20124, 37.72477 ], [ -122.20109, 37.72426 ] ] } },
{ "type": "Feature", "properties": { "n": "Encinal Avenue", "h": "col" }, "geometry": { "type": "LineString", "coordinates": [ [ -122.23127, 37.7542 ], [ -122.23098, 37.75399 ] ] } },
{ "type": "Feature", "properties": { "n": "Fernside Boulevard", "h": "art" }, "geometry": { "type": "LineString", "coordinates": [ [ -122.23084, 37.75407 ], [ -122.23065, 37.75425 ] ] } },
{ "type": "Feature", "properties": { "n": "Fernside Boulevard", "h": "art" }, "geometry": { "type": "LineString", "coordinates": [ [ -122.23092, 37.75394 ], [ -122.23084, 37.75407 ] ] } },
{ "type": "Feature", "properties": { "n": "Broadway", "h": "col" }, "geometry": { "type": "LineString", "coordinates": [ [ -122.24589, 37.75426 ], [ -122.24484, 37.75558 ] ] } },
{ "type": "Feature", "properties": { "n": "Otis Drive", "h": "art" }, "geometry": { "type": "LineString", "coordinates": [ [ -122.24641, 37.75639 ], [ -122.24669, 37.75654 ] ] } },
{ "type": "Feature", "properties": { "n": "Otis Drive", "h": "art" }, "geometry": { "type": "LineString", "coordinates": [ [ -122.24446, 37.75538 ], [ -122.24484, 37.75558 ] ] } },
{ "type": "Feature", "properties": { "n": "Otis Drive", "h": "art" }, "geometry": { "type": "LineString", "coordinates": [ [ -122.24626, 37.75632 ], [ -122.24641, 37.75639 ] ] } },
{ "type": "Feature", "properties": { "n": "Otis Drive", "h": "art" }, "geometry": { "type": "LineString", "coordinates": [ [ -122.2455, 37.75592 ], [ -122.24606, 37.75621 ] ] } },
{ "type": "Feature", "properties": { "n": "Otis Drive", "h": "art" }, "geometry": { "type": "LineString", "coordinates": [ [ -122.24534, 37.75584 ], [ -122.2455, 37.75592 ] ] } },
{ "type": "Feature", "properties": { "n": "Otis Drive", "h": "art" }, "geometry": { "type": "LineString", "coordinates": [ [ -122.24484, 37.75558 ], [ -122.24513, 37.75573 ] ] } },
{ "type": "Feature", "properties": { "n": "Otis Drive", "h": "art" }, "geometry": { "type": "LineString", "coordinates": [ [ -122.24513, 37.75573 ], [ -122.24534, 37.75584 ] ] } },
{ "type": "Feature", "properties": { "n": "Mecartney Road", "h": "art" }, "geometry": { "type": "LineString", "coordinates": [ [ -122.24659, 37.73724 ], [ -122.24722, 37.73726 ] ] } },
{ "type": "Feature", "properties": { "n": "Mecartney Road", "h": "art" }, "geometry": { "type": "LineString", "coordinates": [ [ -122.24761, 37.73714 ], [ -122.24721, 37.73713 ] ] } },
{ "type": "Feature", "properties": { "n": "Mecartney Road", "h": "art" }, "geometry": { "type": "LineString", "coordinates": [ [ -122.24852, 37.73722 ], [ -122.24761, 37.73714 ] ] } },
{ "type": "Feature", "properties": { "n": "Mecartney Road", "h": "art" }, "geometry": { "type": "LineString", "coordinates": [ [ -122.24721, 37.73713 ], [ -122.24645, 37.73707 ] ] } },
{ "type": "Feature", "properties": { "n": "Dyer Street", "h": "art" }, "geometry": { "type": "LineString", "coordinates": [ [ -122.07788, 37.58039 ], [ -122.07821, 37.57997 ] ] } },
{ "type": "Feature", "properties": { "n": "Dyer Street", "h": "art" }, "geometry": { "type": "LineString", "coordinates": [ [ -122.07267, 37.58633 ], [ -122.07384, 37.585 ] ] } },
{ "type": "Feature", "properties": { "n": "Dyer Street", "h": "art" }, "geometry": { "type": "LineString", "coordinates": [ [ -122.07241, 37.58673 ], [ -122.07252, 37.5866 ], [ -122.0725, 37.58651 ] ] } },
{ "type": "Feature", "properties": { "n": "Dyer Street", "h": "art" }, "geometry": { "type": "LineString", "coordinates": [ [ -122.07058, 37.58883 ], [ -122.07065, 37.58871 ] ] } },
{ "type": "Feature", "properties": { "n": "Union City Boulevard", "h": "art" }, "geometry": { "type": "LineString", "coordinates": [ [ -122.08075, 37.58073 ], [ -122.08075, 37.58138 ] ] } },
{ "type": "Feature", "properties": { "n": "Union City Boulevard", "h": "art" }, "geometry": { "type": "LineString", "coordinates": [ [ -122.08081, 37.59555 ], [ -122.08081, 37.59577 ] ] } },
{ "type": "Feature", "properties": { "n": "Union City Boulevard", "h": "art" }, "geometry": { "type": "LineString", "coordinates": [ [ -122.08075, 37.58138 ], [ -122.08075, 37.58181 ] ] } },
{ "type": "Feature", "properties": { "n": "Union City Boulevard", "h": "art" }, "geometry": { "type": "LineString", "coordinates": [ [ -122.08075, 37.57989 ], [ -122.08075, 37.58073 ] ] } },
{ "type": "Feature", "properties": { "n": "Union City Boulevard", "h": "art" }, "geometry": { "type": "LineString", "coordinates": [ [ -122.07787, 37.57208 ], [ -122.07802, 37.57237 ] ] } },
{ "type": "Feature", "properties": { "n": "Union City Boulevard", "h": "art" }, "geometry": { "type": "LineString", "coordinates": [ [ -122.07638, 37.57033 ], [ -122.07699, 37.57088 ] ] } },
{ "type": "Feature", "properties": { "n": "Dyer Street", "h": "art" }, "geometry": { "type": "LineString", "coordinates": [ [ -122.07963, 37.57835 ], [ -122.07974, 37.57824 ] ] } },
{ "type": "Feature", "properties": { "n": "Dyer Street", "h": "art" }, "geometry": { "type": "LineString", "coordinates": [ [ -122.07974, 37.57824 ], [ -122.08006, 37.57801 ] ] } },
{ "type": "Feature", "properties": { "n": "Eden Shores Boulevard", "h": "col" }, "geometry": { "type": "LineString", "coordinates": [ [ -122.08733, 37.61386 ], [ -122.08667, 37.61411 ] ] } },
{ "type": "Feature", "properties": { "n": "Eden Shores Boulevard", "h": "col" }, "geometry": { "type": "LineString", "coordinates": [ [ -122.088, 37.6136 ], [ -122.08733, 37.61386 ] ] } },
{ "type": "Feature", "properties": { "n": "Eden Shores Boulevard", "h": "col" }, "geometry": { "type": "LineString", "coordinates": [ [ -122.08672, 37.61421 ], [ -122.0876, 37.61387 ] ] } },
{ "type": "Feature", "properties": { "n": "Eden Shores Boulevard", "h": "col" }, "geometry": { "type": "LineString", "coordinates": [ [ -122.08829, 37.61354 ], [ -122.088, 37.6136 ] ] } },
{ "type": "Feature", "properties": { "n": "Eden Shores Boulevard", "h": "col" }, "geometry": { "type": "LineString", "coordinates": [ [ -122.0876, 37.61387 ], [ -122.08806, 37.61371 ] ] } },
{ "type": "Feature", "properties": { "n": "Marina Drive", "h": "col" }, "geometry": { "type": "LineString", "coordinates": [ [ -122.08956, 37.61396 ], [ -122.0897, 37.6141 ] ] } },
{ "type": "Feature", "properties": { "n": "Marina Drive", "h": "col" }, "geometry": { "type": "LineString", "coordinates": [ [ -122.0914, 37.61456 ], [ -122.09162, 37.61465 ] ] } },
{ "type": "Feature", "properties": { "n": "Marina Drive", "h": "col" }, "geometry": { "type": "LineString", "coordinates": [ [ -122.09238, 37.61534 ], [ -122.09246, 37.61554 ] ] } },
{ "type": "Feature", "properties": { "n": "Marina Drive", "h": "col" }, "geometry": { "type": "LineString", "coordinates": [ [ -122.08991, 37.6142 ], [ -122.09013, 37.61432 ] ] } },
{ "type": "Feature", "properties": { "n": "Marina Drive", "h": "col" }, "geometry": { "type": "LineString", "coordinates": [ [ -122.09246, 37.61554 ], [ -122.09244, 37.61573 ] ] } },
{ "type": "Feature", "properties": { "n": "Marina Drive", "h": "col" }, "geometry": { "type": "LineString", "coordinates": [ [ -122.09244, 37.61576 ], [ -122.09245, 37.61595 ] ] } },
{ "type": "Feature", "properties": { "n": "Marina Drive", "h": "col" }, "geometry": { "type": "LineString", "coordinates": [ [ -122.0897, 37.6141 ], [ -122.08991, 37.6142 ] ] } },
{ "type": "Feature", "properties": { "n": "Marina Drive", "h": "col" }, "geometry": { "type": "LineString", "coordinates": [ [ -122.09245, 37.61595 ], [ -122.09238, 37.61622 ] ] } },
{ "type": "Feature", "properties": { "n": "Marina Drive", "h": "col" }, "geometry": { "type": "LineString", "coordinates": [ [ -122.09162, 37.61465 ], [ -122.09215, 37.61501 ], [ -122.09238, 37.61534 ] ] } },
{ "type": "Feature", "properties": { "n": "Gateway Boulevard", "h": "col" }, "geometry": { "type": "LineString", "coordinates": [ [ -121.93956, 37.4749 ], [ -121.9389, 37.47534 ] ] } },
{ "type": "Feature", "properties": { "n": "Kato Road", "h": "col" }, "geometry": { "type": "LineString", "coordinates": [ [ -121.91998, 37.46188 ], [ -121.91823, 37.46245 ] ] } },
{ "type": "Feature", "properties": { "n": "Fremont Boulevard", "h": "art" }, "geometry": { "type": "LineString", "coordinates": [ [ -121.94578, 37.48344 ], [ -121.94574, 37.48328 ] ] } },
{ "type": "Feature", "properties": { "n": "Wicks Boulevard", "h": "col" }, "geometry": { "type": "LineString", "coordinates": [ [ -122.16333, 37.69372 ], [ -122.16329, 37.69335 ] ] } },
{ "type": "Feature", "properties": { "n": "Fernside Boulevard", "h": "art" }, "geometry": { "type": "LineString", "coordinates": [ [ -122.22786, 37.75675 ], [ -122.22769, 37.75691 ] ] } },
{ "type": "Feature", "properties": { "n": "Fernside Boulevard", "h": "art" }, "geometry": { "type": "LineString", "coordinates": [ [ -122.23065, 37.75425 ], [ -122.22786, 37.75675 ] ] } },
{ "type": "Feature", "properties": { "n": "Gateway Boulevard", "h": "col" }, "geometry": { "type": "LineString", "coordinates": [ [ -121.94141, 37.47371 ], [ -121.94177, 37.47345 ] ] } },
{ "type": "Feature", "properties": { "n": "Gateway Boulevard", "h": "col" }, "geometry": { "type": "LineString", "coordinates": [ [ -121.94125, 37.47383 ], [ -121.94141, 37.47371 ] ] } },
{ "type": "Feature", "properties": { "n": "Gateway Boulevard", "h": "col" }, "geometry": { "type": "LineString", "coordinates": [ [ -121.93647, 37.47688 ], [ -121.93626, 37.47703 ] ] } },
{ "type": "Feature", "properties": { "n": "Gateway Boulevard", "h": "col" }, "geometry": { "type": "LineString", "coordinates": [ [ -121.94067, 37.47415 ], [ -121.94087, 37.47411 ], [ -121.94125, 37.47383 ] ] } },
{ "type": "Feature", "properties": { "n": "Gateway Boulevard", "h": "col" }, "geometry": { "type": "LineString", "coordinates": [ [ -121.94169, 37.47337 ], [ -121.94076, 37.47401 ], [ -121.94067, 37.47415 ] ] } },
{ "type": "Feature", "properties": { "n": "Gateway Boulevard", "h": "col" }, "geometry": { "type": "LineString", "coordinates": [ [ -121.94067, 37.47415 ], [ -121.93956, 37.4749 ] ] } },
{ "type": "Feature", "properties": { "n": "Bayside Parkway", "h": "col" }, "geometry": { "type": "LineString", "coordinates": [ [ -121.93756, 37.47603 ], [ -121.93734, 37.47583 ] ] } },
{ "type": "Feature", "properties": { "n": "Bayside Parkway", "h": "col" }, "geometry": { "type": "LineString", "coordinates": [ [ -121.93809, 37.47654 ], [ -121.93781, 37.47627 ] ] } },
{ "type": "Feature", "properties": { "n": "Bayside Parkway", "h": "col" }, "geometry": { "type": "LineString", "coordinates": [ [ -121.93734, 37.47583 ], [ -121.93721, 37.47571 ] ] } },
{ "type": "Feature", "properties": { "n": "Fremont Boulevard", "h": "art" }, "geometry": { "type": "LineString", "coordinates": [ [ -121.93741, 37.4699 ], [ -121.93705, 37.46957 ] ] } },
{ "type": "Feature", "properties": { "n": "Fremont Boulevard", "h": "art" }, "geometry": { "type": "LineString", "coordinates": [ [ -121.94211, 37.47377 ], [ -121.94199, 37.47365 ] ] } },
{ "type": "Feature", "properties": { "n": "Fremont Boulevard", "h": "art" }, "geometry": { "type": "LineString", "coordinates": [ [ -121.94516, 37.48013 ], [ -121.94555, 37.47876 ], [ -121.94555, 37.47839 ], [ -121.94541, 37.47785 ], [ -121.94418, 37.47581 ], [ -121.94371, 37.47527 ], [ -121.94211, 37.47377 ] ] } },
{ "type": "Feature", "properties": { "n": "CA 77", "h": "fwy" }, "geometry": { "type": "LineString", "coordinates": [ [ -122.21787, 37.77182 ], [ -122.22008, 37.77031 ] ] } },
{ "type": "Feature", "properties": { "n": "3rd Street", "h": "col" }, "geometry": { "type": "LineString", "coordinates": [ [ -122.29141, 37.80159 ], [ -122.29102, 37.8015 ] ] } },
{ "type": "Feature", "properties": { "n": "Marina Drive", "h": "col" }, "geometry": { "type": "LineString", "coordinates": [ [ -122.08991, 37.6142 ], [ -122.08969, 37.61391 ] ] } },
{ "type": "Feature", "properties": { "n": "Delores Drive", "h": "col" }, "geometry": { "type": "LineString", "coordinates": [ [ -122.06796, 37.57989 ], [ -122.07109, 37.57638 ], [ -122.0718, 37.57587 ], [ -122.07269, 37.57549 ] ] } },
{ "type": "Feature", "properties": { "n": "Jean Drive", "h": "col" }, "geometry": { "type": "LineString", "coordinates": [ [ -122.06876, 37.57357 ], [ -122.0701, 37.57385 ], [ -122.07077, 37.57421 ] ] } },
{ "type": "Feature", "properties": { "n": "Monarch Bay Drive", "h": "col" }, "geometry": { "type": "LineString", "coordinates": [ [ -122.18947, 37.70051 ], [ -122.18952, 37.70028 ] ] } },
{ "type": "Feature", "properties": { "n": "Monarch Bay Drive", "h": "col" }, "geometry": { "type": "LineString", "coordinates": [ [ -122.18852, 37.69842 ], [ -122.18784, 37.69709 ] ] } },
{ "type": "Feature", "properties": { "n": "Fairway Drive", "h": "col" }, "geometry": { "type": "LineString", "coordinates": [ [ -122.18355, 37.69696 ], [ -122.18333, 37.69706 ] ] } },
{ "type": "Feature", "properties": { "n": "Fairway Drive", "h": "col" }, "geometry": { "type": "LineString", "coordinates": [ [ -122.18294, 37.69733 ], [ -122.18384, 37.69693 ] ] } },
{ "type": "Feature", "properties": { "n": "Farallon Drive", "h": "col" }, "geometry": { "type": "LineString", "coordinates": [ [ -122.16621, 37.69261 ], [ -122.16646, 37.69255 ] ] } },
{ "type": "Feature", "properties": { "n": "Farallon Drive", "h": "col" }, "geometry": { "type": "LineString", "coordinates": [ [ -122.16592, 37.69268 ], [ -122.16621, 37.69261 ] ] } },
{ "type": "Feature", "properties": { "n": "Farallon Drive", "h": "col" }, "geometry": { "type": "LineString", "coordinates": [ [ -122.16564, 37.69275 ], [ -122.16592, 37.69268 ] ] } },
{ "type": "Feature", "properties": { "n": "Farallon Drive", "h": "col" }, "geometry": { "type": "LineString", "coordinates": [ [ -122.16367, 37.69324 ], [ -122.16383, 37.6932 ] ] } },
{ "type": "Feature", "properties": { "n": "Farallon Drive", "h": "col" }, "geometry": { "type": "LineString", "coordinates": [ [ -122.16345, 37.6933 ], [ -122.16367, 37.69324 ] ] } },
{ "type": "Feature", "properties": { "n": "Fairway Drive", "h": "col" }, "geometry": { "type": "LineString", "coordinates": [ [ -122.18229, 37.6975 ], [ -122.18192, 37.69766 ] ] } },
{ "type": "Feature", "properties": { "n": "Fairway Drive", "h": "col" }, "geometry": { "type": "LineString", "coordinates": [ [ -122.18289, 37.69725 ], [ -122.18229, 37.6975 ] ] } },
{ "type": "Feature", "properties": { "n": "Fairway Drive", "h": "col" }, "geometry": { "type": "LineString", "coordinates": [ [ -122.18333, 37.69706 ], [ -122.18289, 37.69725 ] ] } },
{ "type": "Feature", "properties": { "n": "Fairway Drive", "h": "col" }, "geometry": { "type": "LineString", "coordinates": [ [ -122.18192, 37.69766 ], [ -122.17905, 37.69885 ] ] } },
{ "type": "Feature", "properties": { "n": "Fairway Drive", "h": "col" }, "geometry": { "type": "LineString", "coordinates": [ [ -122.1825, 37.69751 ], [ -122.18294, 37.69733 ] ] } },
{ "type": "Feature", "properties": { "n": "Fairway Drive", "h": "col" }, "geometry": { "type": "LineString", "coordinates": [ [ -122.18197, 37.69774 ], [ -122.1825, 37.69751 ] ] } },
{ "type": "Feature", "properties": { "n": "Bayside Parkway", "h": "col" }, "geometry": { "type": "LineString", "coordinates": [ [ -121.93829, 37.47673 ], [ -121.93809, 37.47654 ] ] } },
{ "type": "Feature", "properties": { "n": "CA 77", "h": "fwy" }, "geometry": { "type": "LineString", "coordinates": [ [ -122.21997, 37.77023 ], [ -122.21872, 37.7711 ] ] } },
{ "type": "Feature", "properties": { "n": "Fremont Boulevard", "h": "art" }, "geometry": { "type": "LineString", "coordinates": [ [ -121.94199, 37.47365 ], [ -121.94177, 37.47345 ] ] } },
{ "type": "Feature", "properties": { "n": "Fremont Boulevard", "h": "art" }, "geometry": { "type": "LineString", "coordinates": [ [ -121.94169, 37.47337 ], [ -121.94084, 37.47258 ], [ -121.93823, 37.47062 ], [ -121.93741, 37.4699 ] ] } },
{ "type": "Feature", "properties": { "n": "Aughinbaugh Way", "h": "art" }, "geometry": { "type": "LineString", "coordinates": [ [ -122.25178, 37.73582 ], [ -122.25155, 37.73551 ] ] } },
{ "type": "Feature", "properties": { "n": "Fairway Drive", "h": "col" }, "geometry": { "type": "LineString", "coordinates": [ [ -122.17886, 37.69903 ], [ -122.18197, 37.69774 ] ] } },
{ "type": "Feature", "properties": { "n": "Marina Boulevard", "h": "col" }, "geometry": { "type": "LineString", "coordinates": [ [ -122.18716, 37.70194 ], [ -122.18836, 37.70144 ] ] } },
{ "type": "Feature", "properties": { "n": "Broadway", "h": "col" }, "geometry": { "type": "LineString", "coordinates": [ [ -122.24603, 37.75409 ], [ -122.24589, 37.75426 ] ] } },
{ "type": "Feature", "properties": { "n": "Webster Street", "h": "art" }, "geometry": { "type": "LineString", "coordinates": [ [ -122.27824, 37.7881 ], [ -122.27844, 37.78739 ], [ -122.27843, 37.78678 ] ] } },
{ "type": "Feature", "properties": { "n": "Regents Boulevard", "h": "col" }, "geometry": { "type": "LineString", "coordinates": [ [ -122.07314, 37.58306 ], [ -122.07291, 37.58274 ], [ -122.07245, 37.5824 ], [ -122.06778, 37.57979 ] ] } },
{ "type": "Feature", "properties": { "n": "Dyer Street", "h": "art" }, "geometry": { "type": "LineString", "coordinates": [ [ -122.07218, 37.58687 ], [ -122.0723, 37.58685 ], [ -122.07241, 37.58673 ] ] } },
{ "type": "Feature", "properties": { "n": "Dyer Street", "h": "art" }, "geometry": { "type": "LineString", "coordinates": [ [ -122.07397, 37.58484 ], [ -122.07419, 37.58468 ] ] } },
{ "type": "Feature", "properties": { "n": "Dyer Street", "h": "art" }, "geometry": { "type": "LineString", "coordinates": [ [ -122.07582, 37.58272 ], [ -122.07622, 37.58229 ] ] } },
{ "type": "Feature", "properties": { "n": "Dyer Street", "h": "art" }, "geometry": { "type": "LineString", "coordinates": [ [ -122.07667, 37.58178 ], [ -122.07723, 37.58113 ] ] } },
{ "type": "Feature", "properties": { "n": "Dyer Street", "h": "art" }, "geometry": { "type": "LineString", "coordinates": [ [ -122.07724, 37.58113 ], [ -122.07788, 37.58039 ] ] } },
{ "type": "Feature", "properties": { "n": "Jean Drive", "h": "col" }, "geometry": { "type": "LineString", "coordinates": [ [ -122.08048, 37.58136 ], [ -122.08075, 37.58138 ] ] } },
{ "type": "Feature", "properties": { "n": "Wicks Boulevard", "h": "col" }, "geometry": { "type": "LineString", "coordinates": [ [ -122.16336, 37.69395 ], [ -122.16333, 37.69372 ] ] } },
{ "type": "Feature", "properties": { "n": "Farallon Drive", "h": "col" }, "geometry": { "type": "LineString", "coordinates": [ [ -122.16403, 37.69315 ], [ -122.16564, 37.69275 ] ] } },
{ "type": "Feature", "properties": { "n": "Farallon Drive", "h": "col" }, "geometry": { "type": "LineString", "coordinates": [ [ -122.16403, 37.69315 ], [ -122.16383, 37.6932 ] ] } },
{ "type": "Feature", "properties": { "n": "Farallon Drive", "h": "col" }, "geometry": { "type": "LineString", "coordinates": [ [ -122.16768, 37.69315 ], [ -122.16803, 37.69364 ], [ -122.16844, 37.69389 ] ] } },
{ "type": "Feature", "properties": { "n": "Farallon Drive", "h": "col" }, "geometry": { "type": "LineString", "coordinates": [ [ -122.16646, 37.69255 ], [ -122.16682, 37.69255 ], [ -122.16714, 37.69263 ], [ -122.16741, 37.6928 ], [ -122.16768, 37.69315 ] ] } },
{ "type": "Feature", "properties": { "n": "Farallon Drive", "h": "col" }, "geometry": { "type": "LineString", "coordinates": [ [ -122.16844, 37.69389 ], [ -122.16865, 37.69391 ] ] } },
{ "type": "Feature", "properties": { "n": "Marina Boulevard", "h": "col" }, "geometry": { "type": "LineString", "coordinates": [ [ -122.18836, 37.70144 ], [ -122.18872, 37.70129 ] ] } },
{ "type": "Feature", "properties": { "n": "Delores Drive", "h": "col" }, "geometry": { "type": "LineString", "coordinates": [ [ -122.07225, 37.57497 ], [ -122.07429, 37.57267 ], [ -122.07483, 37.57218 ], [ -122.07666, 37.57112 ] ] } },
{ "type": "Feature", "properties": { "n": "Dyer Street", "h": "art" }, "geometry": { "type": "LineString", "coordinates": [ [ -122.07622, 37.58229 ], [ -122.07667, 37.58178 ] ] } },
{ "type": "Feature", "properties": { "n": "Dyer Street", "h": "art" }, "geometry": { "type": "LineString", "coordinates": [ [ -122.0723, 37.58667 ], [ -122.07218, 37.58687 ] ] } },
{ "type": "Feature", "properties": { "n": "Dyer Street", "h": "art" }, "geometry": { "type": "LineString", "coordinates": [ [ -122.0725, 37.58651 ], [ -122.0723, 37.58667 ] ] } },
{ "type": "Feature", "properties": { "n": "Dyer Street", "h": "art" }, "geometry": { "type": "LineString", "coordinates": [ [ -122.07206, 37.58701 ], [ -122.07218, 37.58687 ] ] } },
{ "type": "Feature", "properties": { "n": "Dyer Street", "h": "art" }, "geometry": { "type": "LineString", "coordinates": [ [ -122.0725, 37.58651 ], [ -122.07267, 37.58633 ] ] } },
{ "type": "Feature", "properties": { "n": "Dyer Street", "h": "art" }, "geometry": { "type": "LineString", "coordinates": [ [ -122.07409, 37.58462 ], [ -122.07397, 37.58484 ] ] } },
{ "type": "Feature", "properties": { "n": "Dyer Street", "h": "art" }, "geometry": { "type": "LineString", "coordinates": [ [ -122.0743, 37.58446 ], [ -122.07409, 37.58462 ] ] } },
{ "type": "Feature", "properties": { "n": "Dyer Street", "h": "art" }, "geometry": { "type": "LineString", "coordinates": [ [ -122.0743, 37.58446 ], [ -122.07443, 37.5843 ] ] } },
{ "type": "Feature", "properties": { "n": "Dyer Street", "h": "art" }, "geometry": { "type": "LineString", "coordinates": [ [ -122.07384, 37.585 ], [ -122.07397, 37.58484 ] ] } },
{ "type": "Feature", "properties": { "n": "Regents Boulevard", "h": "col" }, "geometry": { "type": "LineString", "coordinates": [ [ -122.07466, 37.58498 ], [ -122.07409, 37.58462 ] ] } },
{ "type": "Feature", "properties": { "n": "Regents Boulevard", "h": "col" }, "geometry": { "type": "LineString", "coordinates": [ [ -122.06876, 37.57357 ], [ -122.06874, 37.57311 ], [ -122.06866, 37.57292 ], [ -122.06842, 37.5727 ] ] } },
{ "type": "Feature", "properties": { "n": "Jean Drive", "h": "col" }, "geometry": { "type": "LineString", "coordinates": [ [ -122.07222, 37.57501 ], [ -122.07269, 37.57549 ] ] } },
{ "type": "Feature", "properties": { "n": "Fredi Street", "h": "col" }, "geometry": { "type": "LineString", "coordinates": [ [ -122.07703, 37.59544 ], [ -122.07704, 37.59436 ] ] } },
{ "type": "Feature", "properties": { "n": "Rocklin Drive", "h": "col" }, "geometry": { "type": "LineString", "coordinates": [ [ -122.07245, 37.5685 ], [ -122.07257, 37.56836 ] ] } },
{ "type": "Feature", "properties": { "n": "Delores Drive", "h": "col" }, "geometry": { "type": "LineString", "coordinates": [ [ -122.06783, 37.58003 ], [ -122.06796, 37.57989 ] ] } },
{ "type": "Feature", "properties": { "n": "Dyer Street", "h": "art" }, "geometry": { "type": "LineString", "coordinates": [ [ -122.07077, 37.58852 ], [ -122.07206, 37.58701 ] ] } },
{ "type": "Feature", "properties": { "n": "7th Street", "h": "art" }, "geometry": { "type": "LineString", "coordinates": [ [ -122.30309, 37.80748 ], [ -122.3041, 37.80782 ] ] } },
{ "type": "Feature", "properties": { "n": "7th Street", "h": "art" }, "geometry": { "type": "LineString", "coordinates": [ [ -122.3041, 37.80782 ], [ -122.30496, 37.80802 ] ] } },
{ "type": "Feature", "properties": { "n": "98th Avenue", "h": "art" }, "geometry": { "type": "LineString", "coordinates": [ [ -122.19937, 37.72739 ], [ -122.20018, 37.72697 ], [ -122.2006, 37.72658 ], [ -122.20086, 37.72619 ], [ -122.20103, 37.72576 ], [ -122.20108, 37.72528 ], [ -122.20091, 37.72421 ] ] } },
{ "type": "Feature", "properties": { "n": "Frontage Road", "h": "art" }, "geometry": { "type": "LineString", "coordinates": [ [ -122.29755, 37.81603 ], [ -122.29818, 37.81557 ] ] } },
{ "type": "Feature", "properties": { "n": "7th Street", "h": "art" }, "geometry": { "type": "LineString", "coordinates": [ [ -122.30894, 37.80849 ], [ -122.30992, 37.80871 ] ] } },
{ "type": "Feature", "properties": { "n": "7th Street", "h": "art" }, "geometry": { "type": "LineString", "coordinates": [ [ -122.30997, 37.80862 ], [ -122.30902, 37.8084 ] ] } },
{ "type": "Feature", "properties": { "n": "Frontage Road", "h": "art" }, "geometry": { "type": "LineString", "coordinates": [ [ -122.30418, 37.80929 ], [ -122.30416, 37.8084 ] ] } },
{ "type": "Feature", "properties": { "n": "7th Street", "h": "art" }, "geometry": { "type": "LineString", "coordinates": [ [ -122.30624, 37.80813 ], [ -122.30728, 37.80816 ], [ -122.30833, 37.80836 ] ] } },
{ "type": "Feature", "properties": { "n": "Marina Drive", "h": "col" }, "geometry": { "type": "LineString", "coordinates": [ [ -122.09247, 37.61625 ], [ -122.09253, 37.61568 ], [ -122.09246, 37.61554 ] ] } },
{ "type": "Feature", "properties": { "n": "Doolittle Drive", "h": "col" }, "geometry": { "type": "LineString", "coordinates": [ [ -122.17346, 37.69382 ], [ -122.17337, 37.69371 ] ] } },
{ "type": "Feature", "properties": { "n": "Union City Boulevard", "h": "art" }, "geometry": { "type": "LineString", "coordinates": [ [ -122.07699, 37.57088 ], [ -122.07742, 37.5714 ] ] } },
{ "type": "Feature", "properties": { "n": "Union City Boulevard", "h": "art" }, "geometry": { "type": "LineString", "coordinates": [ [ -122.07743, 37.5714 ], [ -122.07753, 37.57154 ] ] } },
{ "type": "Feature", "properties": { "n": "Fernside Boulevard", "h": "art" }, "geometry": { "type": "LineString", "coordinates": [ [ -122.23084, 37.75407 ], [ -122.23098, 37.75399 ] ] } },
{ "type": "Feature", "properties": { "n": "7th Street", "h": "art" }, "geometry": { "type": "LineString", "coordinates": [ [ -122.30496, 37.80802 ], [ -122.30545, 37.8081 ], [ -122.30624, 37.80813 ] ] } },
{ "type": "Feature", "properties": { "n": "Meteor Drive", "h": "col" }, "geometry": { "type": "LineString", "coordinates": [ [ -122.0723, 37.58667 ], [ -122.07178, 37.58639 ] ] } },
{ "type": "Feature", "properties": { "n": "Regents Boulevard", "h": "col" }, "geometry": { "type": "LineString", "coordinates": [ [ -122.07409, 37.58462 ], [ -122.0737, 37.58435 ], [ -122.0735, 37.58411 ], [ -122.07314, 37.58306 ] ] } }
]
}
