{
"type": "FeatureCollection",
"name": "low_1ft",
"crs": { "type": "name", "properties": { "name": "urn:ogc:def:crs:OGC:1.3:CRS84" } },
"xy_coordinate_resolution": 1e-05,
"features": [
{ "type": "Feature", "properties": { "n": "Mariner Square Drive", "h": "col" }, "geometry": { "type": "LineString", "coordinates": [ [ -122.27662, 37.78819 ], [ -122.27666, 37.78853 ] ] } },
{ "type": "Feature", "properties": { "n": "Maitland Drive", "h": "col" }, "geometry": { "type": "LineString", "coordinates": [ [ -122.23425, 37.73382 ], [ -122.23434, 37.73408 ], [ -122.23809, 37.73864 ], [ -122.23823, 37.7387 ] ] } },
{ "type": "Feature", "properties": { "n": "CA 77", "h": "fwy" }, "geometry": { "type": "LineString", "coordinates": [ [ -122.21872, 37.7711 ], [ -122.21853, 37.77123 ] ] } },
{ "type": "Feature", "properties": { "n": "Ron Cowan Parkway", "h": "art" }, "geometry": { "type": "LineString", "coordinates": [ [ -122.20706, 37.71976 ], [ -122.20754, 37.72011 ], [ -122.20871, 37.7208 ] ] } },
{ "type": "Feature", "properties": { "n": "Island Drive", "h": "art" }, "geometry": { "type": "LineString", "coordinates": [ [ -122.23775, 37.74307 ], [ -122.23785, 37.74267 ] ] } },
{ "type": "Feature", "properties": { "n": "Island Drive", "h": "art" }, "geometry": { "type": "LineString", "coordinates": [ [ -122.23784, 37.74213 ], [ -122.2378, 37.74159 ] ] } },
{ "type": "Feature", "properties": { "n": "Island Drive", "h": "art" }, "geometry": { "type": "LineString", "coordinates": [ [ -122.23791, 37.7411 ], [ -122.23804, 37.74057 ] ] } },
{ "type": "Feature", "properties": { "n": "Harbor Bay Parkway", "h": "art" }, "geometry": { "type": "LineString", "coordinates": [ [ -122.22663, 37.74272 ], [ -122.22665, 37.7343 ] ] } },
{ "type": "Feature", "properties": { "n": "Ron Cowan Parkway", "h": "art" }, "geometry": { "type": "LineString", "coordinates": [ [ -122.22825, 37.72733 ], [ -122.22769, 37.7271 ] ] } },
{ "type": "Feature", "properties": { "n": "98th Avenue", "h": "art" }, "geometry": { "type": "LineString", "coordinates": [ [ -122.20078, 37.7244 ], [ -122.20091, 37.7253 ], [ -122.20079, 37.72592 ], [ -122.20047, 37.72645 ], [ -122.1998, 37.72702 ] ] } },
{ "type": "Feature", "properties": { "n": "Mariner Square Drive", "h": "col" }, "geometry": { "type": "LineString", "coordinates": [ [ -122.27611, 37.78548 ], [ -122.27637, 37.78601 ], [ -122.27645, 37.78631 ], [ -122.2765, 37.78714 ], [ -122.27641, 37.78767 ] ] } },
{ "type": "Feature", "properties": { "n": "7th Street", "h": "art" }, "geometry": { "type": "LineString", "coordinates": [ [ -122.30834, 37.80826 ], [ -122.30722, 37.80805 ], [ -122.30606, 37.80802 ] ] } },
{ "type": "Feature", "properties": { "n": "Mecartney Road", "h": "art" }, "geometry": { "type": "LineString", "coordinates": [ [ -122.2374, 37.73517 ], [ -122.23685, 37.73503 ], [ -122.23541, 37.73435 ] ] } },
{ "type": "Feature", "properties": { "n": "Harbor Bay Parkway", "h": "art" }, "geometry": { "type": "LineString", "coordinates": [ [ -122.22665, 37.7343 ], [ -122.22703, 37.73335 ], [ -122.22908, 37.72954 ] ] } },
{ "type": "Feature", "properties": { "n": "Harbor Bay Parkway", "h": "art" }, "geometry": { "type": "LineString", "coordinates": [ [ -122.22915, 37.72942 ], [ -122.2293, 37.72915 ] ] } },
{ "type": "Feature", "properties": { "n": "Harbor Bay Parkway", "h": "art" }, "geometry": { "type": "LineString", "coordinates": [ [ -122.2291, 37.72913 ], [ -122.22685, 37.73329 ], [ -122.22668, 37.73375 ] ] } },
{ "type": "Feature", "properties": { "n": "Maitland Drive", "h": "art" }, "geometry": { "type": "LineString", "coordinates": [ [ -122.2293, 37.72915 ], [ -122.23026, 37.72944 ], [ -122.23062, 37.72962 ], [ -122.23161, 37.73076 ] ] } },
{ "type": "Feature", "properties": { "n": "Main Street", "h": "col" }, "geometry": { "type": "LineString", "coordinates": [ [ -122.29609, 37.78973 ], [ -122.29693, 37.78977 ] ] } },
{ "type": "Feature", "properties": { "n": "Marina Village Parkway", "h": "col" }, "geometry": { "type": "LineString", "coordinates": [ [ -122.27613, 37.788 ], [ -122.27561, 37.78781 ] ] } },
{ "type": "Feature", "properties": { "n": "Mariner Square Loop", "h": "col" }, "geometry": { "type": "LineString", "coordinates": [ [ -122.27664, 37.78814 ], [ -122.27701, 37.7882 ] ] } },
{ "type": "Feature", "properties": { "n": "7th Street", "h": "art" }, "geometry": { "type": "LineString", "coordinates": [ [ -122.30522, 37.80788 ], [ -122.30404, 37.80763 ] ] } },
{ "type": "Feature", "properties": { "n": "7th Street", "h": "art" }, "geometry": { "type": "LineString", "coordinates": [ [ -122.30404, 37.80763 ], [ -122.30328, 37.80743 ] ] } },
{ "type": "Feature", "properties": { "n": "Main Street", "h": "col" }, "geometry": { "type": "LineString", "coordinates": [ [ -122.2914, 37.78584 ], [ -122.29153, 37.78662 ] ] } },
{ "type": "Feature", "properties": { "n": "Main Street", "h": "col" }, "geometry": { "type": "LineString", "coordinates": [ [ -122.29157, 37.78672 ], [ -122.29163, 37.78687 ] ] } },
{ "type": "Feature", "properties": { "n": "Marina Village Parkway", "h": "col" }, "geometry": { "type": "LineString", "coordinates": [ [ -122.27553, 37.78786 ], [ -122.27584, 37.78802 ] ] } },
{ "type": "Feature", "properties": { "n": "Airport Drive", "h": "art" }, "geometry": { "type": "LineString", "coordinates": [ [ -122.20763, 37.71422 ], [ -122.20803, 37.71513 ] ] } },
{ "type": "Feature", "properties": { "n": "98th Avenue", "h": "art" }, "geometry": { "type": "LineString", "coordinates": [ [ -122.1998, 37.72702 ], [ -122.19934, 37.72725 ] ] } },
{ "type": "Feature", "properties": { "n": "Ron Cowan Parkway", "h": "art" }, "geometry": { "type": "LineString", "coordinates": [ [ -122.21735, 37.72321 ], [ -122.21993, 37.72403 ] ] } },
{ "type": "Feature", "properties": { "n": "Ron Cowan Parkway", "h": "art" }, "geometry": { "type": "LineString", "coordinates": [ [ -122.22261, 37.72488 ], [ -122.22519, 37.72576 ] ] } },
{ "type": "Feature", "properties": { "n": "Ron Cowan Parkway", "h": "art" }, "geometry": { "type": "LineString", "coordinates": [ [ -122.21441, 37.72216 ], [ -122.21274, 37.72181 ] ] } },
{ "type": "Feature", "properties": { "n": "Ron Cowan Parkway", "h": "art" }, "geometry": { "type": "LineString", "coordinates": [ [ -122.2118, 37.72162 ], [ -122.21056, 37.72135 ], [ -122.20931, 37.72094 ], [ -122.2082, 37.72041 ], [ -122.20711, 37.71965 ] ] } },
{ "type": "Feature", "properties": { "n": "Ron Cowan Parkway", "h": "art" }, "geometry": { "type": "LineString", "coordinates": [ [ -122.22441, 37.72533 ], [ -122.22139, 37.72437 ] ] } },
{ "type": "Feature", "properties": { "n": "Ron Cowan Parkway", "h": "art" }, "geometry": { "type": "LineString", "coordinates": [ [ -122.21995, 37.72391 ], [ -122.21808, 37.72332 ] ] } },
{ "type": "Feature", "properties": { "n": "Marina Boulevard", "h": "col" }, "geometry": { "type": "LineString", "coordinates": [ [ -122.18894, 37.70111 ], [ -122.18872, 37.70129 ] ] } },
{ "type": "Feature", "properties": { "n": "Monarch Bay Drive", "h": "col" }, "geometry": { "type": "LineString", "coordinates": [ [ -122.18918, 37.70088 ], [ -122.18894, 37.70111 ] ] } },
{ "type": "Feature", "properties": { "n": "7th Street", "h": "art" }, "geometry": { "type": "LineString", "coordinates": [ [ -122.30606, 37.80802 ], [ -122.3057, 37.80798 ] ] } },
{ "type": "Feature", "properties": { "n": "7th Street", "h": "art" }, "geometry": { "type": "LineString", "coordinates": [ [ -122.3057, 37.80798 ], [ -122.30522, 37.80788 ] ] } },
{ "type": "Feature", "properties": { "n": "Frontage Road", "h": "art" }, "geometry": { "type": "LineString", "coordinates": [ [ -122.3041, 37.80782 ], [ -122.30404, 37.80763 ] ] } },
{ "type": "Feature", "properties": { "n": "Frontage Road", "h": "art" }, "geometry": { "type": "LineString", "coordinates": [ [ -122.30416, 37.8084 ], [ -122.3041, 37.80782 ] ] } },
{ "type": "Feature", "properties": { "n": "I 880", "h": "fwy" }, "geometry": { "type": "LineString", "coordinates": [ [ -122.0716, 37.61342 ], [ -122.07135, 37.61307 ] ] } },
{ "type": "Feature", "properties": { "n": "Willie Stargell Avenue", "h": "col" }, "geometry": { "type": "LineString", "coordinates": [ [ -122.29132, 37.78489 ], [ -122.29111, 37.78487 ] ] } },
{ "type": "Feature", "properties": { "n": "Doolittle Drive", "h": "art" }, "geometry": { "type": "LineString", "coordinates": [ [ -122.22597, 37.74527 ], [ -122.22574, 37.74527 ] ] } },
{ "type": "Feature", "properties": { "n": "Doolittle Drive", "h": "art" }, "geometry": { "type": "LineString", "coordinates": [ [ -122.22549, 37.74528 ], [ -122.22516, 37.74531 ] ] } },
{ "type": "Feature", "properties": { "n": "Doolittle Drive", "h": "art" }, "geometry": { "type": "LineString", "coordinates": [ [ -122.22513, 37.74531 ], [ -122.22493, 37.74534 ] ] } },
{ "type": "Feature", "properties": { "n": "Harbor Bay Parkway", "h": "art" }, "geometry": { "type": "LineString", "coordinates": [ [ -122.22668, 37.73375 ], [ -122.22665, 37.7343 ] ] } },
{ "type": "Feature", "properties": { "n": "Ron Cowan Parkway", "h": "art" }, "geometry": { "type": "LineString", "coordinates": [ [ -122.21808, 37.72332 ], [ -122.21743, 37.72311 ] ] } },
{ "type": "Feature", "properties": { "n": "Ron Cowan Parkway", "h": "art" }, "geometry": { "type": "LineString", "coordinates": [ [ -122.2285, 37.72739 ], [ -122.22825, 37.72733 ] ] } },
{ "type": "Feature", "properties": { "n": "Airport Drive", "h": "art" }, "geometry": { "type": "LineString", "coordinates": [ [ -122.20803, 37.71513 ], [ -122.20813, 37.71544 ] ] } },
{ "type": "Feature", "properties": { "n": "John Glenn Drive", "h": "col" }, "geometry": { "type": "LineString", "coordinates": [ [ -122.2059, 37.71784 ], [ -122.20689, 37.71747 ] ] } },
{ "type": "Feature", "properties": { "n": "Island Drive", "h": "art" }, "geometry": { "type": "LineString", "coordinates": [ [ -122.23808, 37.73929 ], [ -122.238, 37.73962 ] ] } },
{ "type": "Feature", "properties": { "n": "Island Drive", "h": "art" }, "geometry": { "type": "LineString", "coordinates": [ [ -122.23691, 37.74517 ], [ -122.23731, 37.7442 ] ] } },
{ "type": "Feature", "properties": { "n": "Island Drive", "h": "art" }, "geometry": { "type": "LineString", "coordinates": [ [ -122.23748, 37.74378 ], [ -122.23756, 37.74358 ] ] } },
{ "type": "Feature", "properties": { "n": "Island Drive", "h": "art" }, "geometry": { "type": "LineString", "coordinates": [ [ -122.23615, 37.74621 ], [ -122.23604, 37.74641 ] ] } },
{ "type": "Feature", "properties": { "n": "Island Drive", "h": "art" }, "geometry": { "type": "LineString", "coordinates": [ [ -122.23679, 37.74547 ], [ -122.23691, 37.74517 ] ] } },
{ "type": "Feature", "properties": { "n": "Island Drive", "h": "art" }, "geometry": { "type": "LineString", "coordinates": [ [ -122.23631, 37.74586 ], [ -122.23615, 37.74621 ] ] } },
{ "type": "Feature", "properties": { "n": "Island Drive", "h": "art" }, "geometry": { "type": "LineString", "coordinates": [ [ -122.23834, 37.73824 ], [ -122.23823, 37.7387 ] ] } },
{ "type": "Feature", "properties": { "n": "Island Drive", "h": "art" }, "geometry": { "type": "LineString", "coordinates": [ [ -122.23756, 37.74358 ], [ -122.23771, 37.74321 ] ] } },
{ "type": "Feature", "properties": { "n": "Island Drive", "h": "art" }, "geometry": { "type": "LineString", "coordinates": [ [ -122.23823, 37.7387 ], [ -122.23808, 37.73929 ] ] } },
{ "type": "Feature", "properties": { "n": "Island Drive", "h": "art" }, "geometry": { "type": "LineString", "coordinates": [ [ -122.2385, 37.73766 ], [ -122.23834, 37.73824 ] ] } },
{ "type": "Feature", "properties": { "n": "Island Drive", "h": "art" }, "geometry": { "type": "LineString", "coordinates": [ [ -122.23617, 37.74641 ], [ -122.23625, 37.74618 ], [ -122.2365, 37.7459 ] ] } },
{ "type": "Feature", "properties": { "n": "Island Drive", "h": "art" }, "geometry": { "type": "LineString", "coordinates": [ [ -122.23757, 37.74266 ], [ -122.23728, 37.74343 ] ] } },
{ "type": "Feature", "properties": { "n": "Island Drive", "h": "art" }, "geometry": { "type": "LineString", "coordinates": [ [ -122.238, 37.73962 ], [ -122.23756, 37.74155 ], [ -122.2376, 37.74241 ] ] } },
{ "type": "Feature", "properties": { "n": "Marina Village Parkway", "h": "col" }, "geometry": { "type": "LineString", "coordinates": [ [ -122.27599, 37.78807 ], [ -122.27645, 37.78812 ] ] } },
{ "type": "Feature", "properties": { "n": "Mariner Square Drive", "h": "col" }, "geometry": { "type": "LineString", "coordinates": [ [ -122.27606, 37.78511 ], [ -122.27611, 37.78548 ] ] } },
{ "type": "Feature", "properties": { "n": "Mariner Square Loop", "h": "col" }, "geometry": { "type": "LineString", "coordinates": [ [ -122.2769, 37.78806 ], [ -122.27664, 37.78804 ] ] } },
{ "type": "Feature", "properties": { "n": "Ron Cowan Parkway", "h": "art" }, "geometry": { "type": "LineString", "coordinates": [ [ -122.21031, 37.72142 ], [ -122.21131, 37.72165 ] ] } },
{ "type": "Feature", "properties": { "n": "Ron Cowan Parkway", "h": "art" }, "geometry": { "type": "LineString", "coordinates": [ [ -122.21131, 37.72165 ], [ -122.21166, 37.72172 ] ] } },
{ "type": "Feature", "properties": { "n": "Ron Cowan Parkway", "h": "art" }, "geometry": { "type": "LineString", "coordinates": [ [ -122.21295, 37.72197 ], [ -122.21357, 37.7221 ] ] } },
{ "type": "Feature", "properties": { "n": "Kato Road", "h": "col" }, "geometry": { "type": "LineString", "coordinates": [ [ -121.91985, 37.46192 ], [ -121.91837, 37.4624 ] ] } },
{ "type": "Feature", "properties": { "n": "Webster Street", "h": "art" }, "geometry": { "type": "LineString", "coordinates": [ [ -122.27662, 37.78622 ], [ -122.27664, 37.78744 ] ] } },
{ "type": "Feature", "properties": { "n": "CA 77", "h": "fwy" }, "geometry": { "type": "LineString", "coordinates": [ [ -122.21869, 37.77126 ], [ -122.22008, 37.77031 ] ] } },
{ "type": "Feature", "properties": { "n": "Fairway Drive", "h": "col" }, "geometry": { "type": "LineString", "coordinates": [ [ -122.18229, 37.6975 ], [ -122.18192, 37.69766 ] ] } },
{ "type": "Feature", "properties": { "n": "Fairway Drive", "h": "col" }, "geometry": { "type": "LineString", "coordinates": [ [ -122.18192, 37.69766 ], [ -122.18126, 37.69793 ] ] } },
{ "type": "Feature", "properties": { "n": "Fairway Drive", "h": "col" }, "geometry": { "type": "LineString", "coordinates": [ [ -122.18197, 37.69774 ], [ -122.1825, 37.69751 ] ] } },
{ "type": "Feature", "properties": { "n": "CA 77", "h": "fwy" }, "geometry": { "type": "LineString", "coordinates": [ [ -122.21997, 37.77023 ], [ -122.21872, 37.7711 ] ] } },
{ "type": "Feature", "properties": { "n": "Mariner Square Drive", "h": "col" }, "geometry": { "type": "LineString", "coordinates": [ [ -122.27666, 37.78853 ], [ -122.27667, 37.78921 ] ] } },
{ "type": "Feature", "properties": { "n": "Island Drive", "h": "art" }, "geometry": { "type": "LineString", "coordinates": [ [ -122.23728, 37.74343 ], [ -122.23646, 37.74547 ] ] } },
{ "type": "Feature", "properties": { "n": "Fairway Drive", "h": "col" }, "geometry": { "type": "LineString", "coordinates": [ [ -122.18107, 37.69811 ], [ -122.18197, 37.69774 ] ] } },
{ "type": "Feature", "properties": { "n": "Island Drive", "h": "art" }, "geometry": { "type": "LineString", "coordinates": [ [ -122.23646, 37.74547 ], [ -122.23631, 37.74586 ] ] } },
{ "type": "Feature", "properties": { "n": "Main Street", "h": "col" }, "geometry": { "type": "LineString", "coordinates": [ [ -122.29374, 37.78939 ], [ -122.2946, 37.78963 ] ] } },
{ "type": "Feature", "properties": { "n": "7th Street", "h": "art" }, "geometry": { "type": "LineString", "coordinates": [ [ -122.30321, 37.80753 ], [ -122.3041, 37.80782 ] ] } },
{ "type": "Feature", "properties": { "n": "7th Street", "h": "art" }, "geometry": { "type": "LineString", "coordinates": [ [ -122.3041, 37.80782 ], [ -122.30496, 37.80802 ] ] } },
{ "type": "Feature", "properties": { "n": "Ron Cowan Parkway", "h": "art" }, "geometry": { "type": "LineString", "coordinates": [ [ -122.20871, 37.7208 ], [ -122.20953, 37.72117 ], [ -122.21031, 37.72142 ] ] } },
{ "type": "Feature", "properties": { "n": "98th Avenue", "h": "art" }, "geometry": { "type": "LineString", "coordinates": [ [ -122.19959, 37.7273 ], [ -122.19993, 37.72713 ], [ -122.20041, 37.72678 ], [ -122.20086, 37.72619 ], [ -122.20103, 37.72576 ], [ -122.20108, 37.72528 ], [ -122.20096, 37.72445 ] ] } },
{ "type": "Feature", "properties": { "n": "Main Street", "h": "col" }, "geometry": { "type": "LineString", "coordinates": [ [ -122.29191, 37.78734 ], [ -122.29246, 37.78813 ] ] } },
{ "type": "Feature", "properties": { "n": "Main Street", "h": "col" }, "geometry": { "type": "LineString", "coordinates": [ [ -122.29163, 37.78687 ], [ -122.29191, 37.78734 ] ] } },
{ "type": "Feature", "properties": { "n": "Main Street", "h": "col" }, "geometry": { "type": "LineString", "coordinates": [ [ -122.29529, 37.78969 ], [ -122.29609, 37.78973 ] ] } },
{ "type": "Feature", "properties": { "n": "Main Street", "h": "col" }, "geometry": { "type": "LineString", "coordinates": [ [ -122.2946, 37.78963 ], [ -122.29529, 37.78969 ] ] } },
{ "type": "Feature", "properties": { "n": "Marina Village Parkway", "h": "col" }, "geometry": { "type": "LineString", "coordinates": [ [ -122.27642, 37.78803 ], [ -122.27613, 37.788 ] ] } },
{ "type": "Feature", "properties": { "n": "7th Street", "h": "art" }, "geometry": { "type": "LineString", "coordinates": [ [ -122.30894, 37.80849 ], [ -122.30973, 37.80867 ] ] } },
{ "type": "Feature", "properties": { "n": "7th Street", "h": "art" }, "geometry": { "type": "LineString", "coordinates": [ [ -122.30978, 37.80858 ], [ -122.30902, 37.8084 ] ] } },
{ "type": "Feature", "properties": { "n": "Frontage Road", "h": "art" }, "geometry": { "type": "LineString", "coordinates": [ [ -122.30419, 37.80918 ], [ -122.30416, 37.8084 ] ] } },
{ "type": "Feature", "properties": { "n": "7th Street", "h": "art" }, "geometry": { "type": "LineString", "coordinates": [ [ -122.30624, 37.80813 ], [ -122.30736, 37.80817 ] ] } },
{ "type": "Feature", "properties": { "n": "7th Street", "h": "art" }, "geometry": { "type": "LineString", "coordinates": [ [ -122.30745, 37.80818 ], [ -122.30833, 37.80836 ] ] } },
{ "type": "Feature", "properties": { "n": "Airport Drive", "h": "art" }, "geometry": { "type": "LineString", "coordinates": [ [ -122.20759, 37.71354 ], [ -122.20755, 37.71387 ], [ -122.20763, 37.71422 ] ] } },
{ "type": "Feature", "properties": { "n": "Doolittle Drive", "h": "art" }, "geometry": { "type": "LineString", "coordinates": [ [ -122.22574, 37.74527 ], [ -122.22556, 37.74528 ] ] } },
{ "type": "Feature", "properties": { "n": "Maitland Drive", "h": "art" }, "geometry": { "type": "LineString", "coordinates": [ [ -122.23161, 37.73076 ], [ -122.23402, 37.73368 ], [ -122.23425, 37.73382 ] ] } },
{ "type": "Feature", "properties": { "n": "Mecartney Road", "h": "art" }, "geometry": { "type": "LineString", "coordinates": [ [ -122.23541, 37.73435 ], [ -122.23516, 37.73423 ] ] } },
{ "type": "Feature", "properties": { "n": "Ron Cowan Parkway", "h": "art" }, "geometry": { "type": "LineString", "coordinates": [ [ -122.20579, 37.71817 ], [ -122.2057, 37.71791 ] ] } },
{ "type": "Feature", "properties": { "n": "John Glenn Drive", "h": "col" }, "geometry": { "type": "LineString", "coordinates": [ [ -122.2057, 37.71791 ], [ -122.2059, 37.71784 ] ] } },
{ "type": "Feature", "properties": { "n": "Ron Cowan Parkway", "h": "art" }, "geometry": { "type": "LineString", "coordinates": [ [ -122.2057, 37.71791 ], [ -122.20562, 37.71777 ] ] } },
{ "type": "Feature", "properties": { "n": "7th Street", "h": "art" }, "geometry": { "type": "LineString", "coordinates": [ [ -122.30496, 37.80802 ], [ -122.30545, 37.8081 ], [ -122.30624, 37.80813 ] ] } },
{ "type": "Feature", "properties": { "n": "Island Drive", "h": "art" }, "geometry": { "type": "LineString", "coordinates": [ [ -122.2376, 37.74241 ], [ -122.23758, 37.74264 ] ] } },
{ "type": "Feature", "properties": { "n": "I 880", "h": "fwy" }, "geometry": { "type": "LineString", "coordinates": [ [ -122.07101, 37.61307 ], [ -122.07132, 37.6135 ] ] } }
]
}
