{
"type": "FeatureCollection",
"name": "low_2.5ft",
"crs": { "type": "name", "properties": { "name": "urn:ogc:def:crs:OGC:1.3:CRS84" } },
"xy_coordinate_resolution": 1e-05,
"features": [
{ "type": "Feature", "properties": { "n": "Coliseum Way", "h": "art" }, "geometry": { "type": "LineString", "coordinates": [ [ -122.22056, 37.76937 ], [ -122.22078, 37.76969 ] ] } },
{ "type": "Feature", "properties": { "n": "Wicks Boulevard", "h": "col" }, "geometry": { "type": "LineString", "coordinates": [ [ -122.16444, 37.69642 ], [ -122.16365, 37.69527 ], [ -122.1635, 37.69489 ] ] } },
{ "type": "Feature", "properties": { "n": "Rocklin Drive", "h": "col" }, "geometry": { "type": "LineString", "coordinates": [ [ -122.06842, 37.5727 ], [ -122.07041, 37.57168 ], [ -122.07108, 37.5712 ], [ -122.07164, 37.5704 ], [ -122.07205, 37.56919 ], [ -122.07245, 37.5685 ] ] } },
{ "type": "Feature", "properties": { "n": "Fredi Street", "h": "col" }, "geometry": { "type": "LineString", "coordinates": [ [ -122.07756, 37.59329 ], [ -122.07785, 37.59241 ], [ -122.07768, 37.59178 ] ] } },
{ "type": "Feature", "properties": { "n": "Jean Drive", "h": "col" }, "geometry": { "type": "LineString", "coordinates": [ [ -122.07269, 37.57549 ], [ -122.073, 37.57617 ], [ -122.07328, 37.5765 ], [ -122.07521, 37.57776 ], [ -122.07649, 37.57892 ], [ -122.07699, 37.57927 ], [ -122.07813, 37.57989 ] ] } },
{ "type": "Feature", "properties": { "n": "Jean Drive", "h": "col" }, "geometry": { "type": "LineString", "coordinates": [ [ -122.07834, 37.58002 ], [ -122.08041, 37.58134 ] ] } },
{ "type": "Feature", "properties": { "n": "Regents Boulevard", "h": "col" }, "geometry": { "type": "LineString", "coordinates": [ [ -122.07906, 37.58758 ], [ -122.07888, 37.58749 ] ] } },
{ "type": "Feature", "properties": { "n": "Regents Boulevard", "h": "col" }, "geometry": { "type": "LineString", "coordinates": [ [ -122.07885, 37.58747 ], [ -122.07826, 37.58715 ] ] } },
{ "type": "Feature", "properties": { "n": "Regents Boulevard", "h": "col" }, "geometry": { "type": "LineString", "coordinates": [ [ -122.07741, 37.58668 ], [ -122.07505, 37.58537 ], [ -122.07466, 37.58498 ] ] } },
{ "type": "Feature", "properties": { "n": "Delores Drive", "h": "col" }, "geometry": { "type": "LineString", "coordinates": [ [ -122.07666, 37.57112 ], [ -122.07699, 37.57088 ] ] } },
{ "type": "Feature", "properties": { "n": "CA 77", "h": "fwy" }, "geometry": { "type": "LineString", "coordinates": [ [ -122.21872, 37.7711 ], [ -122.2179, 37.77167 ] ] } },
{ "type": "Feature", "properties": { "n": "Otis Drive", "h": "art" }, "geometry": { "type": "LineString", "coordinates": [ [ -122.24071, 37.75311 ], [ -122.24242, 37.7543 ], [ -122.24324, 37.75474 ] ] } },
{ "type": "Feature", "properties": { "n": "3rd Street", "h": "col" }, "geometry": { "type": "LineString", "coordinates": [ [ -122.29178, 37.80169 ], [ -122.29148, 37.80161 ] ] } },
{ "type": "Feature", "properties": { "n": "98th Avenue", "h": "art" }, "geometry": { "type": "LineString", "coordinates": [ [ -122.20075, 37.72423 ], [ -122.20091, 37.7253 ], [ -122.20079, 37.72592 ], [ -122.20047, 37.72645 ], [ -122.1998, 37.72702 ] ] } },
{ "type": "Feature", "properties": { "n": "Regents Boulevard", "h": "col" }, "geometry": { "type": "LineString", "coordinates": [ [ -122.06842, 37.5727 ], [ -122.06767, 37.57226 ], [ -122.06711, 37.57204 ], [ -122.06677, 37.572 ], [ -122.06567, 37.57204 ] ] } },
{ "type": "Feature", "properties": { "n": "CA 77", "h": "fwy" }, "geometry": { "type": "LineString", "coordinates": [ [ -122.22098, 37.76954 ], [ -122.22078, 37.76969 ] ] } },
{ "type": "Feature", "properties": { "n": "Alvarado Boulevard", "h": "art" }, "geometry": { "type": "LineString", "coordinates": [ [ -122.07771, 37.59165 ], [ -122.07691, 37.59194 ] ] } },
{ "type": "Feature", "properties": { "n": "Alvarado Boulevard", "h": "art" }, "geometry": { "type": "LineString", "coordinates": [ [ -122.07597, 37.59235 ], [ -122.07548, 37.59241 ] ] } },
{ "type": "Feature", "properties": { "n": "7th Street", "h": "art" }, "geometry": { "type": "LineString", "coordinates": [ [ -122.30834, 37.80826 ], [ -122.30722, 37.80805 ], [ -122.30606, 37.80802 ] ] } },
{ "type": "Feature", "properties": { "n": "Regents Boulevard", "h": "col" }, "geometry": { "type": "LineString", "coordinates": [ [ -122.0674, 37.57562 ], [ -122.06778, 37.57476 ], [ -122.06867, 37.57386 ], [ -122.06872, 37.57374 ] ] } },
{ "type": "Feature", "properties": { "n": "Alvarado Boulevard", "h": "art" }, "geometry": { "type": "LineString", "coordinates": [ [ -122.07559, 37.59252 ], [ -122.07616, 37.5924 ] ] } },
{ "type": "Feature", "properties": { "n": "Alvarado Boulevard", "h": "art" }, "geometry": { "type": "LineString", "coordinates": [ [ -122.07678, 37.59213 ], [ -122.07696, 37.59204 ] ] } },
{ "type": "Feature", "properties": { "n": "Bay Edge Road", "h": "art" }, "geometry": { "type": "LineString", "coordinates": [ [ -122.25155, 37.73551 ], [ -122.25184, 37.73536 ] ] } },
{ "type": "Feature", "properties": { "n": "Marina Drive", "h": "col" }, "geometry": { "type": "LineString", "coordinates": [ [ -122.09013, 37.61432 ], [ -122.09033, 37.61437 ] ] } },
{ "type": "Feature", "properties": { "n": "Marina Drive", "h": "col" }, "geometry": { "type": "LineString", "coordinates": [ [ -122.09106, 37.6145 ], [ -122.0914, 37.61456 ] ] } },
{ "type": "Feature", "properties": { "n": "Fremont Boulevard", "h": "art" }, "geometry": { "type": "LineString", "coordinates": [ [ -121.93705, 37.46957 ], [ -121.93397, 37.46671 ] ] } },
{ "type": "Feature", "properties": { "n": "Fremont Boulevard", "h": "art" }, "geometry": { "type": "LineString", "coordinates": [ [ -121.93346, 37.46638 ], [ -121.93203, 37.46551 ] ] } },
{ "type": "Feature", "properties": { "n": "Bayside Parkway", "h": "col" }, "geometry": { "type": "LineString", "coordinates": [ [ -121.94101, 37.48096 ], [ -121.94089, 37.48075 ] ] } },
{ "type": "Feature", "properties": { "n": "Gateway Boulevard", "h": "col" }, "geometry": { "type": "LineString", "coordinates": [ [ -121.93661, 37.477 ], [ -121.9368, 37.47687 ] ] } },
{ "type": "Feature", "properties": { "n": "I 80", "h": "fwy" }, "geometry": { "type": "LineString", "coordinates": [ [ -122.29507, 37.82753 ], [ -122.2945, 37.82796 ] ] } },
{ "type": "Feature", "properties": { "n": "I 80", "h": "fwy" }, "geometry": { "type": "LineString", "coordinates": [ [ -122.29418, 37.82834 ], [ -122.29396, 37.82867 ] ] } },
{ "type": "Feature", "properties": { "n": "I 80", "h": "fwy" }, "geometry": { "type": "LineString", "coordinates": [ [ -122.29396, 37.82867 ], [ -122.29386, 37.82885 ] ] } },
{ "type": "Feature", "properties": { "n": "7th Street", "h": "art" }, "geometry": { "type": "LineString", "coordinates": [ [ -122.30522, 37.80788 ], [ -122.30404, 37.80763 ] ] } },
{ "type": "Feature", "properties": { "n": "Central Avenue", "h": "col" }, "geometry": { "type": "LineString", "coordinates": [ [ -122.22914, 37.75625 ], [ -122.22875, 37.75597 ] ] } },
{ "type": "Feature", "properties": { "n": "Central Avenue", "h": "col" }, "geometry": { "type": "LineString", "coordinates": [ [ -122.22872, 37.75595 ], [ -122.22831, 37.75567 ] ] } },
{ "type": "Feature", "properties": { "n": "Lowry Road", "h": "col" }, "geometry": { "type": "LineString", "coordinates": [ [ -122.06745, 37.56794 ], [ -122.06848, 37.56794 ] ] } },
{ "type": "Feature", "properties": { "n": "Lowry Road", "h": "col" }, "geometry": { "type": "LineString", "coordinates": [ [ -122.06885, 37.56787 ], [ -122.0691, 37.56779 ] ] } },
{ "type": "Feature", "properties": { "n": "Lowry Road", "h": "col" }, "geometry": { "type": "LineString", "coordinates": [ [ -122.06948, 37.5676 ], [ -122.06996, 37.56721 ] ] } },
{ "type": "Feature", "properties": { "n": "7th Street", "h": "art" }, "geometry": { "type": "LineString", "coordinates": [ [ -122.30404, 37.80763 ], [ -122.3032, 37.8074 ] ] } },
{ "type": "Feature", "properties": { "n": "CA 77", "h": "fwy" }, "geometry": { "type": "LineString", "coordinates": [ [ -122.22047, 37.77006 ], [ -122.22086, 37.7698 ] ] } },
{ "type": "Feature", "properties": { "n": "98th Avenue", "h": "art" }, "geometry": { "type": "LineString", "coordinates": [ [ -122.1998, 37.72702 ], [ -122.19918, 37.72732 ] ] } },
{ "type": "Feature", "properties": { "n": "Mecartney Road", "h": "art" }, "geometry": { "type": "LineString", "coordinates": [ [ -122.24722, 37.73726 ], [ -122.24826, 37.7373 ] ] } },
{ "type": "Feature", "properties": { "n": "Marina Boulevard", "h": "col" }, "geometry": { "type": "LineString", "coordinates": [ [ -122.18894, 37.70111 ], [ -122.18872, 37.70129 ] ] } },
{ "type": "Feature", "properties": { "n": "Marina Boulevard", "h": "col" }, "geometry": { "type": "LineString", "coordinates": [ [ -122.18884, 37.70127 ], [ -122.18904, 37.70115 ] ] } },
{ "type": "Feature", "properties": { "n": "Monarch Bay Drive", "h": "col" }, "geometry": { "type": "LineString", "coordinates": [ [ -122.18904, 37.70115 ], [ -122.18938, 37.70084 ], [ -122.18947, 37.70052 ] ] } },
{ "type": "Feature", "properties": { "n": "Monarch Bay Drive", "h": "col" }, "geometry": { "type": "LineString", "coordinates": [ [ -122.18943, 37.70055 ], [ -122.18894, 37.70111 ] ] } },
{ "type": "Feature", "properties": { "n": "West Warren Avenue", "h": "art" }, "geometry": { "type": "LineString", "coordinates": [ [ -121.94314, 37.48166 ], [ -121.94374, 37.48147 ] ] } },
{ "type": "Feature", "properties": { "n": "7th Street", "h": "art" }, "geometry": { "type": "LineString", "coordinates": [ [ -122.30606, 37.80802 ], [ -122.3057, 37.80798 ] ] } },
{ "type": "Feature", "properties": { "n": "7th Street", "h": "art" }, "geometry": { "type": "LineString", "coordinates": [ [ -122.3057, 37.80798 ], [ -122.30522, 37.80788 ] ] } },
{ "type": "Feature", "properties": { "n": "Frontage Road", "h": "art" }, "geometry": { "type": "LineString", "coordinates": [ [ -122.3041, 37.80782 ], [ -122.30404, 37.80763 ] ] } },
{ "type": "Feature", "properties": { "n": "Frontage Road", "h": "art" }, "geometry": { "type": "LineString", "coordinates": [ [ -122.30416, 37.8084 ], [ -122.3041, 37.80782 ] ] } },
{ "type": "Feature", "properties": { "n": "I 880", "h": "fwy" }, "geometry": { "type": "LineString", "coordinates": [ [ -121.92461, 37.46043 ], [ -121.92521, 37.46166 ] ] } },
{ "type": "Feature", "properties": { "n": "CA 77", "h": "fwy" }, "geometry": { "type": "LineString", "coordinates": [ [ -122.22078, 37.76969 ], [ -122.22041, 37.76994 ] ] } },
{ "type": "Feature", "properties": { "n": "CA 77", "h": "fwy" }, "geometry": { "type": "LineString", "coordinates": [ [ -122.22086, 37.7698 ], [ -122.22109, 37.76963 ] ] } },
{ "type": "Feature", "properties": { "n": "Alvarado Boulevard", "h": "art" }, "geometry": { "type": "LineString", "coordinates": [ [ -122.07828, 37.59159 ], [ -122.07771, 37.59165 ] ] } },
{ "type": "Feature", "properties": { "n": "Alvarado Boulevard", "h": "art" }, "geometry": { "type": "LineString", "coordinates": [ [ -122.07696, 37.59204 ], [ -122.07755, 37.59181 ] ] } },
{ "type": "Feature", "properties": { "n": "Alvarado Boulevard", "h": "art" }, "geometry": { "type": "LineString", "coordinates": [ [ -122.08098, 37.59159 ], [ -122.08073, 37.59159 ] ] } },
{ "type": "Feature", "properties": { "n": "Alvarado Boulevard", "h": "art" }, "geometry": { "type": "LineString", "coordinates": [ [ -122.07768, 37.59178 ], [ -122.07824, 37.59171 ], [ -122.08011, 37.5917 ] ] } },
{ "type": "Feature", "properties": { "n": "Dyer Street", "h": "art" }, "geometry": { "type": "LineString", "coordinates": [ [ -122.07419, 37.58468 ], [ -122.07431, 37.58455 ], [ -122.0743, 37.58447 ] ] } },
{ "type": "Feature", "properties": { "n": "Dyer Street", "h": "art" }, "geometry": { "type": "LineString", "coordinates": [ [ -122.07468, 37.58402 ], [ -122.07499, 37.58367 ] ] } },
{ "type": "Feature", "properties": { "n": "Dyer Street", "h": "art" }, "geometry": { "type": "LineString", "coordinates": [ [ -122.07567, 37.58288 ], [ -122.07582, 37.58272 ] ] } },
{ "type": "Feature", "properties": { "n": "Hegenberger Road", "h": "art" }, "geometry": { "type": "LineString", "coordinates": [ [ -122.20139, 37.72515 ], [ -122.20124, 37.72477 ] ] } },
{ "type": "Feature", "properties": { "n": "Hegenberger Road", "h": "art" }, "geometry": { "type": "LineString", "coordinates": [ [ -122.20124, 37.72477 ], [ -122.20115, 37.72447 ] ] } },
{ "type": "Feature", "properties": { "n": "Broadway", "h": "col" }, "geometry": { "type": "LineString", "coordinates": [ [ -122.24589, 37.75426 ], [ -122.24486, 37.75553 ] ] } },
{ "type": "Feature", "properties": { "n": "Otis Drive", "h": "art" }, "geometry": { "type": "LineString", "coordinates": [ [ -122.24446, 37.75538 ], [ -122.2447, 37.75551 ] ] } },
{ "type": "Feature", "properties": { "n": "Mecartney Road", "h": "art" }, "geometry": { "type": "LineString", "coordinates": [ [ -122.24661, 37.73724 ], [ -122.24722, 37.73726 ] ] } },
{ "type": "Feature", "properties": { "n": "Mecartney Road", "h": "art" }, "geometry": { "type": "LineString", "coordinates": [ [ -122.24761, 37.73714 ], [ -122.24721, 37.73713 ] ] } },
{ "type": "Feature", "properties": { "n": "Mecartney Road", "h": "art" }, "geometry": { "type": "LineString", "coordinates": [ [ -122.24801, 37.73716 ], [ -122.24761, 37.73714 ] ] } },
{ "type": "Feature", "properties": { "n": "Mecartney Road", "h": "art" }, "geometry": { "type": "LineString", "coordinates": [ [ -122.24721, 37.73713 ], [ -122.24659, 37.73708 ] ] } },
{ "type": "Feature", "properties": { "n": "Robert Davey Junior Drive", "h": "art" }, "geometry": { "type": "LineString", "coordinates": [ [ -122.2392, 37.74391 ], [ -122.23937, 37.74405 ] ] } },
{ "type": "Feature", "properties": { "n": "Alvarado Boulevard", "h": "art" }, "geometry": { "type": "LineString", "coordinates": [ [ -122.08011, 37.5917 ], [ -122.08096, 37.5917 ] ] } },
{ "type": "Feature", "properties": { "n": "Dyer Street", "h": "art" }, "geometry": { "type": "LineString", "coordinates": [ [ -122.07274, 37.58626 ], [ -122.07297, 37.58598 ] ] } },
{ "type": "Feature", "properties": { "n": "Dyer Street", "h": "art" }, "geometry": { "type": "LineString", "coordinates": [ [ -122.07365, 37.58521 ], [ -122.07384, 37.585 ] ] } },
{ "type": "Feature", "properties": { "n": "Dyer Street", "h": "art" }, "geometry": { "type": "LineString", "coordinates": [ [ -122.07241, 37.58673 ], [ -122.07252, 37.58658 ] ] } },
{ "type": "Feature", "properties": { "n": "Union City Boulevard", "h": "art" }, "geometry": { "type": "LineString", "coordinates": [ [ -122.08105, 37.59246 ], [ -122.08111, 37.59213 ] ] } },
{ "type": "Feature", "properties": { "n": "Union City Boulevard", "h": "art" }, "geometry": { "type": "LineString", "coordinates": [ [ -122.08121, 37.58837 ], [ -122.08121, 37.58774 ] ] } },
{ "type": "Feature", "properties": { "n": "Union City Boulevard", "h": "art" }, "geometry": { "type": "LineString", "coordinates": [ [ -122.08084, 37.59364 ], [ -122.08083, 37.59485 ] ] } },
{ "type": "Feature", "properties": { "n": "Union City Boulevard", "h": "art" }, "geometry": { "type": "LineString", "coordinates": [ [ -122.08075, 37.58073 ], [ -122.08075, 37.58121 ] ] } },
{ "type": "Feature", "properties": { "n": "Union City Boulevard", "h": "art" }, "geometry": { "type": "LineString", "coordinates": [ [ -122.081, 37.58717 ], [ -122.08101, 37.58752 ] ] } },
{ "type": "Feature", "properties": { "n": "Union City Boulevard", "h": "art" }, "geometry": { "type": "LineString", "coordinates": [ [ -122.08098, 37.59118 ], [ -122.08097, 37.59159 ] ] } },
{ "type": "Feature", "properties": { "n": "Union City Boulevard", "h": "art" }, "geometry": { "type": "LineString", "coordinates": [ [ -122.08085, 37.59337 ], [ -122.08084, 37.59364 ] ] } },
{ "type": "Feature", "properties": { "n": "Union City Boulevard", "h": "art" }, "geometry": { "type": "LineString", "coordinates": [ [ -122.08096, 37.5917 ], [ -122.08094, 37.59186 ] ] } },
{ "type": "Feature", "properties": { "n": "Union City Boulevard", "h": "art" }, "geometry": { "type": "LineString", "coordinates": [ [ -122.0812, 37.59161 ], [ -122.08122, 37.59061 ] ] } },
{ "type": "Feature", "properties": { "n": "Union City Boulevard", "h": "art" }, "geometry": { "type": "LineString", "coordinates": [ [ -122.08087, 37.58579 ], [ -122.0809, 37.58657 ] ] } },
{ "type": "Feature", "properties": { "n": "Union City Boulevard", "h": "art" }, "geometry": { "type": "LineString", "coordinates": [ [ -122.08122, 37.58755 ], [ -122.08107, 37.58542 ] ] } },
{ "type": "Feature", "properties": { "n": "Union City Boulevard", "h": "art" }, "geometry": { "type": "LineString", "coordinates": [ [ -122.07662, 37.57054 ], [ -122.07691, 37.57081 ] ] } },
{ "type": "Feature", "properties": { "n": "Marina Drive", "h": "col" }, "geometry": { "type": "LineString", "coordinates": [ [ -122.0914, 37.61456 ], [ -122.09162, 37.61465 ] ] } },
{ "type": "Feature", "properties": { "n": "Marina Drive", "h": "col" }, "geometry": { "type": "LineString", "coordinates": [ [ -122.09238, 37.61534 ], [ -122.09246, 37.61554 ] ] } },
{ "type": "Feature", "properties": { "n": "Marina Drive", "h": "col" }, "geometry": { "type": "LineString", "coordinates": [ [ -122.08991, 37.6142 ], [ -122.09013, 37.61432 ] ] } },
{ "type": "Feature", "properties": { "n": "Marina Drive", "h": "col" }, "geometry": { "type": "LineString", "coordinates": [ [ -122.09221, 37.61509 ], [ -122.09238, 37.61534 ] ] } },
{ "type": "Feature", "properties": { "n": "Gateway Boulevard", "h": "col" }, "geometry": { "type": "LineString", "coordinates": [ [ -121.93956, 37.4749 ], [ -121.93928, 37.47508 ] ] } },
{ "type": "Feature", "properties": { "n": "Kato Road", "h": "col" }, "geometry": { "type": "LineString", "coordinates": [ [ -121.91993, 37.4619 ], [ -121.91826, 37.46244 ] ] } },
{ "type": "Feature", "properties": { "n": "Wicks Boulevard", "h": "col" }, "geometry": { "type": "LineString", "coordinates": [ [ -122.16332, 37.69365 ], [ -122.16329, 37.69343 ] ] } },
{ "type": "Feature", "properties": { "n": "Fernside Boulevard", "h": "art" }, "geometry": { "type": "LineString", "coordinates": [ [ -122.22969, 37.75511 ], [ -122.22955, 37.75523 ] ] } },
{ "type": "Feature", "properties": { "n": "Fernside Boulevard", "h": "art" }, "geometry": { "type": "LineString", "coordinates": [ [ -122.22947, 37.7553 ], [ -122.2288, 37.75591 ] ] } },
{ "type": "Feature", "properties": { "n": "Regents Boulevard", "h": "col" }, "geometry": { "type": "LineString", "coordinates": [ [ -122.07906, 37.58758 ], [ -122.07929, 37.58766 ], [ -122.08074, 37.58766 ] ] } },
{ "type": "Feature", "properties": { "n": "Regents Boulevard", "h": "col" }, "geometry": { "type": "LineString", "coordinates": [ [ -122.08071, 37.58756 ], [ -122.07906, 37.58758 ] ] } },
{ "type": "Feature", "properties": { "n": "Gateway Boulevard", "h": "col" }, "geometry": { "type": "LineString", "coordinates": [ [ -121.94141, 37.47371 ], [ -121.94177, 37.47345 ] ] } },
{ "type": "Feature", "properties": { "n": "Gateway Boulevard", "h": "col" }, "geometry": { "type": "LineString", "coordinates": [ [ -121.94125, 37.47383 ], [ -121.94141, 37.47371 ] ] } },
{ "type": "Feature", "properties": { "n": "Gateway Boulevard", "h": "col" }, "geometry": { "type": "LineString", "coordinates": [ [ -121.94067, 37.47415 ], [ -121.94087, 37.47411 ], [ -121.94125, 37.47383 ] ] } },
{ "type": "Feature", "properties": { "n": "Gateway Boulevard", "h": "col" }, "geometry": { "type": "LineString", "coordinates": [ [ -121.94169, 37.47337 ], [ -121.94104, 37.47382 ] ] } },
{ "type": "Feature", "properties": { "n": "Gateway Boulevard", "h": "col" }, "geometry": { "type": "LineString", "coordinates": [ [ -121.94087, 37.47393 ], [ -121.94074, 37.47404 ] ] } },
{ "type": "Feature", "properties": { "n": "Gateway Boulevard", "h": "col" }, "geometry": { "type": "LineString", "coordinates": [ [ -121.94067, 37.47415 ], [ -121.94025, 37.47443 ] ] } },
{ "type": "Feature", "properties": { "n": "Gateway Boulevard", "h": "col" }, "geometry": { "type": "LineString", "coordinates": [ [ -121.93993, 37.47465 ], [ -121.93956, 37.4749 ] ] } },
{ "type": "Feature", "properties": { "n": "Fremont Boulevard", "h": "art" }, "geometry": { "type": "LineString", "coordinates": [ [ -121.93741, 37.4699 ], [ -121.93705, 37.46957 ] ] } },
{ "type": "Feature", "properties": { "n": "Fremont Boulevard", "h": "art" }, "geometry": { "type": "LineString", "coordinates": [ [ -121.94211, 37.47377 ], [ -121.94199, 37.47365 ] ] } },
{ "type": "Feature", "properties": { "n": "Fremont Boulevard", "h": "art" }, "geometry": { "type": "LineString", "coordinates": [ [ -121.94529, 37.47968 ], [ -121.94555, 37.47876 ], [ -121.94555, 37.47839 ], [ -121.94541, 37.47785 ], [ -121.94443, 37.47616 ], [ -121.94354, 37.47511 ] ] } },
{ "type": "Feature", "properties": { "n": "Fremont Boulevard", "h": "art" }, "geometry": { "type": "LineString", "coordinates": [ [ -121.94346, 37.47503 ], [ -121.94211, 37.47377 ] ] } },
{ "type": "Feature", "properties": { "n": "CA 77", "h": "fwy" }, "geometry": { "type": "LineString", "coordinates": [ [ -122.21799, 37.77174 ], [ -122.22008, 37.77031 ] ] } },
{ "type": "Feature", "properties": { "n": "Delores Drive", "h": "col" }, "geometry": { "type": "LineString", "coordinates": [ [ -122.06796, 37.57989 ], [ -122.07109, 37.57638 ], [ -122.0718, 37.57587 ], [ -122.07269, 37.57549 ] ] } },
{ "type": "Feature", "properties": { "n": "Jean Drive", "h": "col" }, "geometry": { "type": "LineString", "coordinates": [ [ -122.06894, 37.57361 ], [ -122.0701, 37.57385 ], [ -122.07053, 37.57407 ] ] } },
{ "type": "Feature", "properties": { "n": "Monarch Bay Drive", "h": "col" }, "geometry": { "type": "LineString", "coordinates": [ [ -122.18846, 37.69828 ], [ -122.18797, 37.69732 ] ] } },
{ "type": "Feature", "properties": { "n": "Fairway Drive", "h": "col" }, "geometry": { "type": "LineString", "coordinates": [ [ -122.18294, 37.69733 ], [ -122.18351, 37.6971 ] ] } },
{ "type": "Feature", "properties": { "n": "Union City Boulevard", "h": "art" }, "geometry": { "type": "LineString", "coordinates": [ [ -122.08111, 37.59213 ], [ -122.08119, 37.5917 ] ] } },
{ "type": "Feature", "properties": { "n": "Farallon Drive", "h": "col" }, "geometry": { "type": "LineString", "coordinates": [ [ -122.16621, 37.69261 ], [ -122.16646, 37.69255 ] ] } },
{ "type": "Feature", "properties": { "n": "Farallon Drive", "h": "col" }, "geometry": { "type": "LineString", "coordinates": [ [ -122.16592, 37.69268 ], [ -122.16621, 37.69261 ] ] } },
{ "type": "Feature", "properties": { "n": "Farallon Drive", "h": "col" }, "geometry": { "type": "LineString", "coordinates": [ [ -122.16564, 37.69275 ], [ -122.16592, 37.69268 ] ] } },
{ "type": "Feature", "properties": { "n": "Fairway Drive", "h": "col" }, "geometry": { "type": "LineString", "coordinates": [ [ -122.18229, 37.6975 ], [ -122.18192, 37.69766 ] ] } },
{ "type": "Feature", "properties": { "n": "Fairway Drive", "h": "col" }, "geometry": { "type": "LineString", "coordinates": [ [ -122.18289, 37.69725 ], [ -122.18229, 37.6975 ] ] } },
{ "type": "Feature", "properties": { "n": "Fairway Drive", "h": "col" }, "geometry": { "type": "LineString", "coordinates": [ [ -122.18333, 37.69706 ], [ -122.18289, 37.69725 ] ] } },
{ "type": "Feature", "properties": { "n": "Fairway Drive", "h": "col" }, "geometry": { "type": "LineString", "coordinates": [ [ -122.18192, 37.69766 ], [ -122.17983, 37.69852 ] ] } },
{ "type": "Feature", "properties": { "n": "Fairway Drive", "h": "col" }, "geometry": { "type": "LineString", "coordinates": [ [ -122.1825, 37.69751 ], [ -122.18294, 37.69733 ] ] } },
{ "type": "Feature", "properties": { "n": "Fairway Drive", "h": "col" }, "geometry": { "type": "LineString", "coordinates": [ [ -122.18197, 37.69774 ], [ -122.1825, 37.69751 ] ] } },
{ "type": "Feature", "properties": { "n": "CA 77", "h": "fwy" }, "geometry": { "type": "LineString", "coordinates": [ [ -122.21997, 37.77023 ], [ -122.21872, 37.7711 ] ] } },
{ "type": "Feature", "properties": { "n": "Fremont Boulevard", "h": "art" }, "geometry": { "type": "LineString", "coordinates": [ [ -121.94199, 37.47365 ], [ -121.94177, 37.47345 ] ] } },
{ "type": "Feature", "properties": { "n": "Fremont Boulevard", "h": "art" }, "geometry": { "type": "LineString", "coordinates": [ [ -121.94169, 37.47337 ], [ -121.94084, 37.47258 ], [ -121.94001, 37.47195 ] ] } },
{ "type": "Feature", "properties": { "n": "Fremont Boulevard", "h": "art" }, "geometry": { "type": "LineString", "coordinates": [ [ -121.93985, 37.47183 ], [ -121.93804, 37.47047 ], [ -121.93741, 37.4699 ] ] } },
{ "type": "Feature", "properties": { "n": "Fairway Drive", "h": "col" }, "geometry": { "type": "LineString", "coordinates": [ [ -122.17951, 37.69876 ], [ -122.17969, 37.69869 ] ] } },
{ "type": "Feature", "properties": { "n": "Fairway Drive", "h": "col" }, "geometry": { "type": "LineString", "coordinates": [ [ -122.1797, 37.69868 ], [ -122.18197, 37.69774 ] ] } },
{ "type": "Feature", "properties": { "n": "Marina Boulevard", "h": "col" }, "geometry": { "type": "LineString", "coordinates": [ [ -122.18743, 37.70183 ], [ -122.18836, 37.70144 ] ] } },
{ "type": "Feature", "properties": { "n": "Regents Boulevard", "h": "col" }, "geometry": { "type": "LineString", "coordinates": [ [ -122.07314, 37.58306 ], [ -122.07291, 37.58274 ], [ -122.07245, 37.5824 ], [ -122.06786, 37.57984 ] ] } },
{ "type": "Feature", "properties": { "n": "Dyer Street", "h": "art" }, "geometry": { "type": "LineString", "coordinates": [ [ -122.07218, 37.58687 ], [ -122.0723, 37.58685 ], [ -122.07241, 37.58673 ] ] } },
{ "type": "Feature", "properties": { "n": "Dyer Street", "h": "art" }, "geometry": { "type": "LineString", "coordinates": [ [ -122.07397, 37.58484 ], [ -122.07419, 37.58468 ] ] } },
{ "type": "Feature", "properties": { "n": "Dyer Street", "h": "art" }, "geometry": { "type": "LineString", "coordinates": [ [ -122.07582, 37.58272 ], [ -122.07594, 37.58259 ] ] } },
{ "type": "Feature", "properties": { "n": "Dyer Street", "h": "art" }, "geometry": { "type": "LineString", "coordinates": [ [ -122.07667, 37.58178 ], [ -122.077, 37.5814 ] ] } },
{ "type": "Feature", "properties": { "n": "Dyer Street", "h": "art" }, "geometry": { "type": "LineString", "coordinates": [ [ -122.07764, 37.58067 ], [ -122.07784, 37.58043 ] ] } },
{ "type": "Feature", "properties": { "n": "Jean Drive", "h": "col" }, "geometry": { "type": "LineString", "coordinates": [ [ -122.08048, 37.58136 ], [ -122.08071, 37.58138 ] ] } },
{ "type": "Feature", "properties": { "n": "Farallon Drive", "h": "col" }, "geometry": { "type": "LineString", "coordinates": [ [ -122.16403, 37.69315 ], [ -122.16564, 37.69275 ] ] } },
{ "type": "Feature", "properties": { "n": "Farallon Drive", "h": "col" }, "geometry": { "type": "LineString", "coordinates": [ [ -122.16403, 37.69315 ], [ -122.16383, 37.6932 ] ] } },
{ "type": "Feature", "properties": { "n": "Farallon Drive", "h": "col" }, "geometry": { "type": "LineString", "coordinates": [ [ -122.16768, 37.69315 ], [ -122.16803, 37.69364 ], [ -122.16844, 37.69389 ] ] } },
{ "type": "Feature", "properties": { "n": "Farallon Drive", "h": "col" }, "geometry": { "type": "LineString", "coordinates": [ [ -122.16646, 37.69255 ], [ -122.16682, 37.69255 ], [ -122.16714, 37.69263 ], [ -122.16741, 37.6928 ], [ -122.16768, 37.69315 ] ] } },
{ "type": "Feature", "properties": { "n": "Marina Boulevard", "h": "col" }, "geometry": { "type": "LineString", "coordinates": [ [ -122.18836, 37.70144 ], [ -122.18872, 37.70129 ] ] } },
{ "type": "Feature", "properties": { "n": "Union City Boulevard", "h": "art" }, "geometry": { "type": "LineString", "coordinates": [ [ -122.08122, 37.59061 ], [ -122.08121, 37.58837 ] ] } },
{ "type": "Feature", "properties": { "n": "Delores Drive", "h": "col" }, "geometry": { "type": "LineString", "coordinates": [ [ -122.07238, 37.57483 ], [ -122.07429, 37.57267 ], [ -122.07483, 37.57218 ], [ -122.07666, 37.57112 ] ] } },
{ "type": "Feature", "properties": { "n": "Dyer Street", "h": "art" }, "geometry": { "type": "LineString", "coordinates": [ [ -122.07651, 37.58196 ], [ -122.07667, 37.58178 ] ] } },
{ "type": "Feature", "properties": { "n": "Dyer Street", "h": "art" }, "geometry": { "type": "LineString", "coordinates": [ [ -122.07228, 37.5867 ], [ -122.07218, 37.58687 ] ] } },
{ "type": "Feature", "properties": { "n": "Dyer Street", "h": "art" }, "geometry": { "type": "LineString", "coordinates": [ [ -122.07206, 37.58701 ], [ -122.07218, 37.58687 ] ] } },
{ "type": "Feature", "properties": { "n": "Dyer Street", "h": "art" }, "geometry": { "type": "LineString", "coordinates": [ [ -122.07408, 37.58463 ], [ -122.07397, 37.58484 ] ] } },
{ "type": "Feature", "properties": { "n": "Dyer Street", "h": "art" }, "geometry": { "type": "LineString", "coordinates": [ [ -122.07384, 37.585 ], [ -122.07397, 37.58484 ] ] } },
{ "type": "Feature", "properties": { "n": "Regents Boulevard", "h": "col" }, "geometry": { "type": "LineString", "coordinates": [ [ -122.07466, 37.58498 ], [ -122.07414, 37.58465 ] ] } },
{ "type": "Feature", "properties": { "n": "Alvarado Boulevard", "h": "art" }, "geometry": { "type": "LineString", "coordinates": [ [ -122.08073, 37.59159 ], [ -122.07828, 37.59159 ] ] } },
{ "type": "Feature", "properties": { "n": "Regents Boulevard", "h": "col" }, "geometry": { "type": "LineString", "coordinates": [ [ -122.06878, 37.57345 ], [ -122.06866, 37.57292 ], [ -122.06842, 37.5727 ] ] } },
{ "type": "Feature", "properties": { "n": "Jean Drive", "h": "col" }, "geometry": { "type": "LineString", "coordinates": [ [ -122.07231, 37.5751 ], [ -122.07269, 37.57549 ] ] } },
{ "type": "Feature", "properties": { "n": "Dyer Street", "h": "art" }, "geometry": { "type": "LineString", "coordinates": [ [ -122.07101, 37.58825 ], [ -122.0712, 37.58803 ] ] } },
{ "type": "Feature", "properties": { "n": "Dyer Street", "h": "art" }, "geometry": { "type": "LineString", "coordinates": [ [ -122.07155, 37.58761 ], [ -122.07206, 37.58701 ] ] } },
{ "type": "Feature", "properties": { "n": "7th Street", "h": "art" }, "geometry": { "type": "LineString", "coordinates": [ [ -122.3031, 37.80749 ], [ -122.3041, 37.80782 ] ] } },
{ "type": "Feature", "properties": { "n": "7th Street", "h": "art" }, "geometry": { "type": "LineString", "coordinates": [ [ -122.3041, 37.80782 ], [ -122.30496, 37.80802 ] ] } },
{ "type": "Feature", "properties": { "n": "98th Avenue", "h": "art" }, "geometry": { "type": "LineString", "coordinates": [ [ -122.19944, 37.72736 ], [ -122.20018, 37.72697 ], [ -122.2006, 37.72658 ], [ -122.20086, 37.72619 ], [ -122.20103, 37.72576 ], [ -122.20108, 37.72528 ], [ -122.20092, 37.72426 ] ] } },
{ "type": "Feature", "properties": { "n": "7th Street", "h": "art" }, "geometry": { "type": "LineString", "coordinates": [ [ -122.30894, 37.80849 ], [ -122.30986, 37.8087 ] ] } },
{ "type": "Feature", "properties": { "n": "7th Street", "h": "art" }, "geometry": { "type": "LineString", "coordinates": [ [ -122.30992, 37.80861 ], [ -122.30902, 37.8084 ] ] } },
{ "type": "Feature", "properties": { "n": "Frontage Road", "h": "art" }, "geometry": { "type": "LineString", "coordinates": [ [ -122.30419, 37.80926 ], [ -122.30416, 37.8084 ] ] } },
{ "type": "Feature", "properties": { "n": "7th Street", "h": "art" }, "geometry": { "type": "LineString", "coordinates": [ [ -122.30624, 37.80813 ], [ -122.30728, 37.80816 ], [ -122.30833, 37.80836 ] ] } },
{ "type": "Feature", "properties": { "n": "Union City Boulevard", "h": "art" }, "geometry": { "type": "LineString", "coordinates": [ [ -122.07702, 37.57092 ], [ -122.07713, 37.57104 ] ] } },
{ "type": "Feature", "properties": { "n": "7th Street", "h": "art" }, "geometry": { "type": "LineString", "coordinates": [ [ -122.30496, 37.80802 ], [ -122.30545, 37.8081 ], [ -122.30624, 37.80813 ] ] } },
{ "type": "Feature", "properties": { "n": "Regents Boulevard", "h": "col" }, "geometry": { "type": "LineString", "coordinates": [ [ -122.07408, 37.58462 ], [ -122.0737, 37.58435 ], [ -122.0735, 37.58411 ], [ -122.07314, 37.58306 ] ] } }
]
}
