{
"type": "FeatureCollection",
"name": "low_4ft",
"crs": { "type": "name", "properties": { "name": "urn:ogc:def:crs:OGC:1.3:CRS84" } },
"xy_coordinate_resolution": 1e-05,
"features": [
{ "type": "Feature", "properties": { "n": "Coliseum Way", "h": "art" }, "geometry": { "type": "LineString", "coordinates": [ [ -122.22048, 37.76927 ], [ -122.22078, 37.76969 ] ] } },
{ "type": "Feature", "properties": { "n": "Bay Edge Road", "h": "art" }, "geometry": { "type": "LineString", "coordinates": [ [ -122.25262, 37.73486 ], [ -122.2515, 37.73546 ] ] } },
{ "type": "Feature", "properties": { "n": "24th Street", "h": "col" }, "geometry": { "type": "LineString", "coordinates": [ [ -122.28839, 37.81835 ], [ -122.28869, 37.81822 ], [ -122.28906, 37.81823 ] ] } },
{ "type": "Feature", "properties": { "n": "Mandela Parkway", "h": "col" }, "geometry": { "type": "LineString", "coordinates": [ [ -122.29419, 37.80235 ], [ -122.29438, 37.80257 ], [ -122.29443, 37.80288 ], [ -122.29413, 37.80376 ] ] } },
{ "type": "Feature", "properties": { "n": "Mandela Parkway", "h": "art" }, "geometry": { "type": "LineString", "coordinates": [ [ -122.28926, 37.82101 ], [ -122.28929, 37.8205 ] ] } },
{ "type": "Feature", "properties": { "n": "Kiote Drive", "h": "col" }, "geometry": { "type": "LineString", "coordinates": [ [ -122.06054, 37.5361 ], [ -122.06056, 37.53667 ] ] } },
{ "type": "Feature", "properties": { "n": "Potter Street", "h": "col" }, "geometry": { "type": "LineString", "coordinates": [ [ -122.29609, 37.85049 ], [ -122.29693, 37.85035 ] ] } },
{ "type": "Feature", "properties": { "n": "Peralta Street", "h": "col" }, "geometry": { "type": "LineString", "coordinates": [ [ -122.28909, 37.81748 ], [ -122.28839, 37.81835 ] ] } },
{ "type": "Feature", "properties": { "n": "CA 77", "h": "fwy" }, "geometry": { "type": "LineString", "coordinates": [ [ -122.21872, 37.7711 ], [ -122.21764, 37.77185 ] ] } },
{ "type": "Feature", "properties": { "n": "Ballena Boulevard", "h": "col" }, "geometry": { "type": "LineString", "coordinates": [ [ -122.28819, 37.76754 ], [ -122.28832, 37.76708 ] ] } },
{ "type": "Feature", "properties": { "n": "Middle Harbor Road", "h": "art" }, "geometry": { "type": "LineString", "coordinates": [ [ -122.29257, 37.79902 ], [ -122.29382, 37.79878 ] ] } },
{ "type": "Feature", "properties": { "n": "3rd Street", "h": "col" }, "geometry": { "type": "LineString", "coordinates": [ [ -122.29404, 37.80225 ], [ -122.29141, 37.80159 ] ] } },
{ "type": "Feature", "properties": { "n": "CA 13", "h": "fwy" }, "geometry": { "type": "LineString", "coordinates": [ [ -122.29604, 37.84893 ], [ -122.29579, 37.84903 ] ] } },
{ "type": "Feature", "properties": { "n": "I 880", "h": "fwy" }, "geometry": { "type": "LineString", "coordinates": [ [ -122.2537, 37.78907 ], [ -122.25203, 37.78867 ] ] } },
{ "type": "Feature", "properties": { "n": "CA 77", "h": "fwy" }, "geometry": { "type": "LineString", "coordinates": [ [ -122.22115, 37.76943 ], [ -122.22078, 37.76969 ] ] } },
{ "type": "Feature", "properties": { "n": "Middle Harbor Road", "h": "art" }, "geometry": { "type": "LineString", "coordinates": [ [ -122.29377, 37.79873 ], [ -122.29256, 37.79894 ] ] } },
{ "type": "Feature", "properties": { "n": "Frontage Road", "h": "art" }, "geometry": { "type": "LineString", "coordinates": [ [ -122.29818, 37.81557 ], [ -122.299, 37.81497 ] ] } },
{ "type": "Feature", "properties": { "n": "7th Street", "h": "art" }, "geometry": { "type": "LineString", "coordinates": [ [ -122.30834, 37.80826 ], [ -122.30722, 37.80805 ], [ -122.30606, 37.80802 ] ] } },
{ "type": "Feature", "properties": { "n": "Peralta Street", "h": "col" }, "geometry": { "type": "LineString", "coordinates": [ [ -122.28997, 37.81639 ], [ -122.29071, 37.81543 ] ] } },
{ "type": "Feature", "properties": { "n": "Peralta Street", "h": "col" }, "geometry": { "type": "LineString", "coordinates": [ [ -122.28839, 37.81835 ], [ -122.2879, 37.81896 ] ] } },
{ "type": "Feature", "properties": { "n": "Bay Edge Road", "h": "art" }, "geometry": { "type": "LineString", "coordinates": [ [ -122.25155, 37.73551 ], [ -122.25276, 37.73488 ] ] } },
{ "type": "Feature", "properties": { "n": "Marina Drive", "h": "col" }, "geometry": { "type": "LineString", "coordinates": [ [ -122.09013, 37.61432 ], [ -122.0914, 37.61456 ] ] } },
{ "type": "Feature", "properties": { "n": "I 80", "h": "fwy" }, "geometry": { "type": "LineString", "coordinates": [ [ -122.29538, 37.82737 ], [ -122.29458, 37.82789 ], [ -122.29396, 37.82867 ] ] } },
{ "type": "Feature", "properties": { "n": "I 80", "h": "fwy" }, "geometry": { "type": "LineString", "coordinates": [ [ -122.29396, 37.82867 ], [ -122.29368, 37.82928 ] ] } },
{ "type": "Feature", "properties": { "n": "CA 13", "h": "fwy" }, "geometry": { "type": "LineString", "coordinates": [ [ -122.29438, 37.84966 ], [ -122.29583, 37.84909 ] ] } },
{ "type": "Feature", "properties": { "n": "Eden Shores Boulevard", "h": "col" }, "geometry": { "type": "LineString", "coordinates": [ [ -122.08806, 37.61371 ], [ -122.08846, 37.61362 ], [ -122.08907, 37.61365 ] ] } },
{ "type": "Feature", "properties": { "n": "Eden Shores Boulevard", "h": "col" }, "geometry": { "type": "LineString", "coordinates": [ [ -122.08904, 37.61333 ], [ -122.08839, 37.61352 ] ] } },
{ "type": "Feature", "properties": { "n": "7th Street", "h": "art" }, "geometry": { "type": "LineString", "coordinates": [ [ -122.30522, 37.80788 ], [ -122.30404, 37.80763 ] ] } },
{ "type": "Feature", "properties": { "n": "5th Street", "h": "col" }, "geometry": { "type": "LineString", "coordinates": [ [ -122.29408, 37.80382 ], [ -122.29351, 37.80368 ] ] } },
{ "type": "Feature", "properties": { "n": "CA 13", "h": "fwy" }, "geometry": { "type": "LineString", "coordinates": [ [ -122.29579, 37.84903 ], [ -122.29438, 37.84966 ] ] } },
{ "type": "Feature", "properties": { "n": "7th Street", "h": "art" }, "geometry": { "type": "LineString", "coordinates": [ [ -122.30404, 37.80763 ], [ -122.3031, 37.80737 ] ] } },
{ "type": "Feature", "properties": { "n": "Mandela Parkway", "h": "art" }, "geometry": { "type": "LineString", "coordinates": [ [ -122.28909, 37.81748 ], [ -122.28911, 37.81813 ] ] } },
{ "type": "Feature", "properties": { "n": "Mandela Parkway", "h": "art" }, "geometry": { "type": "LineString", "coordinates": [ [ -122.28963, 37.81683 ], [ -122.28989, 37.81575 ] ] } },
{ "type": "Feature", "properties": { "n": "Mandela Parkway", "h": "art" }, "geometry": { "type": "LineString", "coordinates": [ [ -122.28952, 37.81791 ], [ -122.28962, 37.81698 ] ] } },
{ "type": "Feature", "properties": { "n": "Mandela Parkway", "h": "art" }, "geometry": { "type": "LineString", "coordinates": [ [ -122.28952, 37.81578 ], [ -122.28922, 37.81669 ], [ -122.28909, 37.81748 ] ] } },
{ "type": "Feature", "properties": { "n": "20th Street", "h": "col" }, "geometry": { "type": "LineString", "coordinates": [ [ -122.29071, 37.81543 ], [ -122.29016, 37.81529 ] ] } },
{ "type": "Feature", "properties": { "n": "CA 77", "h": "fwy" }, "geometry": { "type": "LineString", "coordinates": [ [ -122.22047, 37.77006 ], [ -122.22086, 37.7698 ] ] } },
{ "type": "Feature", "properties": { "n": "Mecartney Road", "h": "art" }, "geometry": { "type": "LineString", "coordinates": [ [ -122.24722, 37.73726 ], [ -122.24844, 37.73733 ], [ -122.24928, 37.7376 ] ] } },
{ "type": "Feature", "properties": { "n": "Gateway Boulevard", "h": "col" }, "geometry": { "type": "LineString", "coordinates": [ [ -122.06339, 37.53651 ], [ -122.06306, 37.53689 ] ] } },
{ "type": "Feature", "properties": { "n": "Jarvis Avenue", "h": "art" }, "geometry": { "type": "LineString", "coordinates": [ [ -122.06002, 37.53774 ], [ -122.06038, 37.53738 ] ] } },
{ "type": "Feature", "properties": { "n": "Hesperian Boulevard", "h": "art" }, "geometry": { "type": "LineString", "coordinates": [ [ -122.08742, 37.61593 ], [ -122.0878, 37.61656 ] ] } },
{ "type": "Feature", "properties": { "n": "7th Street", "h": "art" }, "geometry": { "type": "LineString", "coordinates": [ [ -122.30606, 37.80802 ], [ -122.3057, 37.80798 ] ] } },
{ "type": "Feature", "properties": { "n": "7th Street", "h": "art" }, "geometry": { "type": "LineString", "coordinates": [ [ -122.3057, 37.80798 ], [ -122.30522, 37.80788 ] ] } },
{ "type": "Feature", "properties": { "n": "Frontage Road", "h": "art" }, "geometry": { "type": "LineString", "coordinates": [ [ -122.3041, 37.80782 ], [ -122.30404, 37.80763 ] ] } },
{ "type": "Feature", "properties": { "n": "Frontage Road", "h": "art" }, "geometry": { "type": "LineString", "coordinates": [ [ -122.30416, 37.8084 ], [ -122.3041, 37.80782 ] ] } },
{ "type": "Feature", "properties": { "n": "CA 77", "h": "fwy" }, "geometry": { "type": "LineString", "coordinates": [ [ -122.22078, 37.76969 ], [ -122.22041, 37.76994 ] ] } },
{ "type": "Feature", "properties": { "n": "CA 77", "h": "fwy" }, "geometry": { "type": "LineString", "coordinates": [ [ -122.22086, 37.7698 ], [ -122.22125, 37.76951 ] ] } },
{ "type": "Feature", "properties": { "n": "West Grand Avenue", "h": "art" }, "geometry": { "type": "LineString", "coordinates": [ [ -122.28993, 37.81699 ], [ -122.28963, 37.81683 ] ] } },
{ "type": "Feature", "properties": { "n": "West Grand Avenue", "h": "art" }, "geometry": { "type": "LineString", "coordinates": [ [ -122.28878, 37.81671 ], [ -122.28906, 37.81679 ] ] } },
{ "type": "Feature", "properties": { "n": "West Grand Avenue", "h": "art" }, "geometry": { "type": "LineString", "coordinates": [ [ -122.28919, 37.81682 ], [ -122.28962, 37.81698 ] ] } },
{ "type": "Feature", "properties": { "n": "West Grand Avenue", "h": "art" }, "geometry": { "type": "LineString", "coordinates": [ [ -122.28963, 37.81683 ], [ -122.28922, 37.81669 ] ] } },
{ "type": "Feature", "properties": { "n": "West Grand Avenue", "h": "art" }, "geometry": { "type": "LineString", "coordinates": [ [ -122.28962, 37.81698 ], [ -122.29019, 37.81728 ] ] } },
{ "type": "Feature", "properties": { "n": "Mecartney Road", "h": "art" }, "geometry": { "type": "LineString", "coordinates": [ [ -122.24659, 37.73724 ], [ -122.24722, 37.73726 ] ] } },
{ "type": "Feature", "properties": { "n": "Mecartney Road", "h": "art" }, "geometry": { "type": "LineString", "coordinates": [ [ -122.24761, 37.73714 ], [ -122.24721, 37.73713 ] ] } },
{ "type": "Feature", "properties": { "n": "Mecartney Road", "h": "art" }, "geometry": { "type": "LineString", "coordinates": [ [ -122.24915, 37.73741 ], [ -122.24873, 37.73727 ] ] } },
{ "type": "Feature", "properties": { "n": "Mecartney Road", "h": "art" }, "geometry": { "type": "LineString", "coordinates": [ [ -122.24873, 37.73727 ], [ -122.24812, 37.73716 ], [ -122.24761, 37.73714 ] ] } },
{ "type": "Feature", "properties": { "n": "Mecartney Road", "h": "art" }, "geometry": { "type": "LineString", "coordinates": [ [ -122.24537, 37.73705 ], [ -122.2458, 37.73714 ] ] } },
{ "type": "Feature", "properties": { "n": "Mecartney Road", "h": "art" }, "geometry": { "type": "LineString", "coordinates": [ [ -122.24616, 37.73719 ], [ -122.24659, 37.73724 ] ] } },
{ "type": "Feature", "properties": { "n": "Mecartney Road", "h": "art" }, "geometry": { "type": "LineString", "coordinates": [ [ -122.24721, 37.73713 ], [ -122.24618, 37.73704 ] ] } },
{ "type": "Feature", "properties": { "n": "Mecartney Road", "h": "art" }, "geometry": { "type": "LineString", "coordinates": [ [ -122.24577, 37.73698 ], [ -122.24551, 37.73694 ] ] } },
{ "type": "Feature", "properties": { "n": "Union City Boulevard", "h": "art" }, "geometry": { "type": "LineString", "coordinates": [ [ -122.0811, 37.59738 ], [ -122.08126, 37.5977 ] ] } },
{ "type": "Feature", "properties": { "n": "Union City Boulevard", "h": "art" }, "geometry": { "type": "LineString", "coordinates": [ [ -122.0812, 37.59731 ], [ -122.08109, 37.59694 ] ] } },
{ "type": "Feature", "properties": { "n": "Hesperian Boulevard", "h": "art" }, "geometry": { "type": "LineString", "coordinates": [ [ -122.08622, 37.61396 ], [ -122.08641, 37.61428 ] ] } },
{ "type": "Feature", "properties": { "n": "Hesperian Boulevard", "h": "art" }, "geometry": { "type": "LineString", "coordinates": [ [ -122.08578, 37.61283 ], [ -122.08556, 37.61247 ] ] } },
{ "type": "Feature", "properties": { "n": "Hesperian Boulevard", "h": "art" }, "geometry": { "type": "LineString", "coordinates": [ [ -122.08641, 37.61428 ], [ -122.08742, 37.61593 ] ] } },
{ "type": "Feature", "properties": { "n": "Union City Boulevard", "h": "art" }, "geometry": { "type": "LineString", "coordinates": [ [ -122.08189, 37.60128 ], [ -122.08196, 37.60177 ] ] } },
{ "type": "Feature", "properties": { "n": "Union City Boulevard", "h": "art" }, "geometry": { "type": "LineString", "coordinates": [ [ -122.08196, 37.60177 ], [ -122.08198, 37.60196 ] ] } },
{ "type": "Feature", "properties": { "n": "Union City Boulevard", "h": "art" }, "geometry": { "type": "LineString", "coordinates": [ [ -122.08198, 37.60199 ], [ -122.08202, 37.60231 ] ] } },
{ "type": "Feature", "properties": { "n": "Union City Boulevard", "h": "art" }, "geometry": { "type": "LineString", "coordinates": [ [ -122.08126, 37.5977 ], [ -122.08136, 37.59791 ] ] } },
{ "type": "Feature", "properties": { "n": "Eden Shores Boulevard", "h": "col" }, "geometry": { "type": "LineString", "coordinates": [ [ -122.08733, 37.61386 ], [ -122.08658, 37.61414 ] ] } },
{ "type": "Feature", "properties": { "n": "Eden Shores Boulevard", "h": "col" }, "geometry": { "type": "LineString", "coordinates": [ [ -122.088, 37.6136 ], [ -122.08733, 37.61386 ] ] } },
{ "type": "Feature", "properties": { "n": "Eden Shores Boulevard", "h": "col" }, "geometry": { "type": "LineString", "coordinates": [ [ -122.08656, 37.61425 ], [ -122.0876, 37.61387 ] ] } },
{ "type": "Feature", "properties": { "n": "Eden Shores Boulevard", "h": "col" }, "geometry": { "type": "LineString", "coordinates": [ [ -122.08839, 37.61352 ], [ -122.088, 37.6136 ] ] } },
{ "type": "Feature", "properties": { "n": "Eden Shores Boulevard", "h": "col" }, "geometry": { "type": "LineString", "coordinates": [ [ -122.0876, 37.61387 ], [ -122.08806, 37.61371 ] ] } },
{ "type": "Feature", "properties": { "n": "Marina Drive", "h": "col" }, "geometry": { "type": "LineString", "coordinates": [ [ -122.08923, 37.61369 ], [ -122.0897, 37.6141 ] ] } },
{ "type": "Feature", "properties": { "n": "Marina Drive", "h": "col" }, "geometry": { "type": "LineString", "coordinates": [ [ -122.0914, 37.61456 ], [ -122.09162, 37.61465 ] ] } },
{ "type": "Feature", "properties": { "n": "Marina Drive", "h": "col" }, "geometry": { "type": "LineString", "coordinates": [ [ -122.09238, 37.61534 ], [ -122.09246, 37.61554 ] ] } },
{ "type": "Feature", "properties": { "n": "Marina Drive", "h": "col" }, "geometry": { "type": "LineString", "coordinates": [ [ -122.08991, 37.6142 ], [ -122.09013, 37.61432 ] ] } },
{ "type": "Feature", "properties": { "n": "Marina Drive", "h": "col" }, "geometry": { "type": "LineString", "coordinates": [ [ -122.09246, 37.61554 ], [ -122.09245, 37.61595 ] ] } },
{ "type": "Feature", "properties": { "n": "Marina Drive", "h": "col" }, "geometry": { "type": "LineString", "coordinates": [ [ -122.0897, 37.6141 ], [ -122.08991, 37.6142 ] ] } },
{ "type": "Feature", "properties": { "n": "Marina Drive", "h": "col" }, "geometry": { "type": "LineString", "coordinates": [ [ -122.09245, 37.61595 ], [ -122.09231, 37.61646 ] ] } },
{ "type": "Feature", "properties": { "n": "Marina Drive", "h": "col" }, "geometry": { "type": "LineString", "coordinates": [ [ -122.09162, 37.61465 ], [ -122.09215, 37.61501 ], [ -122.09238, 37.61534 ] ] } },
{ "type": "Feature", "properties": { "n": "Gateway Boulevard", "h": "col" }, "geometry": { "type": "LineString", "coordinates": [ [ -122.06284, 37.53735 ], [ -122.0628, 37.53767 ] ] } },
{ "type": "Feature", "properties": { "n": "Gateway Boulevard", "h": "col" }, "geometry": { "type": "LineString", "coordinates": [ [ -122.06306, 37.53689 ], [ -122.06288, 37.53724 ] ] } },
{ "type": "Feature", "properties": { "n": "Gateway Boulevard", "h": "col" }, "geometry": { "type": "LineString", "coordinates": [ [ -122.06296, 37.5378 ], [ -122.06299, 37.53738 ] ] } },
{ "type": "Feature", "properties": { "n": "Gateway Boulevard", "h": "col" }, "geometry": { "type": "LineString", "coordinates": [ [ -122.06376, 37.53629 ], [ -122.06339, 37.53651 ] ] } },
{ "type": "Feature", "properties": { "n": "Jarvis Avenue", "h": "art" }, "geometry": { "type": "LineString", "coordinates": [ [ -122.06249, 37.53729 ], [ -122.06284, 37.53735 ] ] } },
{ "type": "Feature", "properties": { "n": "Kato Road", "h": "col" }, "geometry": { "type": "LineString", "coordinates": [ [ -121.92004, 37.46186 ], [ -121.91815, 37.46247 ] ] } },
{ "type": "Feature", "properties": { "n": "Peralta Street", "h": "col" }, "geometry": { "type": "LineString", "coordinates": [ [ -122.29097, 37.8151 ], [ -122.29071, 37.81543 ] ] } },
{ "type": "Feature", "properties": { "n": "Hesperian Boulevard", "h": "art" }, "geometry": { "type": "LineString", "coordinates": [ [ -122.08706, 37.61494 ], [ -122.08664, 37.61424 ] ] } },
{ "type": "Feature", "properties": { "n": "Hesperian Boulevard", "h": "art" }, "geometry": { "type": "LineString", "coordinates": [ [ -122.08664, 37.61424 ], [ -122.08634, 37.61375 ] ] } },
{ "type": "Feature", "properties": { "n": "CA 77", "h": "fwy" }, "geometry": { "type": "LineString", "coordinates": [ [ -122.21787, 37.77182 ], [ -122.22008, 37.77031 ] ] } },
{ "type": "Feature", "properties": { "n": "West Grand Avenue", "h": "art" }, "geometry": { "type": "LineString", "coordinates": [ [ -122.29035, 37.81722 ], [ -122.28993, 37.81699 ] ] } },
{ "type": "Feature", "properties": { "n": "West Grand Avenue", "h": "art" }, "geometry": { "type": "LineString", "coordinates": [ [ -122.28841, 37.81663 ], [ -122.28878, 37.81671 ] ] } },
{ "type": "Feature", "properties": { "n": "West Grand Avenue", "h": "art" }, "geometry": { "type": "LineString", "coordinates": [ [ -122.28922, 37.81669 ], [ -122.2883, 37.81649 ] ] } },
{ "type": "Feature", "properties": { "n": "Peralta Street", "h": "col" }, "geometry": { "type": "LineString", "coordinates": [ [ -122.29128, 37.81472 ], [ -122.29097, 37.8151 ] ] } },
{ "type": "Feature", "properties": { "n": "Peralta Street", "h": "col" }, "geometry": { "type": "LineString", "coordinates": [ [ -122.29149, 37.81446 ], [ -122.29128, 37.81472 ] ] } },
{ "type": "Feature", "properties": { "n": "3rd Street", "h": "col" }, "geometry": { "type": "LineString", "coordinates": [ [ -122.29141, 37.80159 ], [ -122.2903, 37.80133 ] ] } },
{ "type": "Feature", "properties": { "n": "3rd Street", "h": "col" }, "geometry": { "type": "LineString", "coordinates": [ [ -122.2903, 37.80133 ], [ -122.28972, 37.8012 ] ] } },
{ "type": "Feature", "properties": { "n": "Marina Drive", "h": "col" }, "geometry": { "type": "LineString", "coordinates": [ [ -122.08991, 37.6142 ], [ -122.08956, 37.61373 ], [ -122.08954, 37.61363 ] ] } },
{ "type": "Feature", "properties": { "n": "Union City Boulevard", "h": "art" }, "geometry": { "type": "LineString", "coordinates": [ [ -122.08157, 37.598 ], [ -122.0812, 37.59731 ] ] } },
{ "type": "Feature", "properties": { "n": "Middle Harbor Road", "h": "art" }, "geometry": { "type": "LineString", "coordinates": [ [ -122.2978, 37.79773 ], [ -122.29857, 37.79757 ] ] } },
{ "type": "Feature", "properties": { "n": "CA 77", "h": "fwy" }, "geometry": { "type": "LineString", "coordinates": [ [ -122.21997, 37.77023 ], [ -122.21872, 37.7711 ] ] } },
{ "type": "Feature", "properties": { "n": "Hesperian Boulevard", "h": "art" }, "geometry": { "type": "LineString", "coordinates": [ [ -122.08801, 37.61649 ], [ -122.08706, 37.61494 ] ] } },
{ "type": "Feature", "properties": { "n": "Union City Boulevard", "h": "art" }, "geometry": { "type": "LineString", "coordinates": [ [ -122.08171, 37.59984 ], [ -122.08184, 37.60088 ] ] } },
{ "type": "Feature", "properties": { "n": "Union City Boulevard", "h": "art" }, "geometry": { "type": "LineString", "coordinates": [ [ -122.08184, 37.60089 ], [ -122.08189, 37.60128 ] ] } },
{ "type": "Feature", "properties": { "n": "Aughinbaugh Way", "h": "art" }, "geometry": { "type": "LineString", "coordinates": [ [ -122.25196, 37.7362 ], [ -122.25155, 37.73551 ] ] } },
{ "type": "Feature", "properties": { "n": "Willow Street", "h": "col" }, "geometry": { "type": "LineString", "coordinates": [ [ -122.04851, 37.51923 ], [ -122.04827, 37.51878 ] ] } },
{ "type": "Feature", "properties": { "n": "Willow Street", "h": "col" }, "geometry": { "type": "LineString", "coordinates": [ [ -122.04825, 37.51891 ], [ -122.04832, 37.51904 ] ] } },
{ "type": "Feature", "properties": { "n": "7th Street", "h": "art" }, "geometry": { "type": "LineString", "coordinates": [ [ -122.30299, 37.80744 ], [ -122.3041, 37.80782 ] ] } },
{ "type": "Feature", "properties": { "n": "7th Street", "h": "art" }, "geometry": { "type": "LineString", "coordinates": [ [ -122.3041, 37.80782 ], [ -122.30496, 37.80802 ] ] } },
{ "type": "Feature", "properties": { "n": "98th Avenue", "h": "art" }, "geometry": { "type": "LineString", "coordinates": [ [ -122.19754, 37.7281 ], [ -122.19738, 37.72816 ] ] } },
{ "type": "Feature", "properties": { "n": "Frontage Road", "h": "art" }, "geometry": { "type": "LineString", "coordinates": [ [ -122.29739, 37.81615 ], [ -122.29818, 37.81557 ] ] } },
{ "type": "Feature", "properties": { "n": "7th Street", "h": "art" }, "geometry": { "type": "LineString", "coordinates": [ [ -122.30894, 37.80849 ], [ -122.30999, 37.80872 ] ] } },
{ "type": "Feature", "properties": { "n": "7th Street", "h": "art" }, "geometry": { "type": "LineString", "coordinates": [ [ -122.31002, 37.80863 ], [ -122.30902, 37.8084 ] ] } },
{ "type": "Feature", "properties": { "n": "Frontage Road", "h": "art" }, "geometry": { "type": "LineString", "coordinates": [ [ -122.30418, 37.80934 ], [ -122.30416, 37.8084 ] ] } },
{ "type": "Feature", "properties": { "n": "7th Street", "h": "art" }, "geometry": { "type": "LineString", "coordinates": [ [ -122.30624, 37.80813 ], [ -122.30728, 37.80816 ], [ -122.30833, 37.80836 ] ] } },
{ "type": "Feature", "properties": { "n": "CA 13", "h": "fwy" }, "geometry": { "type": "LineString", "coordinates": [ [ -122.29583, 37.84909 ], [ -122.2961, 37.84898 ] ] } },
{ "type": "Feature", "properties": { "n": "Gateway Boulevard", "h": "col" }, "geometry": { "type": "LineString", "coordinates": [ [ -122.06302, 37.53727 ], [ -122.06329, 37.53683 ], [ -122.06385, 37.53642 ] ] } },
{ "type": "Feature", "properties": { "n": "Jarvis Avenue", "h": "art" }, "geometry": { "type": "LineString", "coordinates": [ [ -122.06288, 37.53724 ], [ -122.06236, 37.53713 ] ] } },
{ "type": "Feature", "properties": { "n": "Jarvis Avenue", "h": "art" }, "geometry": { "type": "LineString", "coordinates": [ [ -122.06217, 37.5371 ], [ -122.06162, 37.53699 ], [ -122.06094, 37.53702 ] ] } },
{ "type": "Feature", "properties": { "n": "Marina Drive", "h": "col" }, "geometry": { "type": "LineString", "coordinates": [ [ -122.09238, 37.61652 ], [ -122.09253, 37.61596 ], [ -122.09253, 37.61568 ], [ -122.09246, 37.61554 ] ] } },
{ "type": "Feature", "properties": { "n": "Mandela Parkway", "h": "art" }, "geometry": { "type": "LineString", "coordinates": [ [ -122.28962, 37.81698 ], [ -122.28963, 37.81683 ] ] } },
{ "type": "Feature", "properties": { "n": "Mandela Parkway", "h": "art" }, "geometry": { "type": "LineString", "coordinates": [ [ -122.28894, 37.82039 ], [ -122.28891, 37.82077 ] ] } },
{ "type": "Feature", "properties": { "n": "Mandela Parkway", "h": "art" }, "geometry": { "type": "LineString", "coordinates": [ [ -122.28876, 37.8229 ], [ -122.28876, 37.82311 ] ] } },
{ "type": "Feature", "properties": { "n": "Jarvis Avenue", "h": "art" }, "geometry": { "type": "LineString", "coordinates": [ [ -122.06064, 37.5371 ], [ -122.06028, 37.53728 ], [ -122.05996, 37.53758 ] ] } },
{ "type": "Feature", "properties": { "n": "Kiote Drive", "h": "col" }, "geometry": { "type": "LineString", "coordinates": [ [ -122.06068, 37.53672 ], [ -122.06062, 37.5362 ], [ -122.06079, 37.53564 ] ] } },
{ "type": "Feature", "properties": { "n": "Jarvis Avenue", "h": "art" }, "geometry": { "type": "LineString", "coordinates": [ [ -122.06115, 37.53712 ], [ -122.06178, 37.53715 ] ] } },
{ "type": "Feature", "properties": { "n": "CA 77", "h": "fwy" }, "geometry": { "type": "LineString", "coordinates": [ [ -122.21764, 37.77185 ], [ -122.21748, 37.77196 ] ] } },
{ "type": "Feature", "properties": { "n": "CA 77", "h": "fwy" }, "geometry": { "type": "LineString", "coordinates": [ [ -122.21756, 37.77205 ], [ -122.21787, 37.77182 ] ] } },
{ "type": "Feature", "properties": { "n": "Peralta Street", "h": "col" }, "geometry": { "type": "LineString", "coordinates": [ [ -122.28963, 37.81683 ], [ -122.28997, 37.81639 ] ] } },
{ "type": "Feature", "properties": { "n": "7th Street", "h": "art" }, "geometry": { "type": "LineString", "coordinates": [ [ -122.30496, 37.80802 ], [ -122.30545, 37.8081 ], [ -122.30624, 37.80813 ] ] } }
]
}
