{
"type": "FeatureCollection",
"name": "areas",
"crs": { "type": "name", "properties": { "name": "urn:ogc:def:crs:OGC:1.3:CRS84" } },
"xy_coordinate_resolution": 1e-05,
"features": [
{ "type": "Feature", "properties": { "variant": "mapped", "level": 2.1, "name": "Alameda Point / Mariner Square", "residents": 1396, "flooded": 252, "pre_cap": 0 }, "geometry": { "type": "MultiPolygon", "coordinates": [ [ [ [ -122.27678, 37.78495 ], [ -122.27754, 37.78542 ], [ -122.27763, 37.78627 ], [ -122.27645, 37.78694 ], [ -122.27559, 37.78594 ], [ -122.27586, 37.78519 ], [ -122.27678, 37.78495 ] ] ], [ [ [ -122.29124, 37.78753 ], [ -122.28782, 37.78764 ], [ -122.28651, 37.7868 ], [ -122.28401, 37.78672 ], [ -122.28329, 37.78621 ], [ -122.28329, 37.78486 ], [ -122.28391, 37.78427 ], [ -122.29048, 37.78431 ], [ -122.29184, 37.78513 ], [ -122.29185, 37.78694 ], [ -122.29124, 37.78753 ] ] ], [ [ [ -122.27769, 37.78947 ], [ -122.27763, 37.79101 ], [ -122.27688, 37.79149 ], [ -122.27596, 37.79127 ], [ -122.27484, 37.78981 ], [ -122.27522, 37.78911 ], [ -122.27729, 37.78893 ], [ -122.27769, 37.78947 ] ] ] ] } },
{ "type": "Feature", "properties": { "variant": "mapped", "level": 2.2, "name": "Bay Farm Island", "residents": 13975, "flooded": 962, "pre_cap": 0 }, "geometry": { "type": "Polygon", "coordinates": [ [ [ -122.23275, 37.73179 ], [ -122.23318, 37.73146 ], [ -122.23359, 37.73058 ], [ -122.23324, 37.7297 ], [ -122.23226, 37.72937 ], [ -122.23196, 37.7288 ], [ -122.23234, 37.72814 ], [ -122.23355, 37.72776 ], [ -122.23342, 37.72685 ], [ -122.23053, 37.72815 ], [ -122.22996, 37.7295 ], [ -122.22899, 37.72958 ], [ -122.22827, 37.72907 ], [ -122.2283, 37.72836 ], [ -122.22406, 37.726 ], [ -122.22393, 37.72511 ], [ -122.22512, 37.7247 ], [ -122.22836, 37.72658 ], [ -122.22934, 37.72659 ], [ -122.23317, 37.72509 ], [ -122.23342, 37.72386 ], [ -122.23558, 37.72178 ], [ -122.23778, 37.7216 ], [ -122.24007, 37.72306 ], [ -122.24069, 37.72434 ], [ -122.24339, 37.72437 ], [ -122.24556, 37.72537 ], [ -122.24941, 37.72882 ], [ -122.25057, 37.73047 ], [ -122.2538, 37.73275 ], [ -122.25429, 37.73384 ], [ -122.25398, 37.73495 ], [ -122.25796, 37.73737 ], [ -122.26133, 37.7403 ], [ -122.26145, 37.74267 ], [ -122.26085, 37.74363 ], [ -122.25171, 37.74843 ], [ -122.24, 37.7482 ], [ -122.23937, 37.74706 ], [ -122.23673, 37.747 ], [ -122.23624, 37.74592 ], [ -122.23703, 37.74527 ], [ -122.23827, 37.74547 ], [ -122.23796, 37.74418 ], [ -122.23694, 37.74325 ], [ -122.23751, 37.74125 ], [ -122.23831, 37.74082 ], [ -122.24016, 37.74096 ], [ -122.23969, 37.73876 ], [ -122.24197, 37.73824 ], [ -122.24244, 37.73718 ], [ -122.24019, 37.73652 ], [ -122.23928, 37.73777 ], [ -122.23815, 37.73785 ], [ -122.23766, 37.7369 ], [ -122.23816, 37.73626 ], [ -122.23777, 37.73605 ], [ -122.23778, 37.73598 ], [ -122.23741, 37.73518 ], [ -122.23805, 37.73461 ], [ -122.23903, 37.73459 ], [ -122.23834, 37.73432 ], [ -122.23583, 37.73492 ], [ -122.23515, 37.73441 ], [ -122.23472, 37.7344 ], [ -122.23476, 37.73354 ], [ -122.23382, 37.7332 ], [ -122.23351, 37.73273 ], [ -122.23282, 37.73241 ], [ -122.23275, 37.73179 ] ], [ [ -122.24095, 37.72609 ], [ -122.2416, 37.72837 ], [ -122.24545, 37.72995 ], [ -122.24683, 37.72913 ], [ -122.24361, 37.72634 ], [ -122.24095, 37.72609 ] ], [ [ -122.25223, 37.74432 ], [ -122.25108, 37.743 ], [ -122.25119, 37.74358 ], [ -122.25223, 37.74432 ] ], [ [ -122.24788, 37.73158 ], [ -122.25211, 37.73409 ], [ -122.24804, 37.73045 ], [ -122.24753, 37.73068 ], [ -122.24788, 37.73158 ] ], [ [ -122.23907, 37.72774 ], [ -122.23914, 37.72779 ], [ -122.23912, 37.72767 ], [ -122.23907, 37.72774 ] ], [ [ -122.23684, 37.72307 ], [ -122.2352, 37.72484 ], [ -122.23866, 37.72454 ], [ -122.23684, 37.72307 ] ], [ [ -122.23738, 37.72653 ], [ -122.23741, 37.72642 ], [ -122.23544, 37.7266 ], [ -122.23738, 37.72653 ] ] ] } },
{ "type": "Feature", "properties": { "variant": "mapped", "level": 2.2, "name": "Alameda Point / Mariner Square", "residents": 1407, "flooded": 272, "pre_cap": 0 }, "geometry": { "type": "MultiPolygon", "coordinates": [ [ [ [ -122.27754, 37.78542 ], [ -122.27763, 37.78627 ], [ -122.27645, 37.78694 ], [ -122.27559, 37.78594 ], [ -122.27586, 37.78519 ], [ -122.27678, 37.78495 ], [ -122.27754, 37.78542 ] ] ], [ [ [ -122.28651, 37.7868 ], [ -122.28401, 37.78672 ], [ -122.28329, 37.78621 ], [ -122.28329, 37.78486 ], [ -122.28391, 37.78427 ], [ -122.29048, 37.78431 ], [ -122.29184, 37.78513 ], [ -122.29185, 37.78694 ], [ -122.29124, 37.78753 ], [ -122.28782, 37.78764 ], [ -122.28651, 37.7868 ] ] ], [ [ [ -122.29572, 37.78735 ], [ -122.29711, 37.78766 ], [ -122.29729, 37.78841 ], [ -122.29679, 37.78888 ], [ -122.29601, 37.78894 ], [ -122.2953, 37.78844 ], [ -122.29572, 37.78735 ] ] ], [ [ [ -122.27769, 37.78947 ], [ -122.27763, 37.79101 ], [ -122.27688, 37.79149 ], [ -122.27596, 37.79127 ], [ -122.27484, 37.78981 ], [ -122.27522, 37.78911 ], [ -122.27729, 37.78893 ], [ -122.27769, 37.78947 ] ] ] ] } },
{ "type": "Feature", "properties": { "variant": "mapped", "level": 2.3, "name": "Bay Farm Island", "residents": 13975, "flooded": 1008, "pre_cap": 0 }, "geometry": { "type": "Polygon", "coordinates": [ [ [ -122.23275, 37.73179 ], [ -122.23318, 37.73146 ], [ -122.23359, 37.73058 ], [ -122.23324, 37.7297 ], [ -122.23226, 37.72937 ], [ -122.23196, 37.7288 ], [ -122.23234, 37.72814 ], [ -122.23355, 37.72776 ], [ -122.23342, 37.72685 ], [ -122.23053, 37.72815 ], [ -122.22996, 37.7295 ], [ -122.22899, 37.72958 ], [ -122.22827, 37.72907 ], [ -122.2283, 37.72836 ], [ -122.22497, 37.72657 ], [ -122.22483, 37.72568 ], [ -122.22601, 37.72526 ], [ -122.22817, 37.72659 ], [ -122.22966, 37.72649 ], [ -122.23317, 37.72509 ], [ -122.23342, 37.72386 ], [ -122.23558, 37.72178 ], [ -122.23778, 37.7216 ], [ -122.24007, 37.72306 ], [ -122.24069, 37.72434 ], [ -122.24339, 37.72437 ], [ -122.24556, 37.72537 ], [ -122.24941, 37.72882 ], [ -122.25057, 37.73047 ], [ -122.2538, 37.73275 ], [ -122.25429, 37.73384 ], [ -122.25398, 37.73495 ], [ -122.25796, 37.73737 ], [ -122.26133, 37.7403 ], [ -122.26145, 37.74267 ], [ -122.26085, 37.74363 ], [ -122.25171, 37.74843 ], [ -122.24, 37.7482 ], [ -122.23937, 37.74706 ], [ -122.23673, 37.747 ], [ -122.23624, 37.74592 ], [ -122.23703, 37.74527 ], [ -122.23827, 37.74547 ], [ -122.23796, 37.74418 ], [ -122.23709, 37.74353 ], [ -122.23751, 37.74125 ], [ -122.23831, 37.74082 ], [ -122.24016, 37.74096 ], [ -122.23969, 37.73876 ], [ -122.24197, 37.73824 ], [ -122.24244, 37.73718 ], [ -122.24019, 37.73652 ], [ -122.23928, 37.73777 ], [ -122.23815, 37.73785 ], [ -122.23762, 37.73721 ], [ -122.23782, 37.7365 ], [ -122.2396, 37.73481 ], [ -122.23834, 37.73432 ], [ -122.23583, 37.73492 ], [ -122.23513, 37.7344 ], [ -122.23528, 37.73365 ], [ -122.23382, 37.7332 ], [ -122.23351, 37.73273 ], [ -122.23282, 37.73241 ], [ -122.23275, 37.73179 ] ], [ [ -122.24545, 37.72995 ], [ -122.24683, 37.72913 ], [ -122.24361, 37.72634 ], [ -122.24095, 37.72609 ], [ -122.2416, 37.72837 ], [ -122.24545, 37.72995 ] ], [ [ -122.25223, 37.74432 ], [ -122.25108, 37.743 ], [ -122.25119, 37.74358 ], [ -122.25223, 37.74432 ] ], [ [ -122.25211, 37.73409 ], [ -122.24804, 37.73045 ], [ -122.24753, 37.73068 ], [ -122.24788, 37.73158 ], [ -122.25211, 37.73409 ] ], [ [ -122.23907, 37.72774 ], [ -122.23914, 37.72779 ], [ -122.23912, 37.72767 ], [ -122.23907, 37.72774 ] ], [ [ -122.23684, 37.72307 ], [ -122.2352, 37.72484 ], [ -122.23866, 37.72454 ], [ -122.23684, 37.72307 ] ], [ [ -122.23738, 37.72653 ], [ -122.23741, 37.72642 ], [ -122.23544, 37.7266 ], [ -122.23738, 37.72653 ] ] ] } },
{ "type": "Feature", "properties": { "variant": "mapped", "level": 2.3, "name": "Alameda Point / Mariner Square", "residents": 1439, "flooded": 314, "pre_cap": 0 }, "geometry": { "type": "MultiPolygon", "coordinates": [ [ [ [ -122.27754, 37.78542 ], [ -122.27763, 37.78627 ], [ -122.27645, 37.78694 ], [ -122.27559, 37.78594 ], [ -122.27586, 37.78519 ], [ -122.27678, 37.78495 ], [ -122.27754, 37.78542 ] ] ], [ [ [ -122.28651, 37.7868 ], [ -122.28401, 37.78672 ], [ -122.28329, 37.78621 ], [ -122.28329, 37.78486 ], [ -122.28391, 37.78427 ], [ -122.29048, 37.78431 ], [ -122.29184, 37.78513 ], [ -122.29185, 37.78694 ], [ -122.29124, 37.78753 ], [ -122.28782, 37.78764 ], [ -122.28651, 37.7868 ] ] ], [ [ [ -122.29572, 37.78735 ], [ -122.29711, 37.78766 ], [ -122.29729, 37.78841 ], [ -122.29679, 37.78888 ], [ -122.29601, 37.78894 ], [ -122.2953, 37.78844 ], [ -122.29572, 37.78735 ] ] ], [ [ [ -122.27756, 37.78917 ], [ -122.27769, 37.79086 ], [ -122.27725, 37.79137 ], [ -122.27583, 37.79114 ], [ -122.27566, 37.78954 ], [ -122.27653, 37.78878 ], [ -122.27756, 37.78917 ] ] ] ] } },
{ "type": "Feature", "properties": { "variant": "mapped", "level": 2.4, "name": "Bay Farm Island", "residents": 13975, "flooded": 1051, "pre_cap": 0 }, "geometry": { "type": "Polygon", "coordinates": [ [ [ -122.2328, 37.73212 ], [ -122.23326, 37.73145 ], [ -122.2334, 37.73148 ], [ -122.23359, 37.73058 ], [ -122.23324, 37.7297 ], [ -122.23225, 37.72933 ], [ -122.23197, 37.72875 ], [ -122.23234, 37.72814 ], [ -122.23355, 37.72776 ], [ -122.23342, 37.72685 ], [ -122.23053, 37.72815 ], [ -122.23025, 37.72928 ], [ -122.22919, 37.72961 ], [ -122.22836, 37.72921 ], [ -122.2283, 37.72836 ], [ -122.22525, 37.72673 ], [ -122.22515, 37.72584 ], [ -122.22616, 37.72542 ], [ -122.22817, 37.72659 ], [ -122.22966, 37.72649 ], [ -122.23317, 37.72509 ], [ -122.23342, 37.72386 ], [ -122.23558, 37.72178 ], [ -122.23778, 37.7216 ], [ -122.24007, 37.72306 ], [ -122.24069, 37.72434 ], [ -122.24339, 37.72437 ], [ -122.24556, 37.72537 ], [ -122.24941, 37.72882 ], [ -122.25057, 37.73047 ], [ -122.2538, 37.73275 ], [ -122.25429, 37.73384 ], [ -122.25398, 37.73495 ], [ -122.25796, 37.73737 ], [ -122.26133, 37.7403 ], [ -122.26145, 37.74267 ], [ -122.26085, 37.74363 ], [ -122.25171, 37.74843 ], [ -122.24, 37.7482 ], [ -122.23937, 37.74706 ], [ -122.23673, 37.747 ], [ -122.23624, 37.74592 ], [ -122.23703, 37.74527 ], [ -122.23827, 37.74547 ], [ -122.23796, 37.74418 ], [ -122.23709, 37.74353 ], [ -122.23751, 37.74125 ], [ -122.23831, 37.74082 ], [ -122.24016, 37.74096 ], [ -122.23969, 37.73876 ], [ -122.24197, 37.73824 ], [ -122.24244, 37.73718 ], [ -122.24078, 37.73673 ], [ -122.24075, 37.73658 ], [ -122.24019, 37.73652 ], [ -122.23928, 37.73777 ], [ -122.23833, 37.73791 ], [ -122.23766, 37.7369 ], [ -122.23941, 37.73487 ], [ -122.23992, 37.73494 ], [ -122.23834, 37.73432 ], [ -122.23577, 37.73461 ], [ -122.2355, 37.73366 ], [ -122.2347, 37.73335 ], [ -122.23468, 37.73331 ], [ -122.23431, 37.73331 ], [ -122.23377, 37.73279 ], [ -122.23309, 37.73269 ], [ -122.2328, 37.73212 ] ], [ [ -122.24361, 37.72634 ], [ -122.24095, 37.72609 ], [ -122.2416, 37.72837 ], [ -122.24545, 37.72995 ], [ -122.24683, 37.72913 ], [ -122.24361, 37.72634 ] ], [ [ -122.25119, 37.74358 ], [ -122.25223, 37.74432 ], [ -122.25108, 37.743 ], [ -122.25119, 37.74358 ] ], [ [ -122.24753, 37.73068 ], [ -122.24788, 37.73158 ], [ -122.25211, 37.73409 ], [ -122.24804, 37.73045 ], [ -122.24753, 37.73068 ] ], [ [ -122.23912, 37.72767 ], [ -122.23907, 37.72774 ], [ -122.23914, 37.72779 ], [ -122.23912, 37.72767 ] ], [ [ -122.23866, 37.72454 ], [ -122.23684, 37.72307 ], [ -122.2352, 37.72484 ], [ -122.23866, 37.72454 ] ], [ [ -122.23544, 37.7266 ], [ -122.23738, 37.72653 ], [ -122.23741, 37.72642 ], [ -122.23544, 37.7266 ] ] ] } },
{ "type": "Feature", "properties": { "variant": "mapped", "level": 2.4, "name": "Alameda Point / Mariner Square", "residents": 1439, "flooded": 334, "pre_cap": 0 }, "geometry": { "type": "MultiPolygon", "coordinates": [ [ [ [ -122.27754, 37.78542 ], [ -122.27763, 37.78627 ], [ -122.27645, 37.78694 ], [ -122.27559, 37.78594 ], [ -122.27586, 37.78519 ], [ -122.27678, 37.78495 ], [ -122.27754, 37.78542 ] ] ], [ [ [ -122.28651, 37.7868 ], [ -122.28401, 37.78672 ], [ -122.28329, 37.78621 ], [ -122.28329, 37.78486 ], [ -122.28391, 37.78427 ], [ -122.29048, 37.78431 ], [ -122.29184, 37.78513 ], [ -122.29185, 37.78694 ], [ -122.29124, 37.78753 ], [ -122.28782, 37.78764 ], [ -122.28651, 37.7868 ] ] ], [ [ [ -122.29572, 37.78735 ], [ -122.29711, 37.78766 ], [ -122.29729, 37.78841 ], [ -122.29679, 37.78888 ], [ -122.29601, 37.78894 ], [ -122.2953, 37.78844 ], [ -122.29572, 37.78735 ] ] ], [ [ [ -122.27752, 37.78919 ], [ -122.27771, 37.7907 ], [ -122.27725, 37.79137 ], [ -122.27583, 37.79114 ], [ -122.27565, 37.78966 ], [ -122.27647, 37.78886 ], [ -122.27752, 37.78919 ] ] ] ] } },
{ "type": "Feature", "properties": { "variant": "mapped", "level": 2.5, "name": "Bay Farm Island", "residents": 13975, "flooded": 1098, "pre_cap": 0 }, "geometry": { "type": "Polygon", "coordinates": [ [ [ -122.23369, 37.73263 ], [ -122.23357, 37.73247 ], [ -122.23352, 37.73248 ], [ -122.23349, 37.73234 ], [ -122.23334, 37.73213 ], [ -122.23332, 37.73177 ], [ -122.2332, 37.73136 ], [ -122.23331, 37.73134 ], [ -122.23324, 37.7297 ], [ -122.23198, 37.72891 ], [ -122.23231, 37.72816 ], [ -122.23355, 37.72776 ], [ -122.23342, 37.72685 ], [ -122.23053, 37.72815 ], [ -122.23025, 37.72928 ], [ -122.22919, 37.72961 ], [ -122.22836, 37.72921 ], [ -122.2283, 37.72836 ], [ -122.22525, 37.72673 ], [ -122.22515, 37.72584 ], [ -122.22616, 37.72542 ], [ -122.22825, 37.72663 ], [ -122.22966, 37.72649 ], [ -122.23317, 37.72509 ], [ -122.23342, 37.72386 ], [ -122.23558, 37.72178 ], [ -122.23778, 37.7216 ], [ -122.24007, 37.72306 ], [ -122.24069, 37.72434 ], [ -122.24339, 37.72437 ], [ -122.24556, 37.72537 ], [ -122.24941, 37.72882 ], [ -122.25057, 37.73047 ], [ -122.2538, 37.73275 ], [ -122.25429, 37.73384 ], [ -122.25398, 37.73495 ], [ -122.25796, 37.73737 ], [ -122.26133, 37.7403 ], [ -122.26145, 37.74267 ], [ -122.26085, 37.74363 ], [ -122.25171, 37.74843 ], [ -122.24, 37.7482 ], [ -122.23937, 37.74706 ], [ -122.23673, 37.747 ], [ -122.23624, 37.74592 ], [ -122.23703, 37.74527 ], [ -122.23827, 37.74547 ], [ -122.23796, 37.74418 ], [ -122.23709, 37.74353 ], [ -122.23751, 37.74125 ], [ -122.23831, 37.74082 ], [ -122.24016, 37.74096 ], [ -122.23969, 37.73876 ], [ -122.24197, 37.73824 ], [ -122.24244, 37.73718 ], [ -122.24063, 37.73662 ], [ -122.24055, 37.73597 ], [ -122.23947, 37.73747 ], [ -122.23857, 37.73773 ], [ -122.2377, 37.73682 ], [ -122.23884, 37.73522 ], [ -122.23992, 37.73493 ], [ -122.23813, 37.73421 ], [ -122.23634, 37.73426 ], [ -122.23539, 37.7333 ], [ -122.23536, 37.73329 ], [ -122.23534, 37.73341 ], [ -122.23396, 37.73331 ], [ -122.23361, 37.73276 ], [ -122.23369, 37.73263 ] ], [ [ -122.24045, 37.73514 ], [ -122.23998, 37.73496 ], [ -122.2405, 37.73553 ], [ -122.24045, 37.73514 ] ], [ [ -122.24361, 37.72634 ], [ -122.24095, 37.72609 ], [ -122.2416, 37.72837 ], [ -122.24545, 37.72995 ], [ -122.24683, 37.72913 ], [ -122.24361, 37.72634 ] ], [ [ -122.25119, 37.74358 ], [ -122.25223, 37.74432 ], [ -122.25108, 37.743 ], [ -122.25119, 37.74358 ] ], [ [ -122.24753, 37.73068 ], [ -122.24788, 37.73158 ], [ -122.25211, 37.73409 ], [ -122.24804, 37.73045 ], [ -122.24753, 37.73068 ] ], [ [ -122.23912, 37.72767 ], [ -122.23907, 37.72774 ], [ -122.23914, 37.72779 ], [ -122.23912, 37.72767 ] ], [ [ -122.23866, 37.72454 ], [ -122.23684, 37.72307 ], [ -122.2352, 37.72484 ], [ -122.23866, 37.72454 ] ], [ [ -122.23544, 37.7266 ], [ -122.23738, 37.72653 ], [ -122.23741, 37.72642 ], [ -122.23544, 37.7266 ] ] ] } },
{ "type": "Feature", "properties": { "variant": "mapped", "level": 2.5, "name": "Alameda Point / Mariner Square", "residents": 1396, "flooded": 317, "pre_cap": 0 }, "geometry": { "type": "MultiPolygon", "coordinates": [ [ [ [ -122.27645, 37.78694 ], [ -122.27578, 37.78661 ], [ -122.2756, 37.78578 ], [ -122.27678, 37.78512 ], [ -122.27764, 37.78612 ], [ -122.27736, 37.78669 ], [ -122.27645, 37.78694 ] ] ], [ [ [ -122.29124, 37.78753 ], [ -122.28782, 37.78764 ], [ -122.28651, 37.7868 ], [ -122.28401, 37.78672 ], [ -122.28329, 37.78621 ], [ -122.28329, 37.78486 ], [ -122.28391, 37.78427 ], [ -122.29048, 37.78431 ], [ -122.29184, 37.78513 ], [ -122.29185, 37.78694 ], [ -122.29124, 37.78753 ] ] ], [ [ [ -122.27752, 37.78919 ], [ -122.27771, 37.7907 ], [ -122.27725, 37.79137 ], [ -122.27583, 37.79114 ], [ -122.27565, 37.78966 ], [ -122.27647, 37.78886 ], [ -122.27752, 37.78919 ] ] ] ] } },
{ "type": "Feature", "properties": { "variant": "mapped", "level": 2.6, "name": "Bay Farm Island", "residents": 13975, "flooded": 1417, "pre_cap": 0 }, "geometry": { "type": "MultiPolygon", "coordinates": [ [ [ [ -122.23369, 37.7326 ], [ -122.23361, 37.73246 ], [ -122.23352, 37.73248 ], [ -122.23345, 37.7322 ], [ -122.23333, 37.73202 ], [ -122.23337, 37.73195 ], [ -122.2332, 37.73136 ], [ -122.23345, 37.73132 ], [ -122.23324, 37.7297 ], [ -122.23239, 37.72943 ], [ -122.23199, 37.7287 ], [ -122.23234, 37.72814 ], [ -122.23355, 37.72776 ], [ -122.23342, 37.72685 ], [ -122.23053, 37.72815 ], [ -122.23025, 37.72928 ], [ -122.22919, 37.72961 ], [ -122.22836, 37.72921 ], [ -122.2283, 37.72836 ], [ -122.22525, 37.72673 ], [ -122.22507, 37.72598 ], [ -122.22616, 37.72542 ], [ -122.22825, 37.72663 ], [ -122.22966, 37.72649 ], [ -122.23317, 37.72509 ], [ -122.23342, 37.72386 ], [ -122.23558, 37.72178 ], [ -122.23778, 37.7216 ], [ -122.24007, 37.72306 ], [ -122.24069, 37.72434 ], [ -122.24339, 37.72437 ], [ -122.24556, 37.72537 ], [ -122.24941, 37.72882 ], [ -122.25057, 37.73047 ], [ -122.2538, 37.73275 ], [ -122.25429, 37.73384 ], [ -122.25398, 37.73495 ], [ -122.25796, 37.73737 ], [ -122.26133, 37.7403 ], [ -122.26145, 37.74267 ], [ -122.26085, 37.74363 ], [ -122.25171, 37.74843 ], [ -122.24, 37.7482 ], [ -122.23937, 37.74706 ], [ -122.23673, 37.747 ], [ -122.23624, 37.74592 ], [ -122.23703, 37.74527 ], [ -122.23827, 37.74547 ], [ -122.23713, 37.74329 ], [ -122.23784, 37.74095 ], [ -122.24071, 37.74102 ], [ -122.24171, 37.74336 ], [ -122.24233, 37.74276 ], [ -122.24188, 37.74171 ], [ -122.24195, 37.74166 ], [ -122.2416, 37.74166 ], [ -122.24109, 37.74101 ], [ -122.24133, 37.74042 ], [ -122.24235, 37.74002 ], [ -122.24331, 37.74068 ], [ -122.24354, 37.74051 ], [ -122.24211, 37.73956 ], [ -122.24244, 37.73718 ], [ -122.24063, 37.73662 ], [ -122.24045, 37.73514 ], [ -122.23813, 37.73421 ], [ -122.23599, 37.73411 ], [ -122.23541, 37.73344 ], [ -122.23544, 37.73323 ], [ -122.23538, 37.73321 ], [ -122.23534, 37.73341 ], [ -122.23509, 37.73339 ], [ -122.23508, 37.7334 ], [ -122.23504, 37.73339 ], [ -122.23396, 37.73331 ], [ -122.23361, 37.73276 ], [ -122.2337, 37.7326 ], [ -122.23369, 37.7326 ] ], [ [ -122.24264, 37.72604 ], [ -122.24095, 37.72609 ], [ -122.2416, 37.72837 ], [ -122.24525, 37.72988 ], [ -122.24683, 37.72913 ], [ -122.24413, 37.72669 ], [ -122.24264, 37.72604 ] ], [ [ -122.25119, 37.74358 ], [ -122.25223, 37.74432 ], [ -122.25108, 37.743 ], [ -122.25119, 37.74358 ] ], [ [ -122.25211, 37.73409 ], [ -122.24804, 37.73045 ], [ -122.24753, 37.73068 ], [ -122.24788, 37.73158 ], [ -122.25211, 37.73409 ] ], [ [ -122.23912, 37.72767 ], [ -122.23907, 37.72774 ], [ -122.23914, 37.72779 ], [ -122.23912, 37.72767 ] ], [ [ -122.23738, 37.72653 ], [ -122.23544, 37.7266 ], [ -122.23546, 37.72675 ], [ -122.23738, 37.72653 ] ], [ [ -122.23686, 37.72307 ], [ -122.23519, 37.72477 ], [ -122.2352, 37.72484 ], [ -122.23866, 37.72454 ], [ -122.23686, 37.72307 ] ] ], [ [ [ -122.23964, 37.73512 ], [ -122.24049, 37.7359 ], [ -122.23947, 37.73747 ], [ -122.23877, 37.73774 ], [ -122.23769, 37.73697 ], [ -122.2386, 37.73548 ], [ -122.23964, 37.73512 ] ] ] ] } },
{ "type": "Feature", "properties": { "variant": "mapped", "level": 2.6, "name": "Alameda Point / Mariner Square", "residents": 1215, "flooded": 184, "pre_cap": 0 }, "geometry": { "type": "MultiPolygon", "coordinates": [ [ [ [ -122.29184, 37.78513 ], [ -122.29185, 37.78694 ], [ -122.29124, 37.78753 ], [ -122.28782, 37.78764 ], [ -122.28651, 37.7868 ], [ -122.28401, 37.78672 ], [ -122.28329, 37.78621 ], [ -122.28329, 37.78486 ], [ -122.28391, 37.78427 ], [ -122.29048, 37.78431 ], [ -122.29184, 37.78513 ] ] ], [ [ [ -122.2761, 37.78915 ], [ -122.27724, 37.78914 ], [ -122.27768, 37.78965 ], [ -122.27753, 37.79115 ], [ -122.27611, 37.79137 ], [ -122.27566, 37.79015 ], [ -122.2761, 37.78915 ] ] ] ] } },
{ "type": "Feature", "properties": { "variant": "mapped", "level": 2.6, "name": "Alameda main island", "residents": 43, "flooded": 0, "pre_cap": 0 }, "geometry": { "type": "Polygon", "coordinates": [ [ [ -122.23631, 37.74956 ], [ -122.23859, 37.74986 ], [ -122.2392, 37.7507 ], [ -122.23896, 37.75143 ], [ -122.23806, 37.7519 ], [ -122.23646, 37.75129 ], [ -122.23573, 37.75033 ], [ -122.23631, 37.74956 ] ] ] } },
{ "type": "Feature", "properties": { "variant": "mapped", "level": 2.7, "name": "Bay Farm Island", "residents": 13975, "flooded": 1494, "pre_cap": 0 }, "geometry": { "type": "MultiPolygon", "coordinates": [ [ [ [ -122.23599, 37.73411 ], [ -122.23546, 37.73332 ], [ -122.23555, 37.73279 ], [ -122.23508, 37.7334 ], [ -122.23384, 37.73281 ], [ -122.23391, 37.73268 ], [ -122.23379, 37.73244 ], [ -122.23352, 37.73248 ], [ -122.2332, 37.73136 ], [ -122.23345, 37.73132 ], [ -122.23324, 37.7297 ], [ -122.23224, 37.72928 ], [ -122.23199, 37.7287 ], [ -122.23234, 37.72814 ], [ -122.23355, 37.72776 ], [ -122.23342, 37.72685 ], [ -122.23053, 37.72815 ], [ -122.23025, 37.72928 ], [ -122.22919, 37.72961 ], [ -122.22836, 37.72921 ], [ -122.2283, 37.72836 ], [ -122.22525, 37.72673 ], [ -122.22507, 37.72598 ], [ -122.22616, 37.72542 ], [ -122.22825, 37.72663 ], [ -122.22966, 37.72649 ], [ -122.23317, 37.72509 ], [ -122.23342, 37.72386 ], [ -122.23558, 37.72178 ], [ -122.23778, 37.7216 ], [ -122.24007, 37.72306 ], [ -122.24069, 37.72434 ], [ -122.24339, 37.72437 ], [ -122.24556, 37.72537 ], [ -122.24941, 37.72882 ], [ -122.25057, 37.73047 ], [ -122.2538, 37.73275 ], [ -122.25429, 37.73384 ], [ -122.25398, 37.73495 ], [ -122.25796, 37.73737 ], [ -122.26133, 37.7403 ], [ -122.26145, 37.74267 ], [ -122.26085, 37.74363 ], [ -122.25171, 37.74843 ], [ -122.24, 37.7482 ], [ -122.23937, 37.74706 ], [ -122.23693, 37.74709 ], [ -122.23622, 37.74607 ], [ -122.23684, 37.74532 ], [ -122.23827, 37.74547 ], [ -122.23713, 37.74329 ], [ -122.23769, 37.74105 ], [ -122.23954, 37.74076 ], [ -122.24088, 37.7411 ], [ -122.24171, 37.74336 ], [ -122.24233, 37.74276 ], [ -122.24188, 37.74171 ], [ -122.24195, 37.74166 ], [ -122.2416, 37.74166 ], [ -122.24109, 37.74101 ], [ -122.24133, 37.74042 ], [ -122.24235, 37.74002 ], [ -122.24331, 37.74068 ], [ -122.24354, 37.74051 ], [ -122.24211, 37.73956 ], [ -122.24244, 37.73718 ], [ -122.24044, 37.73634 ], [ -122.2409, 37.73559 ], [ -122.24053, 37.73532 ], [ -122.24055, 37.73497 ], [ -122.23813, 37.73421 ], [ -122.23599, 37.73411 ] ], [ [ -122.24413, 37.72669 ], [ -122.24264, 37.72604 ], [ -122.24095, 37.72609 ], [ -122.2416, 37.72837 ], [ -122.24525, 37.72988 ], [ -122.24683, 37.72913 ], [ -122.24413, 37.72669 ] ], [ [ -122.25108, 37.743 ], [ -122.25119, 37.74358 ], [ -122.25223, 37.74432 ], [ -122.25108, 37.743 ] ], [ [ -122.24788, 37.73158 ], [ -122.25211, 37.73409 ], [ -122.24804, 37.73045 ], [ -122.24753, 37.73068 ], [ -122.24788, 37.73158 ] ], [ [ -122.23914, 37.72779 ], [ -122.23912, 37.72767 ], [ -122.23907, 37.72774 ], [ -122.23914, 37.72779 ] ], [ [ -122.23546, 37.72675 ], [ -122.23738, 37.72653 ], [ -122.23544, 37.7266 ], [ -122.23546, 37.72675 ] ], [ [ -122.23866, 37.72454 ], [ -122.23686, 37.72307 ], [ -122.23519, 37.72477 ], [ -122.2352, 37.72484 ], [ -122.23866, 37.72454 ] ] ], [ [ [ -122.23964, 37.73512 ], [ -122.24046, 37.73574 ], [ -122.2391, 37.73741 ], [ -122.23789, 37.73678 ], [ -122.2386, 37.73548 ], [ -122.23964, 37.73512 ] ] ] ] } },
{ "type": "Feature", "properties": { "variant": "mapped", "level": 2.7, "name": "Alameda Point / Mariner Square", "residents": 1215, "flooded": 193, "pre_cap": 0 }, "geometry": { "type": "MultiPolygon", "coordinates": [ [ [ [ -122.29184, 37.78513 ], [ -122.29185, 37.78694 ], [ -122.29124, 37.78753 ], [ -122.28943, 37.78768 ], [ -122.28628, 37.78676 ], [ -122.28401, 37.78672 ], [ -122.28329, 37.78621 ], [ -122.28329, 37.78486 ], [ -122.28391, 37.78427 ], [ -122.29048, 37.78431 ], [ -122.29184, 37.78513 ] ] ], [ [ [ -122.2761, 37.78915 ], [ -122.27724, 37.78914 ], [ -122.27768, 37.78965 ], [ -122.27753, 37.79115 ], [ -122.27611, 37.79137 ], [ -122.27566, 37.79015 ], [ -122.2761, 37.78915 ] ] ] ] } },
{ "type": "Feature", "properties": { "variant": "mapped", "level": 2.7, "name": "Alameda main island", "residents": 43, "flooded": 0, "pre_cap": 0 }, "geometry": { "type": "Polygon", "coordinates": [ [ [ -122.23643, 37.74965 ], [ -122.23859, 37.74986 ], [ -122.2392, 37.7507 ], [ -122.23896, 37.75143 ], [ -122.23806, 37.7519 ], [ -122.23646, 37.75129 ], [ -122.23584, 37.75042 ], [ -122.23643, 37.74965 ] ] ] } },
{ "type": "Feature", "properties": { "variant": "mapped", "level": 2.8, "name": "Bay Farm Island", "residents": 13975, "flooded": 1686, "pre_cap": 0 }, "geometry": { "type": "MultiPolygon", "coordinates": [ [ [ [ -122.23466, 37.73262 ], [ -122.23465, 37.73263 ], [ -122.23392, 37.73242 ], [ -122.23352, 37.73248 ], [ -122.2332, 37.73136 ], [ -122.23345, 37.73132 ], [ -122.23324, 37.7297 ], [ -122.23224, 37.72928 ], [ -122.23199, 37.7287 ], [ -122.23234, 37.72814 ], [ -122.23355, 37.72776 ], [ -122.23342, 37.72685 ], [ -122.23053, 37.72815 ], [ -122.23025, 37.72928 ], [ -122.22919, 37.72961 ], [ -122.22836, 37.72921 ], [ -122.2283, 37.72836 ], [ -122.22525, 37.72673 ], [ -122.22515, 37.72584 ], [ -122.22616, 37.72542 ], [ -122.22825, 37.72663 ], [ -122.22966, 37.72649 ], [ -122.23317, 37.72509 ], [ -122.23342, 37.72386 ], [ -122.23558, 37.72178 ], [ -122.23778, 37.7216 ], [ -122.24007, 37.72306 ], [ -122.24069, 37.72434 ], [ -122.24339, 37.72437 ], [ -122.24556, 37.72537 ], [ -122.24941, 37.72882 ], [ -122.25057, 37.73047 ], [ -122.2538, 37.73275 ], [ -122.25429, 37.73384 ], [ -122.25398, 37.73495 ], [ -122.25796, 37.73737 ], [ -122.26133, 37.7403 ], [ -122.26145, 37.74267 ], [ -122.26085, 37.74363 ], [ -122.25176, 37.74842 ], [ -122.24244, 37.74827 ], [ -122.24185, 37.74766 ], [ -122.24196, 37.74558 ], [ -122.24102, 37.74542 ], [ -122.24156, 37.74616 ], [ -122.24162, 37.74775 ], [ -122.24094, 37.74829 ], [ -122.23969, 37.748 ], [ -122.23937, 37.74706 ], [ -122.23712, 37.74714 ], [ -122.23633, 37.74652 ], [ -122.23667, 37.7454 ], [ -122.23827, 37.74547 ], [ -122.23796, 37.74419 ], [ -122.23809, 37.74405 ], [ -122.23713, 37.74329 ], [ -122.23753, 37.7426 ], [ -122.23829, 37.74244 ], [ -122.24088, 37.74378 ], [ -122.24233, 37.74276 ], [ -122.2418, 37.74218 ], [ -122.24195, 37.74166 ], [ -122.2416, 37.74166 ], [ -122.24109, 37.74101 ], [ -122.24133, 37.74042 ], [ -122.24235, 37.74002 ], [ -122.24331, 37.74067 ], [ -122.24354, 37.74051 ], [ -122.24211, 37.73956 ], [ -122.24244, 37.73718 ], [ -122.24061, 37.73624 ], [ -122.241, 37.73548 ], [ -122.24075, 37.73538 ], [ -122.24092, 37.7351 ], [ -122.23684, 37.73409 ], [ -122.23654, 37.73429 ], [ -122.23618, 37.73392 ], [ -122.23601, 37.73388 ], [ -122.23555, 37.73338 ], [ -122.23563, 37.73261 ], [ -122.2347, 37.73279 ], [ -122.23466, 37.73262 ] ], [ [ -122.24524, 37.74055 ], [ -122.24533, 37.74049 ], [ -122.24584, 37.74072 ], [ -122.24628, 37.74032 ], [ -122.24494, 37.74012 ], [ -122.24524, 37.74055 ] ], [ [ -122.24413, 37.72669 ], [ -122.24264, 37.72604 ], [ -122.24095, 37.72609 ], [ -122.2416, 37.72837 ], [ -122.24548, 37.72993 ], [ -122.24683, 37.72913 ], [ -122.24413, 37.72669 ] ], [ [ -122.25186, 37.74447 ], [ -122.2521, 37.74402 ], [ -122.25108, 37.743 ], [ -122.25119, 37.74358 ], [ -122.25186, 37.74447 ] ], [ [ -122.24788, 37.73158 ], [ -122.25211, 37.73409 ], [ -122.24804, 37.73045 ], [ -122.24753, 37.73068 ], [ -122.24788, 37.73158 ] ], [ [ -122.23546, 37.72675 ], [ -122.23738, 37.72653 ], [ -122.23544, 37.7266 ], [ -122.23546, 37.72675 ] ], [ [ -122.23866, 37.72454 ], [ -122.23686, 37.72307 ], [ -122.23519, 37.72477 ], [ -122.2352, 37.72484 ], [ -122.23866, 37.72454 ] ], [ [ -122.23914, 37.72779 ], [ -122.23912, 37.72767 ], [ -122.23907, 37.72774 ], [ -122.23914, 37.72779 ] ] ], [ [ [ -122.23964, 37.73512 ], [ -122.24046, 37.73574 ], [ -122.2391, 37.73741 ], [ -122.23789, 37.73678 ], [ -122.2386, 37.73548 ], [ -122.23964, 37.73512 ] ] ] ] } },
{ "type": "Feature", "properties": { "variant": "mapped", "level": 2.8, "name": "Alameda Point / Mariner Square", "residents": 1370, "flooded": 281, "pre_cap": 0 }, "geometry": { "type": "MultiPolygon", "coordinates": [ [ [ [ -122.29185, 37.78694 ], [ -122.29124, 37.78753 ], [ -122.28943, 37.78768 ], [ -122.28628, 37.78676 ], [ -122.28401, 37.78672 ], [ -122.28329, 37.78621 ], [ -122.28329, 37.78486 ], [ -122.28391, 37.78427 ], [ -122.29048, 37.78431 ], [ -122.29184, 37.78513 ], [ -122.29185, 37.78694 ] ] ], [ [ [ -122.29469, 37.7891 ], [ -122.29365, 37.78946 ], [ -122.29274, 37.78891 ], [ -122.29208, 37.78766 ], [ -122.29262, 37.78703 ], [ -122.29406, 37.7869 ], [ -122.29491, 37.78726 ], [ -122.29507, 37.78787 ], [ -122.29469, 37.7891 ] ] ], [ [ [ -122.27724, 37.78914 ], [ -122.27768, 37.78965 ], [ -122.27753, 37.79115 ], [ -122.27611, 37.79137 ], [ -122.27566, 37.79015 ], [ -122.2761, 37.78915 ], [ -122.27724, 37.78914 ] ] ] ] } },
{ "type": "Feature", "properties": { "variant": "mapped", "level": 2.8, "name": "Alameda main island", "residents": 64, "flooded": 9, "pre_cap": 0 }, "geometry": { "type": "MultiPolygon", "coordinates": [ [ [ [ -122.23859, 37.74986 ], [ -122.2392, 37.7507 ], [ -122.23896, 37.75143 ], [ -122.23806, 37.7519 ], [ -122.23616, 37.75089 ], [ -122.23638, 37.75003 ], [ -122.23859, 37.74986 ] ] ], [ [ [ -122.26669, 37.79225 ], [ -122.26649, 37.79299 ], [ -122.26579, 37.79328 ], [ -122.26474, 37.79301 ], [ -122.26462, 37.79187 ], [ -122.26602, 37.7917 ], [ -122.26669, 37.79225 ] ] ] ] } },
{ "type": "Feature", "properties": { "variant": "mapped", "level": 2.9, "name": "Bay Farm Island", "residents": 13975, "flooded": 1778, "pre_cap": 0 }, "geometry": { "type": "MultiPolygon", "coordinates": [ [ [ [ -122.23466, 37.73262 ], [ -122.23465, 37.73263 ], [ -122.23392, 37.73242 ], [ -122.23352, 37.73248 ], [ -122.2332, 37.73136 ], [ -122.23345, 37.73132 ], [ -122.23324, 37.7297 ], [ -122.23224, 37.72928 ], [ -122.23199, 37.7287 ], [ -122.23234, 37.72814 ], [ -122.23355, 37.72776 ], [ -122.23342, 37.72685 ], [ -122.23053, 37.72815 ], [ -122.23025, 37.72928 ], [ -122.22919, 37.72961 ], [ -122.22836, 37.72921 ], [ -122.2283, 37.72836 ], [ -122.22525, 37.72673 ], [ -122.22515, 37.72584 ], [ -122.22616, 37.72542 ], [ -122.22825, 37.72663 ], [ -122.22966, 37.72649 ], [ -122.23317, 37.72509 ], [ -122.23342, 37.72386 ], [ -122.23558, 37.72178 ], [ -122.23778, 37.7216 ], [ -122.24007, 37.72306 ], [ -122.24069, 37.72434 ], [ -122.24339, 37.72437 ], [ -122.24556, 37.72537 ], [ -122.24941, 37.72882 ], [ -122.25057, 37.73047 ], [ -122.2538, 37.73275 ], [ -122.25429, 37.73384 ], [ -122.25398, 37.73495 ], [ -122.25796, 37.73737 ], [ -122.26133, 37.7403 ], [ -122.26145, 37.74267 ], [ -122.26085, 37.74363 ], [ -122.25176, 37.74842 ], [ -122.24244, 37.74827 ], [ -122.24185, 37.74766 ], [ -122.24196, 37.74558 ], [ -122.24063, 37.74541 ], [ -122.24166, 37.74743 ], [ -122.24113, 37.74823 ], [ -122.23982, 37.74811 ], [ -122.23937, 37.74706 ], [ -122.23729, 37.74715 ], [ -122.23648, 37.74678 ], [ -122.23651, 37.7455 ], [ -122.23928, 37.74485 ], [ -122.23862, 37.74432 ], [ -122.23934, 37.7434 ], [ -122.24088, 37.74378 ], [ -122.24191, 37.74324 ], [ -122.24233, 37.74276 ], [ -122.24188, 37.74171 ], [ -122.24195, 37.74166 ], [ -122.2416, 37.74166 ], [ -122.24109, 37.74101 ], [ -122.24133, 37.74042 ], [ -122.24235, 37.74002 ], [ -122.24332, 37.74068 ], [ -122.24355, 37.74051 ], [ -122.24211, 37.73956 ], [ -122.24244, 37.73718 ], [ -122.24086, 37.73642 ], [ -122.24108, 37.73551 ], [ -122.24075, 37.73538 ], [ -122.24092, 37.7351 ], [ -122.23684, 37.73409 ], [ -122.23654, 37.73429 ], [ -122.23618, 37.73392 ], [ -122.23601, 37.73388 ], [ -122.23555, 37.73338 ], [ -122.23563, 37.73261 ], [ -122.2347, 37.73279 ], [ -122.23466, 37.73262 ] ], [ [ -122.24592, 37.73971 ], [ -122.24471, 37.74037 ], [ -122.24516, 37.7406 ], [ -122.24533, 37.74049 ], [ -122.24578, 37.7407 ], [ -122.24628, 37.74032 ], [ -122.24592, 37.73971 ] ], [ [ -122.24413, 37.72669 ], [ -122.24264, 37.72604 ], [ -122.24095, 37.72609 ], [ -122.2416, 37.72837 ], [ -122.24548, 37.72993 ], [ -122.24683, 37.72913 ], [ -122.24413, 37.72669 ] ], [ [ -122.25187, 37.74447 ], [ -122.2521, 37.74402 ], [ -122.25108, 37.743 ], [ -122.25119, 37.74358 ], [ -122.25187, 37.74447 ] ], [ [ -122.24788, 37.73158 ], [ -122.25211, 37.73409 ], [ -122.24804, 37.73045 ], [ -122.24753, 37.73068 ], [ -122.24788, 37.73158 ] ], [ [ -122.23546, 37.72675 ], [ -122.23738, 37.72653 ], [ -122.23544, 37.7266 ], [ -122.23546, 37.72675 ] ], [ [ -122.23866, 37.72454 ], [ -122.23686, 37.72307 ], [ -122.23519, 37.72477 ], [ -122.2352, 37.72484 ], [ -122.23866, 37.72454 ] ], [ [ -122.23914, 37.72779 ], [ -122.23912, 37.72767 ], [ -122.23907, 37.72774 ], [ -122.23914, 37.72779 ] ] ], [ [ [ -122.23923, 37.73727 ], [ -122.23817, 37.73694 ], [ -122.23806, 37.73618 ], [ -122.23875, 37.73541 ], [ -122.24018, 37.73561 ], [ -122.24001, 37.73675 ], [ -122.23923, 37.73727 ] ] ] ] } },
{ "type": "Feature", "properties": { "variant": "mapped", "level": 2.9, "name": "Alameda Point / Mariner Square", "residents": 1370, "flooded": 361, "pre_cap": 0 }, "geometry": { "type": "MultiPolygon", "coordinates": [ [ [ [ -122.29185, 37.78694 ], [ -122.29124, 37.78753 ], [ -122.28943, 37.78768 ], [ -122.28628, 37.78676 ], [ -122.28401, 37.78672 ], [ -122.28329, 37.78621 ], [ -122.28329, 37.78486 ], [ -122.28391, 37.78427 ], [ -122.29048, 37.78431 ], [ -122.29184, 37.78513 ], [ -122.29185, 37.78694 ] ] ], [ [ [ -122.29212, 37.7875 ], [ -122.29281, 37.78697 ], [ -122.2946, 37.7871 ], [ -122.29478, 37.78896 ], [ -122.29345, 37.78941 ], [ -122.29212, 37.7875 ] ] ], [ [ [ -122.27762, 37.7895 ], [ -122.27769, 37.79046 ], [ -122.27709, 37.79106 ], [ -122.27597, 37.7909 ], [ -122.27566, 37.79015 ], [ -122.27628, 37.78907 ], [ -122.27762, 37.7895 ] ] ] ] } },
{ "type": "Feature", "properties": { "variant": "mapped", "level": 2.9, "name": "Alameda main island", "residents": 64, "flooded": 14, "pre_cap": 0 }, "geometry": { "type": "MultiPolygon", "coordinates": [ [ [ [ -122.23892, 37.75042 ], [ -122.23875, 37.75152 ], [ -122.23792, 37.7519 ], [ -122.23646, 37.75129 ], [ -122.23612, 37.75061 ], [ -122.23653, 37.74992 ], [ -122.23785, 37.74966 ], [ -122.23892, 37.75042 ] ] ], [ [ [ -122.26669, 37.79225 ], [ -122.26649, 37.79299 ], [ -122.26579, 37.79328 ], [ -122.26474, 37.79301 ], [ -122.26462, 37.79187 ], [ -122.26602, 37.7917 ], [ -122.26669, 37.79225 ] ] ] ] } },
{ "type": "Feature", "properties": { "variant": "mapped", "level": 3.0, "name": "Bay Farm Island", "residents": 13975, "flooded": 1884, "pre_cap": 0 }, "geometry": { "type": "MultiPolygon", "coordinates": [ [ [ [ -122.23568, 37.73204 ], [ -122.23465, 37.73263 ], [ -122.23392, 37.73242 ], [ -122.23352, 37.73248 ], [ -122.2332, 37.73136 ], [ -122.23345, 37.73132 ], [ -122.23324, 37.7297 ], [ -122.23224, 37.72928 ], [ -122.23199, 37.7287 ], [ -122.23234, 37.72814 ], [ -122.23355, 37.72776 ], [ -122.23342, 37.72685 ], [ -122.23053, 37.72815 ], [ -122.23025, 37.72928 ], [ -122.22919, 37.72961 ], [ -122.22836, 37.72921 ], [ -122.2283, 37.72836 ], [ -122.22525, 37.72673 ], [ -122.22515, 37.72584 ], [ -122.22616, 37.72542 ], [ -122.22825, 37.72663 ], [ -122.22966, 37.72649 ], [ -122.23317, 37.72509 ], [ -122.23342, 37.72386 ], [ -122.23558, 37.72178 ], [ -122.23778, 37.7216 ], [ -122.24007, 37.72306 ], [ -122.24069, 37.72434 ], [ -122.24339, 37.72437 ], [ -122.24556, 37.72537 ], [ -122.24941, 37.72882 ], [ -122.25057, 37.73047 ], [ -122.2538, 37.73275 ], [ -122.25429, 37.73384 ], [ -122.25398, 37.73495 ], [ -122.25796, 37.73737 ], [ -122.26133, 37.7403 ], [ -122.26145, 37.74267 ], [ -122.26085, 37.74363 ], [ -122.25176, 37.74842 ], [ -122.24244, 37.74827 ], [ -122.24185, 37.74766 ], [ -122.24196, 37.74557 ], [ -122.24057, 37.74529 ], [ -122.24166, 37.74743 ], [ -122.24113, 37.74823 ], [ -122.23982, 37.74811 ], [ -122.23937, 37.74706 ], [ -122.23729, 37.74715 ], [ -122.23648, 37.74678 ], [ -122.23651, 37.7455 ], [ -122.23939, 37.74483 ], [ -122.23871, 37.74415 ], [ -122.23934, 37.7434 ], [ -122.24088, 37.74378 ], [ -122.24191, 37.74324 ], [ -122.24233, 37.74276 ], [ -122.24188, 37.74171 ], [ -122.24195, 37.74166 ], [ -122.2416, 37.74166 ], [ -122.24109, 37.74101 ], [ -122.24133, 37.74042 ], [ -122.24235, 37.74002 ], [ -122.24332, 37.74068 ], [ -122.24355, 37.74051 ], [ -122.24211, 37.73956 ], [ -122.24244, 37.73718 ], [ -122.24086, 37.73642 ], [ -122.24117, 37.73516 ], [ -122.23709, 37.73415 ], [ -122.23707, 37.73418 ], [ -122.23629, 37.73418 ], [ -122.23569, 37.73366 ], [ -122.23573, 37.73358 ], [ -122.23555, 37.73338 ], [ -122.23568, 37.73204 ] ], [ [ -122.24578, 37.7407 ], [ -122.24628, 37.74032 ], [ -122.24592, 37.73971 ], [ -122.24471, 37.74037 ], [ -122.24516, 37.7406 ], [ -122.24533, 37.74049 ], [ -122.24578, 37.7407 ] ], [ [ -122.24548, 37.72993 ], [ -122.24683, 37.72913 ], [ -122.24413, 37.72669 ], [ -122.24264, 37.72604 ], [ -122.24095, 37.72609 ], [ -122.2416, 37.72837 ], [ -122.24548, 37.72993 ] ], [ [ -122.25108, 37.743 ], [ -122.25119, 37.74358 ], [ -122.25187, 37.74447 ], [ -122.2521, 37.74402 ], [ -122.25108, 37.743 ] ], [ [ -122.24804, 37.73045 ], [ -122.24753, 37.73068 ], [ -122.24788, 37.73158 ], [ -122.25211, 37.73409 ], [ -122.24804, 37.73045 ] ], [ [ -122.23738, 37.72653 ], [ -122.23544, 37.7266 ], [ -122.23546, 37.72675 ], [ -122.23738, 37.72653 ] ], [ [ -122.23519, 37.72477 ], [ -122.2352, 37.72484 ], [ -122.23866, 37.72454 ], [ -122.23686, 37.72307 ], [ -122.23519, 37.72477 ] ], [ [ -122.23912, 37.72767 ], [ -122.23907, 37.72774 ], [ -122.23914, 37.72779 ], [ -122.23912, 37.72767 ] ] ], [ [ [ -122.23923, 37.73727 ], [ -122.23817, 37.73694 ], [ -122.23806, 37.73618 ], [ -122.23875, 37.73541 ], [ -122.24018, 37.73561 ], [ -122.24001, 37.73675 ], [ -122.23923, 37.73727 ] ] ] ] } },
{ "type": "Feature", "properties": { "variant": "mapped", "level": 3.0, "name": "Alameda Point / Mariner Square", "residents": 1370, "flooded": 379, "pre_cap": 0 }, "geometry": { "type": "MultiPolygon", "coordinates": [ [ [ [ -122.29185, 37.78694 ], [ -122.29124, 37.78753 ], [ -122.28943, 37.78768 ], [ -122.28628, 37.78676 ], [ -122.28401, 37.78672 ], [ -122.28329, 37.78621 ], [ -122.28329, 37.78486 ], [ -122.28391, 37.78427 ], [ -122.29048, 37.78431 ], [ -122.29184, 37.78513 ], [ -122.29185, 37.78694 ] ] ], [ [ [ -122.29212, 37.7875 ], [ -122.29281, 37.78697 ], [ -122.2946, 37.7871 ], [ -122.29478, 37.78896 ], [ -122.29345, 37.78941 ], [ -122.29212, 37.7875 ] ] ], [ [ [ -122.2765, 37.79111 ], [ -122.27584, 37.79078 ], [ -122.27568, 37.78999 ], [ -122.27687, 37.78934 ], [ -122.27771, 37.7903 ], [ -122.27727, 37.79098 ], [ -122.2765, 37.79111 ] ] ] ] } },
{ "type": "Feature", "properties": { "variant": "mapped", "level": 3.0, "name": "Alameda main island", "residents": 64, "flooded": 15, "pre_cap": 0 }, "geometry": { "type": "MultiPolygon", "coordinates": [ [ [ [ -122.23892, 37.75042 ], [ -122.23875, 37.75152 ], [ -122.23792, 37.7519 ], [ -122.23612, 37.75061 ], [ -122.23653, 37.74992 ], [ -122.23785, 37.74966 ], [ -122.23892, 37.75042 ] ] ], [ [ [ -122.26669, 37.79225 ], [ -122.26649, 37.79299 ], [ -122.26579, 37.79328 ], [ -122.26474, 37.79301 ], [ -122.26462, 37.79187 ], [ -122.26602, 37.7917 ], [ -122.26669, 37.79225 ] ] ] ] } },
{ "type": "Feature", "properties": { "variant": "hold", "level": 2.1, "name": "Alameda Point / Mariner Square", "residents": 1396, "flooded": 252, "pre_cap": 0 }, "geometry": { "type": "MultiPolygon", "coordinates": [ [ [ [ -122.27678, 37.78495 ], [ -122.27754, 37.78542 ], [ -122.27763, 37.78627 ], [ -122.27645, 37.78694 ], [ -122.27559, 37.78594 ], [ -122.27586, 37.78519 ], [ -122.27678, 37.78495 ] ] ], [ [ [ -122.29124, 37.78753 ], [ -122.28782, 37.78764 ], [ -122.28651, 37.7868 ], [ -122.28401, 37.78672 ], [ -122.28329, 37.78621 ], [ -122.28329, 37.78486 ], [ -122.28391, 37.78427 ], [ -122.29048, 37.78431 ], [ -122.29184, 37.78513 ], [ -122.29185, 37.78694 ], [ -122.29124, 37.78753 ] ] ], [ [ [ -122.27769, 37.78947 ], [ -122.27763, 37.79101 ], [ -122.27688, 37.79149 ], [ -122.27596, 37.79127 ], [ -122.27484, 37.78981 ], [ -122.27522, 37.78911 ], [ -122.27729, 37.78893 ], [ -122.27769, 37.78947 ] ] ] ] } },
{ "type": "Feature", "properties": { "variant": "hold", "level": 2.2, "name": "Alameda Point / Mariner Square", "residents": 1407, "flooded": 272, "pre_cap": 0 }, "geometry": { "type": "MultiPolygon", "coordinates": [ [ [ [ -122.27754, 37.78542 ], [ -122.27763, 37.78627 ], [ -122.27645, 37.78694 ], [ -122.27559, 37.78594 ], [ -122.27586, 37.78519 ], [ -122.27678, 37.78495 ], [ -122.27754, 37.78542 ] ] ], [ [ [ -122.28651, 37.7868 ], [ -122.28401, 37.78672 ], [ -122.28329, 37.78621 ], [ -122.28329, 37.78486 ], [ -122.28391, 37.78427 ], [ -122.29048, 37.78431 ], [ -122.29184, 37.78513 ], [ -122.29185, 37.78694 ], [ -122.29124, 37.78753 ], [ -122.28782, 37.78764 ], [ -122.28651, 37.7868 ] ] ], [ [ [ -122.29572, 37.78735 ], [ -122.29711, 37.78766 ], [ -122.29729, 37.78841 ], [ -122.29679, 37.78888 ], [ -122.29601, 37.78894 ], [ -122.2953, 37.78844 ], [ -122.29572, 37.78735 ] ] ], [ [ [ -122.27769, 37.78947 ], [ -122.27763, 37.79101 ], [ -122.27688, 37.79149 ], [ -122.27596, 37.79127 ], [ -122.27484, 37.78981 ], [ -122.27522, 37.78911 ], [ -122.27729, 37.78893 ], [ -122.27769, 37.78947 ] ] ] ] } },
{ "type": "Feature", "properties": { "variant": "hold", "level": 2.3, "name": "Alameda Point / Mariner Square", "residents": 1439, "flooded": 314, "pre_cap": 0 }, "geometry": { "type": "MultiPolygon", "coordinates": [ [ [ [ -122.27754, 37.78542 ], [ -122.27763, 37.78627 ], [ -122.27645, 37.78694 ], [ -122.27559, 37.78594 ], [ -122.27586, 37.78519 ], [ -122.27678, 37.78495 ], [ -122.27754, 37.78542 ] ] ], [ [ [ -122.28651, 37.7868 ], [ -122.28401, 37.78672 ], [ -122.28329, 37.78621 ], [ -122.28329, 37.78486 ], [ -122.28391, 37.78427 ], [ -122.29048, 37.78431 ], [ -122.29184, 37.78513 ], [ -122.29185, 37.78694 ], [ -122.29124, 37.78753 ], [ -122.28782, 37.78764 ], [ -122.28651, 37.7868 ] ] ], [ [ [ -122.29572, 37.78735 ], [ -122.29711, 37.78766 ], [ -122.29729, 37.78841 ], [ -122.29679, 37.78888 ], [ -122.29601, 37.78894 ], [ -122.2953, 37.78844 ], [ -122.29572, 37.78735 ] ] ], [ [ [ -122.27756, 37.78917 ], [ -122.27769, 37.79086 ], [ -122.27725, 37.79137 ], [ -122.27583, 37.79114 ], [ -122.27566, 37.78954 ], [ -122.27653, 37.78878 ], [ -122.27756, 37.78917 ] ] ] ] } },
{ "type": "Feature", "properties": { "variant": "hold", "level": 2.4, "name": "Alameda Point / Mariner Square", "residents": 1439, "flooded": 334, "pre_cap": 0 }, "geometry": { "type": "MultiPolygon", "coordinates": [ [ [ [ -122.27754, 37.78542 ], [ -122.27763, 37.78627 ], [ -122.27645, 37.78694 ], [ -122.27559, 37.78594 ], [ -122.27586, 37.78519 ], [ -122.27678, 37.78495 ], [ -122.27754, 37.78542 ] ] ], [ [ [ -122.28651, 37.7868 ], [ -122.28401, 37.78672 ], [ -122.28329, 37.78621 ], [ -122.28329, 37.78486 ], [ -122.28391, 37.78427 ], [ -122.29048, 37.78431 ], [ -122.29184, 37.78513 ], [ -122.29185, 37.78694 ], [ -122.29124, 37.78753 ], [ -122.28782, 37.78764 ], [ -122.28651, 37.7868 ] ] ], [ [ [ -122.29572, 37.78735 ], [ -122.29711, 37.78766 ], [ -122.29729, 37.78841 ], [ -122.29679, 37.78888 ], [ -122.29601, 37.78894 ], [ -122.2953, 37.78844 ], [ -122.29572, 37.78735 ] ] ], [ [ [ -122.27752, 37.78919 ], [ -122.27771, 37.7907 ], [ -122.27725, 37.79137 ], [ -122.27583, 37.79114 ], [ -122.27565, 37.78966 ], [ -122.27647, 37.78886 ], [ -122.27752, 37.78919 ] ] ] ] } },
{ "type": "Feature", "properties": { "variant": "hold", "level": 2.5, "name": "Alameda Point / Mariner Square", "residents": 1396, "flooded": 317, "pre_cap": 0 }, "geometry": { "type": "MultiPolygon", "coordinates": [ [ [ [ -122.27645, 37.78694 ], [ -122.27578, 37.78661 ], [ -122.2756, 37.78578 ], [ -122.27678, 37.78512 ], [ -122.27764, 37.78612 ], [ -122.27736, 37.78669 ], [ -122.27645, 37.78694 ] ] ], [ [ [ -122.29124, 37.78753 ], [ -122.28782, 37.78764 ], [ -122.28651, 37.7868 ], [ -122.28401, 37.78672 ], [ -122.28329, 37.78621 ], [ -122.28329, 37.78486 ], [ -122.28391, 37.78427 ], [ -122.29048, 37.78431 ], [ -122.29184, 37.78513 ], [ -122.29185, 37.78694 ], [ -122.29124, 37.78753 ] ] ], [ [ [ -122.27752, 37.78919 ], [ -122.27771, 37.7907 ], [ -122.27725, 37.79137 ], [ -122.27583, 37.79114 ], [ -122.27565, 37.78966 ], [ -122.27647, 37.78886 ], [ -122.27752, 37.78919 ] ] ] ] } },
{ "type": "Feature", "properties": { "variant": "hold", "level": 2.6, "name": "Alameda Point / Mariner Square", "residents": 1215, "flooded": 184, "pre_cap": 0 }, "geometry": { "type": "MultiPolygon", "coordinates": [ [ [ [ -122.29184, 37.78513 ], [ -122.29185, 37.78694 ], [ -122.29124, 37.78753 ], [ -122.28782, 37.78764 ], [ -122.28651, 37.7868 ], [ -122.28401, 37.78672 ], [ -122.28329, 37.78621 ], [ -122.28329, 37.78486 ], [ -122.28391, 37.78427 ], [ -122.29048, 37.78431 ], [ -122.29184, 37.78513 ] ] ], [ [ [ -122.2761, 37.78915 ], [ -122.27724, 37.78914 ], [ -122.27768, 37.78965 ], [ -122.27753, 37.79115 ], [ -122.27611, 37.79137 ], [ -122.27566, 37.79015 ], [ -122.2761, 37.78915 ] ] ] ] } },
{ "type": "Feature", "properties": { "variant": "hold", "level": 2.6, "name": "Alameda main island", "residents": 43, "flooded": 0, "pre_cap": 0 }, "geometry": { "type": "Polygon", "coordinates": [ [ [ -122.23631, 37.74956 ], [ -122.23859, 37.74986 ], [ -122.2392, 37.7507 ], [ -122.23896, 37.75143 ], [ -122.23806, 37.7519 ], [ -122.23646, 37.75129 ], [ -122.23573, 37.75033 ], [ -122.23631, 37.74956 ] ] ] } },
{ "type": "Feature", "properties": { "variant": "hold", "level": 2.7, "name": "Alameda Point / Mariner Square", "residents": 1215, "flooded": 193, "pre_cap": 0 }, "geometry": { "type": "MultiPolygon", "coordinates": [ [ [ [ -122.29184, 37.78513 ], [ -122.29185, 37.78694 ], [ -122.29124, 37.78753 ], [ -122.28943, 37.78768 ], [ -122.28628, 37.78676 ], [ -122.28401, 37.78672 ], [ -122.28329, 37.78621 ], [ -122.28329, 37.78486 ], [ -122.28391, 37.78427 ], [ -122.29048, 37.78431 ], [ -122.29184, 37.78513 ] ] ], [ [ [ -122.2761, 37.78915 ], [ -122.27724, 37.78914 ], [ -122.27768, 37.78965 ], [ -122.27753, 37.79115 ], [ -122.27611, 37.79137 ], [ -122.27566, 37.79015 ], [ -122.2761, 37.78915 ] ] ] ] } },
{ "type": "Feature", "properties": { "variant": "hold", "level": 2.7, "name": "Alameda main island", "residents": 43, "flooded": 0, "pre_cap": 0 }, "geometry": { "type": "Polygon", "coordinates": [ [ [ -122.23643, 37.74965 ], [ -122.23859, 37.74986 ], [ -122.2392, 37.7507 ], [ -122.23896, 37.75143 ], [ -122.23806, 37.7519 ], [ -122.23646, 37.75129 ], [ -122.23584, 37.75042 ], [ -122.23643, 37.74965 ] ] ] } },
{ "type": "Feature", "properties": { "variant": "hold", "level": 2.8, "name": "Alameda Point / Mariner Square", "residents": 1370, "flooded": 281, "pre_cap": 0 }, "geometry": { "type": "MultiPolygon", "coordinates": [ [ [ [ -122.29185, 37.78694 ], [ -122.29124, 37.78753 ], [ -122.28943, 37.78768 ], [ -122.28628, 37.78676 ], [ -122.28401, 37.78672 ], [ -122.28329, 37.78621 ], [ -122.28329, 37.78486 ], [ -122.28391, 37.78427 ], [ -122.29048, 37.78431 ], [ -122.29184, 37.78513 ], [ -122.29185, 37.78694 ] ] ], [ [ [ -122.29469, 37.7891 ], [ -122.29365, 37.78946 ], [ -122.29274, 37.78891 ], [ -122.29208, 37.78766 ], [ -122.29262, 37.78703 ], [ -122.29406, 37.7869 ], [ -122.29491, 37.78726 ], [ -122.29507, 37.78787 ], [ -122.29469, 37.7891 ] ] ], [ [ [ -122.27724, 37.78914 ], [ -122.27768, 37.78965 ], [ -122.27753, 37.79115 ], [ -122.27611, 37.79137 ], [ -122.27566, 37.79015 ], [ -122.2761, 37.78915 ], [ -122.27724, 37.78914 ] ] ] ] } },
{ "type": "Feature", "properties": { "variant": "hold", "level": 2.8, "name": "Alameda main island", "residents": 64, "flooded": 9, "pre_cap": 0 }, "geometry": { "type": "MultiPolygon", "coordinates": [ [ [ [ -122.23859, 37.74986 ], [ -122.2392, 37.7507 ], [ -122.23896, 37.75143 ], [ -122.23806, 37.7519 ], [ -122.23616, 37.75089 ], [ -122.23638, 37.75003 ], [ -122.23859, 37.74986 ] ] ], [ [ [ -122.26669, 37.79225 ], [ -122.26649, 37.79299 ], [ -122.26579, 37.79328 ], [ -122.26474, 37.79301 ], [ -122.26462, 37.79187 ], [ -122.26602, 37.7917 ], [ -122.26669, 37.79225 ] ] ] ] } },
{ "type": "Feature", "properties": { "variant": "hold", "level": 2.9, "name": "Alameda Point / Mariner Square", "residents": 1370, "flooded": 361, "pre_cap": 0 }, "geometry": { "type": "MultiPolygon", "coordinates": [ [ [ [ -122.29185, 37.78694 ], [ -122.29124, 37.78753 ], [ -122.28943, 37.78768 ], [ -122.28628, 37.78676 ], [ -122.28401, 37.78672 ], [ -122.28329, 37.78621 ], [ -122.28329, 37.78486 ], [ -122.28391, 37.78427 ], [ -122.29048, 37.78431 ], [ -122.29184, 37.78513 ], [ -122.29185, 37.78694 ] ] ], [ [ [ -122.29212, 37.7875 ], [ -122.29281, 37.78697 ], [ -122.2946, 37.7871 ], [ -122.29478, 37.78896 ], [ -122.29345, 37.78941 ], [ -122.29212, 37.7875 ] ] ], [ [ [ -122.27762, 37.7895 ], [ -122.27769, 37.79046 ], [ -122.27709, 37.79106 ], [ -122.27597, 37.7909 ], [ -122.27566, 37.79015 ], [ -122.27628, 37.78907 ], [ -122.27762, 37.7895 ] ] ] ] } },
{ "type": "Feature", "properties": { "variant": "hold", "level": 2.9, "name": "Bay Farm Island", "residents": 773, "flooded": 128, "pre_cap": 0 }, "geometry": { "type": "Polygon", "coordinates": [ [ [ -122.23651, 37.7455 ], [ -122.2397, 37.74476 ], [ -122.24051, 37.74517 ], [ -122.24166, 37.74743 ], [ -122.24113, 37.74823 ], [ -122.23982, 37.74811 ], [ -122.23937, 37.74706 ], [ -122.23729, 37.74715 ], [ -122.23648, 37.74678 ], [ -122.23651, 37.7455 ] ] ] } },
{ "type": "Feature", "properties": { "variant": "hold", "level": 2.9, "name": "Alameda main island", "residents": 64, "flooded": 14, "pre_cap": 0 }, "geometry": { "type": "MultiPolygon", "coordinates": [ [ [ [ -122.23892, 37.75042 ], [ -122.23875, 37.75152 ], [ -122.23792, 37.7519 ], [ -122.23646, 37.75129 ], [ -122.23612, 37.75061 ], [ -122.23653, 37.74992 ], [ -122.23785, 37.74966 ], [ -122.23892, 37.75042 ] ] ], [ [ [ -122.26669, 37.79225 ], [ -122.26649, 37.79299 ], [ -122.26579, 37.79328 ], [ -122.26474, 37.79301 ], [ -122.26462, 37.79187 ], [ -122.26602, 37.7917 ], [ -122.26669, 37.79225 ] ] ] ] } },
{ "type": "Feature", "properties": { "variant": "hold", "level": 3.0, "name": "Alameda Point / Mariner Square", "residents": 1370, "flooded": 379, "pre_cap": 0 }, "geometry": { "type": "MultiPolygon", "coordinates": [ [ [ [ -122.29185, 37.78694 ], [ -122.29124, 37.78753 ], [ -122.28943, 37.78768 ], [ -122.28628, 37.78676 ], [ -122.28401, 37.78672 ], [ -122.28329, 37.78621 ], [ -122.28329, 37.78486 ], [ -122.28391, 37.78427 ], [ -122.29048, 37.78431 ], [ -122.29184, 37.78513 ], [ -122.29185, 37.78694 ] ] ], [ [ [ -122.29212, 37.7875 ], [ -122.29281, 37.78697 ], [ -122.2946, 37.7871 ], [ -122.29478, 37.78896 ], [ -122.29345, 37.78941 ], [ -122.29212, 37.7875 ] ] ], [ [ [ -122.2765, 37.79111 ], [ -122.27584, 37.79078 ], [ -122.27568, 37.78999 ], [ -122.27687, 37.78934 ], [ -122.27771, 37.7903 ], [ -122.27727, 37.79098 ], [ -122.2765, 37.79111 ] ] ] ] } },
{ "type": "Feature", "properties": { "variant": "hold", "level": 3.0, "name": "Bay Farm Island", "residents": 773, "flooded": 138, "pre_cap": 0 }, "geometry": { "type": "Polygon", "coordinates": [ [ [ -122.23651, 37.7455 ], [ -122.2397, 37.74476 ], [ -122.24051, 37.74517 ], [ -122.24166, 37.74743 ], [ -122.24113, 37.74823 ], [ -122.23982, 37.74811 ], [ -122.23937, 37.74706 ], [ -122.23729, 37.74715 ], [ -122.23648, 37.74678 ], [ -122.23651, 37.7455 ] ] ] } },
{ "type": "Feature", "properties": { "variant": "hold", "level": 3.0, "name": "Alameda main island", "residents": 64, "flooded": 15, "pre_cap": 0 }, "geometry": { "type": "MultiPolygon", "coordinates": [ [ [ [ -122.23892, 37.75042 ], [ -122.23875, 37.75152 ], [ -122.23792, 37.7519 ], [ -122.23612, 37.75061 ], [ -122.23653, 37.74992 ], [ -122.23785, 37.74966 ], [ -122.23892, 37.75042 ] ] ], [ [ [ -122.26669, 37.79225 ], [ -122.26649, 37.79299 ], [ -122.26579, 37.79328 ], [ -122.26474, 37.79301 ], [ -122.26462, 37.79187 ], [ -122.26602, 37.7917 ], [ -122.26669, 37.79225 ] ] ] ] } }
]
}
