{"type": "FeatureCollection", "features": [{"type": "Feature", "geometry": {"type": "Point", "coordinates": [-122.2761, 37.78975]}, "properties": {"crest": 2.1, "km2": 0.05, "held": 0}}, {"type": "Feature", "geometry": {"type": "Point", "coordinates": [-122.22331, 37.74552]}, "properties": {"crest": 2.2, "km2": 2.2, "held": 1}}, {"type": "Feature", "geometry": {"type": "Point", "coordinates": [-122.32556, 37.78929]}, "properties": {"crest": 2.49, "km2": 0.05, "held": 0}}, {"type": "Feature", "geometry": {"type": "Point", "coordinates": [-122.30548, 37.78886]}, "properties": {"crest": 2.58, "km2": 0.17, "held": 0}}, {"type": "Feature", "geometry": {"type": "Point", "coordinates": [-122.23886, 37.73986]}, "properties": {"crest": 2.59, "km2": 0.08, "held": 0}}, {"type": "Feature", "geometry": {"type": "Point", "coordinates": [-122.24166, 37.74784]}, "properties": {"crest": 2.74, "km2": 0.04, "held": 0}}, {"type": "Feature", "geometry": {"type": "Point", "coordinates": [-122.31502, 37.79231]}, "properties": {"crest": 2.79, "km2": 0.04, "held": 0}}, {"type": "Feature", "geometry": {"type": "Point", "coordinates": [-122.29039, 37.78888]}, "properties": {"crest": 2.88, "km2": 0.05, "held": 0}}, {"type": "Feature", "geometry": {"type": "Point", "coordinates": [-122.31796, 37.79255]}, "properties": {"crest": 3.0, "km2": 0.03, "held": 0}}, {"type": "Feature", "geometry": {"type": "Point", "coordinates": [-122.22331, 37.74552]}, "properties": {"crest": 2.2, "km2": 2.2, "held": 1}}, {"type": "Feature", "geometry": {"type": "Point", "coordinates": [-122.22026, 37.7449]}, "properties": {"crest": 2.2, "km2": 2.17, "held": 1}}, {"type": "Feature", "geometry": {"type": "Point", "coordinates": [-122.22671, 37.74544]}, "properties": {"crest": 2.3, "km2": 2.28, "held": 1}}, {"type": "Feature", "geometry": {"type": "Point", "coordinates": [-122.22172, 37.74547]}, "properties": {"crest": 2.6, "km2": 2.51, "held": 1}}, {"type": "Feature", "geometry": {"type": "Point", "coordinates": [-122.2183, 37.74299]}, "properties": {"crest": 2.68, "km2": 2.58, "held": 1}}, {"type": "Feature", "geometry": {"type": "Point", "coordinates": [-122.2253, 37.74541]}, "properties": {"crest": 2.77, "km2": 2.63, "held": 1}}]}